AXFH000
HFDTE020826
HFPLTPILOT:KaranS
HFGTYGLIDERTYPE:Niviuk Hiko P
HFDTM100GPSDATUM:WGS84
HFRFWFIRMWAREVERSION:9.7
HFRHWHARDWAREVERSION:iPhone 17 Pro
HFFTYFRTYPE:Flyskyhy,9.7
HFGPS:Internal
HFPRSVARIO:XC Tracer
HFCCLCOMPETITIONCLASS:Paraglider
HFTZNTIMEZONE:-7
HFSITSITE:Mount Vaca,US
I053638FXA3941VXA4244GSP4547CCO4850HDT
C020826202536020826000109TASK
C0000000N00000000ETAKEOFF
C3645907N11905878W00010009999999000000360000STARTAREA DNLNCH
C3646886N11907285W00000000000400000000360000TURNAREA 49917
C3644816N11904600W00000000001000000000360000TURNAREA SONTAG
C3646886N11907285W00000000000400000000360000TURNAREA 49917
C3644411N11907767W00000000001500000000360000TURNAREA TURKEY
C3645907N11905878W00000000000400000000360000TURNAREA DNLNCH
C3643790N11908069W00000000001500000000360000TURNAREA GRNY
C3644227N11904779W00000000001000000000360000TURNAREA LASTCH
C3646886N11907285W00000000000400000000360000TURNAREA 49917
C3644153N11906286W00000000002000000000360000TURNAREA DNLPLZ
C3644153N11906286W00000000000400000000360000FINISHAREA DNLPLZ
C0000000N00000000ELANDING
B2026053824017N12206365WA0086000860002003001278281
B2026063824017N12206365WA0086000860003003000016309
B2026073824017N12206365WA0086000860002003002037332
B2026083824017N12206365WA0086000860002003002237306
B2026093824017N12206366WA0086000860003003001237312
B2026103824017N12206365WA0086000860003003001237341
B2026113824018N12206365WA0086000860002003002066352
B2026123824018N12206365WA0086000860002003001066349
B2026133824018N12206365WA0086000860003003000066342
B2026143824018N12206365WA0086000859002003001301342
B2026153824018N12206365WA0086000860002003000301344
B2026163824018N12206365WA0086000859002003000301011
B2026173824018N12206365WA0086000860003003001059203
B2026183824018N12206365WA0086000860003003002041130
B2026193824018N12206364WA0086000860003003003041100
B2026203824018N12206364WA0086000860003003001041266
B2026213824018N12206364WA0086000860003003000041326
B2026223824018N12206364WA0086100860002003001041207
B2026233824018N12206364WA0086100860003003000041238
B2026243824018N12206364WA0086000860003003000323025
B2026253824018N12206364WA0086000860003003000323067
B2026263824018N12206364WA0085900860003003001170347
B2026273824017N12206364WA0085800860003003001240188
B2026283824017N12206366WA0085800860003003004247064
B2026293824016N12206368WA0085800859003003006248231
B2026303824015N12206370WA0085700859003003009259338
B2026313824015N12206372WA0085600858003003010250096
B2026323824014N12206375WA0085500858003003010247202
B2026333824013N12206378WA0085400858003003012253095
B2026343824012N12206382WA0085300857003003017256171
B2026353824010N12206388WA0085300858003003020251084
B2026363824008N12206392WA0085700857003003020238252
B2026373824006N12206396WA0085900857002003020235241
B2026383824004N12206400WA0085900857003003021250239
B2026393824004N12206405WA0086000857004003024280250
B2026403824005N12206410WA0085900858004003023288277
B2026413824006N12206414WA0085900857004003023267283
B2026423824005N12206417WA0086000858004003021231266
B2026433824003N12206419WA0086000858004003022199232
B2026443823999N12206421WA0086100859004003022216206
B2026453823997N12206424WA0086200863004003022245221
B2026463823997N12206428WA0086500865004003020270245
B2026473823998N12206431WA0086700867004003020288266
B2026483823998N12206434WA0086700866004003020305281
B2026493824001N12206438WA0086600865004003020314295
B2026503824005N12206442WA0086400862004003040322303
B2026513824011N12206447WA0086200861004003049325316
B2026523824017N12206453WA0086200862004003049326320
B2026533824023N12206458WA0086400864004003049322320
B2026543824028N12206462WA0086800868004003036322317
B2026553824031N12206466WA0087100870004003036323315
B2026563824035N12206469WA0087100869004003030312316
B2026573824037N12206474WA0087000868004003030301305
B2026583824040N12206480WA0086900866004003042301295
B2026593824044N12206488WA0086700867004003046312297
B2027003824048N12206493WA0086800868004003042323307
B2027013824053N12206497WA0087000870004003040329317
B2027023824058N12206500WA0087100870004003035331323
B2027033824063N12206504WA0087000870004003037330324
B2027043824068N12206508WA0087000868005003037328323
B2027053824074N12206512WA0086900868004003043329321
B2027063824080N12206517WA0086900869004003048331323
B2027073824086N12206521WA0087100871004003048330325
B2027083824092N12206526WA0087300874004003047327325
B2027093824097N12206529WA0087700878004003044331322
B2027103824102N12206533WA0088000878004003034343325
B2027113824107N12206533WA0088300881004003034355336
B2027123824112N12206533WA0088500882004003033359347
B2027133824116N12206534WA0088500883004003031350351
B2027143824120N12206536WA0088500882004003027323341
B2027163824122N12206541WA0088300881005003030297315
B2027173824124N12206546WA0088300882004003028276292
B2027183824124N12206551WA0088500883004003028251273
B2027193824122N12206553WA0088800886004003015216252
B2027203824120N12206554WA0089000888004003015196226
B2027213824118N12206554WA0089100889004003012205211
B2027223824116N12206556WA0089100889004003012218221
B2027233824114N12206558WA0089000890004003017212229
B2027243824112N12206559WA0089100891004003019195222
B2027253824109N12206559WA0089300893004003019164207
B2027263824106N12206556WA0089500895004003020138180
B2027273824104N12206552WA0089700897004003027126155
B2027283824102N12206548WA0089900900004003027111139
B2027293824102N12206543WA0090100903004003026090123
B2027303824102N12206538WA0090300905004003026076102
B2027313824104N12206532WA0090500906004003034066087
B2027323824107N12206526WA0090700908004003037058074
B2027333824110N12206520WA0090900910004003037049064
B2027343824114N12206516WA0091100913004003037038055
B2027353824119N12206512WA0091100912004003040021043
B2027363824125N12206510WA0091200914004003042005022
B2027373824131N12206512WA0091300915004003042346003
B2027383824137N12206515WA0091500916004003042333340
B2027393824142N12206518WA0091700919004003035328324
B2027403824146N12206522WA0091900919004003035320316
B2027413824147N12206524WA0092000920004003025306307
B2027423824148N12206528WA0092000920004003020280283
B2027433824148N12206532WA0092000920004003023259252
B2027443824147N12206537WA0092100921004003027257239
B2027453824146N12206542WA0092300922004003027275239
B2027463824148N12206547WA0092600926004003027290255
B2027473824150N12206552WA0092900930004003029299268
B2027483824151N12206556WA0093200933004003029289278
B2027493824151N12206559WA0093400935004003020256268
B2027503824150N12206560WA0093600936004003013207233
B2027513824147N12206561WA0093600938004003020198196
B2027523824144N12206562WA0093800940004003020195193
B2027533824141N12206562WA0094000943004003020170191
B2027543824138N12206560WA0094300945004003021140174
B2027553824136N12206555WA0094500948004003032121154
B2027563824133N12206550WA0094800949004003032104135
B2027573824133N12206544WA0095200953004003031092121
B2027583824133N12206539WA0095500956004003028083111
B2027593824134N12206533WA0095700958004003035080105
B2028003824136N12206526WA0095800960004003042073097
B2028013824139N12206518WA0096000964004003042059087
B2028023824144N12206511WA0096300967004003045039072
B2028033824150N12206508WA0096600970004003046021047
B2028043824157N12206506WA0096900973004003047004023
B2028053824164N12206507WA0097200976004003046347002
B2028063824169N12206510WA0097500979004003043331339
B2028073824172N12206514WA0097700982004003026313318
B2028083824174N12206517WA0098000986004003026307287
B2028093824176N12206520WA0098300989004003023315280
B2028103824178N12206523WA0098500991004003022317284
B2028113824181N12206526WA0098700993004003022314285
B2028123824183N12206529WA0098900995004003023308281
B2028133824185N12206533WA0099000996004003023302277
B2028143824187N12206537WA0099100997004003025301273
B2028153824189N12206542WA0099200998004003026296273
B2028163824190N12206546WA0099200999004003026279270
B2028173824189N12206551WA0099300999004003025254256
B2028183824187N12206554WA0099401001004003022224237
B2028193824185N12206555WA0099501002004003017200215
B2028203824183N12206556WA0099701004004003017190200
B2028213824181N12206556WA0099801005005003016182194
B2028223824178N12206556WA0099801006004003016173190
B2028233824175N12206555WA0099901007004003018162185
B2028243824173N12206554WA0100101008004003019153177
B2028253824170N12206552WA0100401011004003018152172
B2028263824168N12206551WA0100601013004003018164172
B2028273824166N12206551WA0100801016004003016187179
B2028283824163N12206552WA0101001018005003019208193
B2028293824161N12206555WA0101201020004003019223205
B2028303824159N12206558WA0101401021004003022236214
B2028313824158N12206562WA0101401022004003021252224
B2028323824157N12206566WA0101501022004003021271234
B2028333824160N12206575WA0101301021004003025289257
B2028343824160N12206580WA0101301020004003025278262
B2028353824160N12206583WA0101101018004003018247254
B2028363824158N12206585WA0100901016004003020202229
B2028373824154N12206585WA0100701014004003020173203
B2028383824151N12206584WA0100601013004003024155185
B2028393824147N12206581WA0100501014004003025148171
B2028403824145N12206579WA0100601015004003025143167
B2028413824142N12206576WA0100701016004003022132163
B2028423824141N12206573WA0100801017004003021123157
B2028433824139N12206569WA0100801016004003023127153
B2028443824136N12206565WA0100801016004003026131153
B2028453824134N12206562WA0100801017004003026130153
B2028463824132N12206558WA0100901018004003026120154
B2028473824130N12206554WA0101001019004003024112145
B2028483824129N12206549WA0101001018004003024113144
B2028493824127N12206545WA0101001017004003024121146
B2028503824125N12206541WA0100801016004003024126147
B2028513824123N12206537WA0100701015004003026125147
B2028523824120N12206533WA0100701016004003026125134
B2028533824118N12206530WA0100701016004003026131153
B2028543824115N12206527WA0100701016004003023138148
B2028553824113N12206524WA0100701015004003025134115
B2028563824110N12206520WA0100701014004003026128162
B2028573824108N12206516WA0100601014004003025120147
B2028583824107N12206512WA0100501013004003025108136
B2028593824106N12206507WA0100501013004003023101114
B2029003824106N12206503WA0100401012004003024088097
B2029013824108N12206498WA0100201010004003024065077
B2029023824112N12206493WA0100001007004003030034058
B2029033824118N12206491WA0099801005004003047009020
B2029043824125N12206490WA0099701006004003050347355
B2029063824132N12206493WA0099801007004003047337349
B2029073824137N12206497WA0100001008004003041335333
B2029083824142N12206500WA0100001008004003033334331
B2029093824146N12206503WA0100001007004003038331324
B2029103824152N12206507WA0099801006004003038331324
B2029113824158N12206511WA0099701005004003044330322
B2029123824164N12206516WA0099601006004003045328319
B2029133824169N12206520WA0099701007004003045326320
B2029143824175N12206525WA0099801006004003042325320
B2029153824180N12206529WA0099801006004003040324318
B2029163824184N12206534WA0099801007004003041324314
B2029173824190N12206539WA0100001009004003042327315
B2029183824195N12206543WA0100201011004003042329324
B2029193824201N12206547WA0100401013004003043331326
B2029203824207N12206551WA0100601015004003043332325
B2029213824212N12206554WA0100701016004003043328316
B2029223824216N12206559WA0100901018004003041316299
B2029233824219N12206565WA0101001018004003037300286
B2029243824221N12206570WA0100901018004003028284263
B2029253824221N12206575WA0100901018004003028269246
B2029263824220N12206579WA0100901018004003024251229
B2029273824219N12206581WA0100901018004003019229223
B2029283824216N12206584WA0101001019004003019210205
B2029293824213N12206585WA0101001019004003019190220
B2029303824211N12206584WA0101001020004003019172206
B2029313824208N12206584WA0101101020004003019176206
B2029323824204N12206584WA0101201022005003023184214
B2029333824201N12206584WA0101401023005003023189197
B2029343824199N12206585WA0101701026005003019192218
B2029353824197N12206586WA0102001029005003015207225
B2029363824196N12206588WA0102201031004003015246240
B2029373824196N12206592WA0102301032004003023276255
B2029383824198N12206597WA0102401033004003023299265
B2029393824201N12206602WA0102601035004003031306276
B2029403824203N12206606WA0102701037004003029307285
B2029413824206N12206611WA0102801038004003029305288
B2029423824208N12206615WA0102801038004003029302286
B2029433824211N12206621WA0102801037004003032294275
B2029443824212N12206628WA0102801037004003035283244
B2029453824212N12206634WA0102801038004003035257227
B2029463824210N12206637WA0102901038004003025217207
B2029473824208N12206638WA0102901038004003018201195
B2029483824205N12206639WA0102901039004003017201185
B2029493824203N12206641WA0102901038004003020209211
B2029503824201N12206643WA0102901038004003020233227
B2029513824199N12206647WA0102801038004003021272240
B2029523824201N12206654WA0102701036004003038290261
B2029533824204N12206661WA0102701036004003043302282
B2029543824208N12206668WA0102701037004003043309293
B2029553824213N12206674WA0102701038004003044313308
B2029563824218N12206680WA0102801038004003043317325
B2029573824223N12206685WA0102901038004003045325335
B2029583824229N12206689WA0102801037004003045336338
B2029593824237N12206692WA0102701035004003048344344
B2030003824245N12206694WA0102601035004003054345348
B2030013824252N12206697WA0102501034004003054343345
B2030023824260N12206700WA0102501034004003053344350
B2030033824267N12206702WA0102401033004003050346350
B2030043824274N12206704WA0102301032005003046346345
B2030053824280N12206706WA0102101030004003046344345
B2030063824287N12206709WA0101901027004003045342355
B2030073824293N12206711WA0101801026004003044342327
B2030083824299N12206714WA0101601023004003043342319
B2030093824305N12206716WA0101401022004003043339316
B2030103824311N12206720WA0101201019004003043330345
B2030113824317N12206725WA0101001017004003043330345
B2030123824322N12206728WA0100801016004003039337337
B2030133824327N12206730WA0100601014004003039338340
B2030143824332N12206733WA0100401011004003037331335
B2030153824337N12206737WA0100101010004003037322320
B2030163824342N12206742WA0099701007004003040320324
B2030173824347N12206747WA0099501004004003040322321
B2030183824351N12206751WA0099201002004003039325319
B2030193824356N12206755WA0099000999005003039324319
B2030203824361N12206760WA0098800997004003041323317
B2030213824366N12206765WA0098600995004003042322315
B2030223824371N12206770WA0098500994004003042322315
B2030233824376N12206774WA0098400993004003042324312
B2030243824381N12206779WA0098300992004003040326313
B2030253824386N12206783WA0098200991004003041325316
B2030263824391N12206788WA0098100990004003041320316
B2030273824395N12206793WA0098200990004003041314310
B2030283824399N12206799WA0098200990004003039315302
B2030293824404N12206803WA0098200991004003039323301
B2030303824408N12206807WA0098200990004003038325311
B2030313824413N12206812WA0098000988004003038322315
B2030323824418N12206817WA0097800985004003043318311
B2030333824423N12206823WA0097600984004003044315310
B2030343824427N12206829WA0097400982004003043313313
B2030353824431N12206834WA0097300980004003041314315
B2030363824435N12206839WA0097100978004003039316313
B2030373824440N12206844WA0096800974004003039318326
B2030383824444N12206849WA0096600971004003039318321
B2030393824453N12206860WA0096100969004003040320317
B2030403824458N12206864WA0096000967004003042325316
B2030413824464N12206868WA0095900966004003043331305
B2030423824469N12206872WA0095900966004003043332314
B2030433824475N12206876WA0096000967004003043330327
B2030443824479N12206879WA0095900966004003035330309
B2030453824484N12206883WA0095900967004003036328296
B2030463824489N12206886WA0096000967004003035327332
B2030473824493N12206890WA0096000967004003035328285
B2030483824496N12206892WA0095900966004003028328274
B2030493824500N12206895WA0095700965004003030319286
B2030503824503N12206900WA0095500961004003030311281
B2030513824506N12206905WA0095200958004003033309283
B2030523824510N12206911WA0095000956004003039313291
B2030533824515N12206916WA0094800954004003042321291
B2030543824520N12206921WA0094700952004003042325311
B2030553824526N12206925WA0094500951004003043327297
B2030563824531N12206930WA0094300948004003045324312
B2030573824537N12206935WA0094100945004003045322300
B2030583824542N12206940WA0093900943004003045323316
B2030593824548N12206946WA0093700941004003046324321
B2031003824554N12206951WA0093600941004003045325321
B2031013824559N12206955WA0093500939004003045326298
B2031023824564N12206960WA0093400938004003044327300
B2031033824570N12206964WA0093200936004003044326320
B2031043824575N12206969WA0093100934004003044325321
B2031053824581N12206974WA0092800931004003044325316
B2031073824586N12206979WA0092600928004003044325319
B2031083824592N12206984WA0092300926004003045325307
B2031093824597N12206989WA0092100923004003044324318
B2031103824602N12206993WA0091800920004003044322306
B2031113824607N12206998WA0091600917004003042323304
B2031123824613N12207003WA0091300915004003042325309
B2031133824619N12207008WA0091000912004003047328346
B2031143824625N12207012WA0090800912004003047331316
B2031153824631N12207016WA0090600909004003046331319
B2031163824636N12207021WA0090400907004003044327321
B2031173824642N12207026WA0090200904004003045323313
B2031183824647N12207031WA0089900904004003045322300
B2031193824652N12207036WA0089800902004003045320305
B2031203824657N12207041WA0089600899004003043317319
B2031213824662N12207047WA0089400896004003045316305
B2031223824667N12207053WA0089100893004003048315301
B2031233824672N12207060WA0088900891004003048313303
B2031243824677N12207067WA0088800890004003048308297
B2031253824681N12207074WA0088700890004003044305310
B2031263824684N12207081WA0088800891004003044306300
B2031273824688N12207086WA0088900891004003040310288
B2031283824691N12207091WA0088900891004003036315324
B2031293824695N12207095WA0088800889004003035318302
B2031303824700N12207100WA0088600886004003040322320
B2031313824706N12207104WA0088300884004003040328319
B2031323824712N12207109WA0088200882004003046334341
B2031333824718N12207112WA0088000880004003047334335
B2031343824725N12207116WA0087900879004003047333322
B2031353824731N12207120WA0087700877004003046332300
B2031363824736N12207125WA0087500875004003045324288
B2031373824741N12207130WA0087300872004003042311284
B2031383824744N12207137WA0087000869004003044300286
B2031393824747N12207145WA0086800868004003044297284
B2031403824751N12207153WA0086800868004003044298302
B2031413824754N12207159WA0086900869004003040299292
B2031423824756N12207165WA0086900869004003040299303
B2031433824759N12207171WA0086900869004003037298309
B2031443824761N12207177WA0086900868004003036296291
B2031453824763N12207183WA0086800868004003035294283
B2031463824766N12207190WA0086600865004003037291285
B2031473824767N12207197WA0086400863004003037286296
B2031483824769N12207204WA0086300861004003039284288
B2031493824770N12207212WA0086100859004003041287291
B2031503824773N12207219WA0085900858004003041293291
B2031513824775N12207226WA0085800857004003041295283
B2031523824778N12207233WA0085800856004003040291288
B2031533824780N12207240WA0085800856004003037288296
B2031543824782N12207246WA0085800856004003037292285
B2031553824784N12207253WA0085900857004003037298295
B2031563824787N12207259WA0086000859004003037300290
B2031573824790N12207265WA0086200861004003038300299
B2031583824793N12207271WA0086300862004003039302311
B2031593824796N12207278WA0086500863004003039302293
B2032003824800N12207285WA0086600865004003042301285
B2032013824803N12207292WA0086700867004003040295242
B2032023824804N12207298WA0086900868004003040280244
B2032033824805N12207304WA0087000867004003033253224
B2032043824802N12207308WA0086900866004003029226201
B2032053824798N12207310WA0086900866004003023191186
B2032063824795N12207308WA0086900867004003023144161
B2032073824794N12207304WA0086900867004003023104140
B2032083824795N12207298WA0086900867004003025076116
B2032093824797N12207292WA0086900866004003037058094
B2032103824801N12207286WA0086900867004003041043072
B2032113824807N12207282WA0087000869004003041031052
B2032123824812N12207278WA0087200871004003043023037
B2032133824819N12207276WA0087400873004003042016028
B2032143824825N12207274WA0087600875004003044007021
B2032153824832N12207274WA0087700875004003044358007
B2032163824839N12207275WA0087800877004003046349349
B2032173824846N12207278WA0087900879004003049341337
B2032183824852N12207282WA0088200881004003049331327
B2032193824857N12207287WA0088400884004003047318313
B2032203824860N12207293WA0088600885004003041304304
B2032213824863N12207299WA0088700886004003039300294
B2032223824867N12207305WA0088700886004003042308299
B2032233824872N12207311WA0088700886004003042322311
B2032243824878N12207315WA0088800887004003045333325
B2032253824885N12207318WA0088900888004003045339314
B2032263824891N12207321WA0089000890004003045339343
B2032273824896N12207324WA0089100890004003041336348
B2032283824901N12207327WA0089200890004003038342002
B2032293824907N12207328WA0089100890004003042358011
B2032303824914N12207326WA0089000888004003047015028
B2032313824921N12207322WA0088900886004003047032046
B2032323824926N12207315WA0088800886004003048046061
B2032333824929N12207308WA0088700886004003040060074
B2032343824931N12207302WA0088700886004003040073089
B2032353824931N12207296WA0088600885004003034091100
B2032363824930N12207291WA0088500883004003030116117
B2032373824927N12207288WA0088400883004003026149134
B2032383824923N12207287WA0088500883004003026176158
B2032393824920N12207288WA0088600885004003024198178
B2032403824918N12207290WA0088800887004003019220191
B2032413824917N12207293WA0088900888004003016253204
B2032423824917N12207296WA0088900888004003022278223
B2032433824919N12207301WA0088800887004003022296249
B2032443824922N12207307WA0088800886004003030310265
B2032453824927N12207313WA0088800886004003039318291
B2032463824931N12207318WA0088900887004003039322311
B2032473824936N12207322WA0089000889004003039324317
B2032483824940N12207325WA0089100889004003034325320
B2032493824945N12207329WA0089200889004003034331316
B2032503824950N12207332WA0089200890004003043335316
B2032513824956N12207336WA0089300890004003043332321
B2032523824961N12207340WA0089300891005003041321328
B2032533824964N12207344WA0089300890004003035311309
B2032543824967N12207349WA0089200889004003034312310
B2032553824971N12207354WA0089100888004003038318304
B2032563824976N12207359WA0089000887004003041318290
B2032573824980N12207364WA0088900886004003040315294
B2032583824984N12207369WA0088800886004003040315328
B2032593824988N12207373WA0088800885004003036318315
B2033003824992N12207377WA0088700884004003033325325
B2033013824996N12207381WA0088600883004003035328320
B2033023825001N12207384WA0088400881004003035325325
B2033033825006N12207389WA0088300879004003038321316
B2033043825010N12207394WA0088200879004003037321311
B2033053825014N12207398WA0088200879004003037325314
B2033063825019N12207401WA0088100879004003034330311
B2033073825024N12207404WA0088100877004003034333325
B2033083825029N12207407WA0087900876004003040334346
B2033093825035N12207410WA0087900875004003041335336
B2033103825040N12207413WA0087700874004003040336341
B2033113825046N12207417WA0087600872004003040335322
B2033123825051N12207420WA0087400870004003039333308
B2033133825056N12207423WA0087100866004003042332321
B2033143825062N12207427WA0086800864004003042334342
B2033153825069N12207430WA0086600861004003044340354
B2033163825075N12207432WA0086400860004003044344354
B2033173825081N12207434WA0086400860004003044346352
B2033183825087N12207436WA0086300859004003042345357
B2033193825092N12207438WA0086200858004003038344350
B2033203825098N12207440WA0086200857004003041345334
B2033213825105N12207442WA0086100856004003045348350
B2033223825112N12207443WA0086000856004003045349348
B2033233825118N12207445WA0086100856004003045349354
B2033243825124N12207446WA0086000856004003041351335
B2033253825131N12207447WA0085800854004003041354350
B2033263825137N12207448WA0085700853004003041353352
B2033273825143N12207450WA0085600850004003043348345
B2033283825150N12207452WA0085300848004003046345348
B2033293825157N12207454WA0085200847004003046345358
B2033303825163N12207456WA0085100846004003046350003
B2033313825170N12207456WA0085100846004003045359013
B2033323825176N12207456WA0085000845004003043002003
B2033333825183N12207456WA0084900844004003043001355
B2033343825190N12207456WA0084700842004003043359014
B2033353825197N12207455WA0084600840004003045002352
B2033363825204N12207454WA0084400838004003050007021
B2033373825212N12207453WA0084200837004003051006338
B2033383825219N12207452WA0084200837004003050009355
B2033393825226N12207449WA0084200838004003050017015
B2033403825232N12207446WA0084300839004003044020000
B2033413825238N12207444WA0084400839004003044019024
B2033423825244N12207441WA0084400839004003041015010
B2033433825250N12207439WA0084400839004003041014001
B2033443825257N12207438WA0084400839004003046011007
B2033453825264N12207436WA0084400840004003046006003
B2033463825271N12207436WA0084500840004003046002006
B2033473825278N12207435WA0084500841004003046005032
B2033483825284N12207434WA0084700842004003043013005
B2033493825290N12207431WA0084800844004003043019005
B2033503825295N12207429WA0084900845004003040017356
B2033513825301N12207428WA0084900845004003037009343
B2033523825306N12207427WA0084900844004003038001344
B2033533825312N12207427WA0084900844004003039357332
B2033543825318N12207428WA0084800844004003039356345
B2033553825324N12207428WA0084900845004003039356352
B2033563825329N12207429WA0085000846004003035354001
B2033573825334N12207429WA0085100846004003035357348
B2033583825339N12207429WA0085000846005003035004010
B2033593825345N12207428WA0084900845004003036006008
B2034003825351N12207428WA0084900845004003041003335
B2034013825357N12207428WA0084900844004003041357323
B2034023825363N12207429WA0084800843004003040349329
B2034033825368N12207431WA0084700842004003039341328
B2034043825374N12207434WA0084500840005003041337337
B2034053825380N12207437WA0084500840004003041340330
B2034063825385N12207439WA0084400840004003040341341
B2034073825390N12207441WA0084300839004003037336304
B2034083825394N12207444WA0084300838004003030324284
B2034093825397N12207448WA0084100836004003030310282
B2034103825399N12207453WA0083900834004003028293265
B2034113825400N12207458WA0083700832004003027281254
B2034123825400N12207463WA0083600831004003027275266
B2034133825400N12207468WA0083500830004003028276262
B2034143825401N12207473WA0083500829004003028286281
B2034153825403N12207478WA0083400828004003028297279
B2034163825405N12207483WA0083300827004003029304288
B2034173825408N12207487WA0083200826004003030307290
B2034183825411N12207492WA0083000825004003030303274
B2034193825413N12207498WA0083000825004003031294255
B2034203825414N12207503WA0083100826004003031285248
B2034213825415N12207509WA0083300827004003031279277
B2034223825416N12207513WA0083300829004003027284271
B2034233825417N12207518WA0083400829004003024295288
B2034243825419N12207522WA0083400828004003027301291
B2034253825421N12207527WA0083300827004003032300263
B2034263825424N12207533WA0083300827004003032294256
B2034273825425N12207538WA0083300828004003032282241
B2034283825425N12207542WA0083400828004003023270233
B2034293825425N12207546WA0083300828004003023262233
B2034303825424N12207551WA0083300827004003022262241
B2034313825424N12207555WA0083300827004003022267232
B2034323825424N12207558WA0083200826004003020267234
B2034333825424N12207562WA0083100825004003020259238
B2034343825423N12207566WA0082900823004003020253241
B2034353825422N12207570WA0082700821004003020252241
B2034363825421N12207574WA0082600819004003022253244
B2034373825420N12207578WA0082400817004003022252255
B2034383825419N12207581WA0082300816004003022254258
B2034393825419N12207585WA0082200815004003020261245
B2034403825419N12207589WA0082000813004003020262216
B2034413825418N12207593WA0081800811004003020249216
B2034423825416N12207596WA0081600809004003020240248
B2034433825415N12207600WA0081500807004003021248239
B2034443825414N12207605WA0081300805004003025265249
B2034453825415N12207610WA0081100804004003025276224
B2034463825415N12207614WA0081000802004003025272232
B2034473825414N12207619WA0080900801004003024260210
B2034483825413N12207623WA0080800800004003021249232
B2034493825412N12207626WA0080800800004003021243226
B2034503825411N12207630WA0080700800004003021239226
B2034513825409N12207633WA0080800800004003021237224
B2034523825407N12207637WA0080800801004003022235226
B2034533825405N12207641WA0080800801004003024235245
B2034543825403N12207645WA0080900802004003024238228
B2034553825401N12207648WA0080800801004003023248232
B2034563825401N12207652WA0080700800004003021259230
B2034573825400N12207656WA0080500797004003021262244
B2034583825400N12207661WA0080300795004003023258243
B2034593825399N12207665WA0080200794004003024252248
B2035003825398N12207669WA0080000792004003023251237
B2035013825397N12207673WA0079800790004003023251223
B2035023825395N12207677WA0079700789004003023241243
B2035033825393N12207681WA0079600788004003020226214
B2035043825391N12207683WA0079600787004003020221231
B2035053825389N12207685WA0079500786004003020230221
B2035063825388N12207689WA0079400785004003020242235
B2035073825386N12207694WA0079200784004003024247236
B2035083825384N12207699WA0079200783004003030251256
B2035093825383N12207705WA0079100783004003031257269
B2035103825383N12207711WA0079100782004003031262269
B2035113825382N12207717WA0079100782004003031269266
B2035123825383N12207723WA0079000781004003032276265
B2035133825384N12207729WA0078800779004003035280265
B2035143825385N12207736WA0078700777004003035281254
B2035153825386N12207743WA0078500776004003035277236
B2035163825385N12207749WA0078400775004003034265225
B2035173825384N12207754WA0078400774004003027248223
B2035183825382N12207758WA0078300774004003027235217
B2035193825380N12207761WA0078300774004003024224209
B2035203825377N12207764WA0078400774004003024210201
B2035213825373N12207766WA0078500776004003027196195
B2035223825369N12207767WA0078600778004003028192207
B2035233825365N12207768WA0078800780004003027202199
B2035243825362N12207771WA0079000783004003026220205
B2035253825360N12207774WA0079200783004003021228192
B2035263825358N12207777WA0079500783004003021214188
B2035273825355N12207777WA0079600786004003019174168
B2035283825353N12207776WA0079700786005003019136149
B2035293825350N12207771WA0079800787004003032109136
B2035303825350N12207763WA0079900789004003037086112
B2035313825352N12207756WA0080000791004003037066087
B2035323825356N12207750WA0080200792004003040046068
B2035333825362N12207745WA0080300793004003045026043
B2035343825368N12207742WA0080400793004003045359019
B2035353825374N12207744WA0080400794004003045338347
B2035363825379N12207750WA0080500794004003043312323
B2035373825383N12207756WA0080600795004003040300294
B2035383825384N12207764WA0080700797004003040279281
B2035393825384N12207770WA0080900799004003035264260
B2035403825382N12207775WA0081000801004003030247246
B2035413825380N12207779WA0081200803004003024227229
B2035423825377N12207781WA0081400805004003024206211
B2035433825374N12207782WA0081500807004003023175196
B2035443825372N12207780WA0081600807004003020139175
B2035453825370N12207777WA0081500806005003025123151
B2035463825367N12207772WA0081600807004003029126146
B2035473825364N12207768WA0081600807004003026140149
B2035483825361N12207767WA0081600808004003026167160
B2035493825358N12207767WA0081700809004003021187175
B2035503825355N12207768WA0081800809004003021200190
B2035513825353N12207770WA0081800809004003019207200
B2035523825351N12207772WA0081700808004003018227220
B2035533825350N12207776WA0081500806004003023259229
B2035543825351N12207781WA0081300803004003032287253
B2035553825354N12207787WA0081000801004003032309281
B2035563825359N12207793WA0080900801004003040321301
B2035573825363N12207797WA0080900801004003035326314
B2035583825367N12207800WA0080900800004003035328317
B2035593825371N12207802WA0080700798004003031333320
B2036003825375N12207805WA0080500798004003031346324
B2036013825381N12207806WA0080300797004003045003342
B2036023825388N12207804WA0080100795004003047019006
B2036033825394N12207799WA0079900793004003045037026
B2036043825398N12207793WA0079800792004003045057049
B2036053825400N12207786WA0079700791004003034077071
B2036063825399N12207780WA0079600789004003034103097
B2036073825398N12207776WA0079500789004003028136121
B2036083825395N12207774WA0079400789004003022163151
B2036093825392N12207774WA0079400789004003017175175
B2036103825390N12207774WA0079400788004003017179183
B2036113825387N12207774WA0079300787004003016190188
B2036123825385N12207775WA0079200786004003016206192
B2036133825383N12207777WA0079100785004003017217198
B2036143825381N12207779WA0079000784004003018219192
B2036153825379N12207781WA0079000783004003017219191
B2036163825377N12207783WA0078900782004003017213196
B2036173825374N12207785WA0078900782004003018206199
B2036183825372N12207787WA0078900782004003018210206
B2036193825370N12207789WA0078900781004003018221213
B2036203825368N12207792WA0078800780004003019235214
B2036213825366N12207796WA0078800780004003023246217
B2036223825365N12207800WA0078700780004003027253233
B2036233825364N12207805WA0078700780004003027259259
B2036243825364N12207811WA0078700780004003029267256
B2036253825364N12207817WA0078700779004003031276273
B2036263825365N12207823WA0078600778004003033290274
B2036273825368N12207829WA0078500777004003033298287
B2036283825370N12207835WA0078400775004003036302294
B2036293825374N12207841WA0078200774004003039305300
B2036303825378N12207847WA0078100772004003042310322
B2036313825382N12207853WA0077900770004003042315317
B2036323825387N12207859WA0077800769004003045319328
B2036333825393N12207865WA0077700768004003047322333
B2036343825399N12207870WA0077600767004003047324325
B2036353825404N12207875WA0077500766004003046327334
B2036363825410N12207879WA0077400764004003045330330
B2036373825416N12207883WA0077300763004003047333327
B2036383825423N12207887WA0077200762004003049332332
B2036393825429N12207892WA0077100761004003049330339
B2036403825436N12207896WA0077000760004003049330339
B2036413825442N12207900WA0076900760004003046334340
B2036423825448N12207903WA0076900759005003046340341
B2036433825455N12207906WA0076800758004003045343337
B2036443825461N12207908WA0076700758004003045340328
B2036453825468N12207912WA0076600756004003048333332
B2036463825474N12207917WA0076500755004003049328332
B2036473825480N12207922WA0076400754004003049325333
B2036483825487N12207928WA0076400754004003051325325
B2036493825493N12207933WA0076400754004003050326312
B2036503825499N12207938WA0076400754004003050326317
B2036513825505N12207944WA0076400754004003050323335
B2036523825511N12207949WA0076400754004003049322317
B2036533825516N12207954WA0076400754004003044322321
B2036543825521N12207959WA0076400754004003044324308
B2036553825527N12207964WA0076400754004003043323279
B2036563825531N12207970WA0076400754004003043313299
B2036573825535N12207976WA0076400753004003043301310
B2036583825538N12207984WA0076400754004003041295297
B2036593825540N12207990WA0076400754004003041296295
B2037003825543N12207997WA0076500755004003039294282
B2037013825545N12208003WA0076600756004003037291297
B2037023825547N12208009WA0076800758004003034293300
B2037033825549N12208014WA0076900760004003030298296
B2037043825551N12208018WA0077100761004003030308288
B2037053825554N12208022WA0077100761004003026318298
B2037063825557N12208025WA0077000761004003026324302
B2037073825561N12208029WA0076900759005003030323309
B2037083825565N12208033WA0076800757005003037316303
B2037093825569N12208039WA0076700756004003038311298
B2037103825573N12208044WA0076700757004003037312279
B2037113825576N12208048WA0076700758004003035315292
B2037123825578N12208051WA0076800759004003028313270
B2037133825580N12208054WA0076800758005003022306261
B2037143825582N12208058WA0076800757004003023300267
B2037153825584N12208062WA0076600756004003023291263
B2037163825585N12208067WA0076500754004003025285264
B2037173825586N12208073WA0076400754004003028283260
B2037183825587N12208078WA0076500755004003028284293
B2037193825588N12208082WA0076700756004003028284261
B2037203825589N12208086WA0076800758004003021288271
B2037213825590N12208089WA0076800758004003019291277
B2037223825591N12208092WA0076800757004003017287283
B2037233825591N12208096WA0076700757004003023281261
B2037243825592N12208101WA0076700756004003028279267
B2037253825593N12208106WA0076700757004003028276256
B2037263825593N12208111WA0076800758004003028269262
B2037273825593N12208115WA0076900759004003021268251
B2037283825593N12208119WA0077000760004003022276244
B2037293825594N12208124WA0077100761004003022287242
B2037303825595N12208128WA0077200763004003024290278
B2037313825596N12208132WA0077300763004003023291275
B2037323825598N12208136WA0077300764005003023296268
B2037333825599N12208140WA0077300763004003021294272
B2037343825600N12208144WA0077200761004003021282268
B2037353825601N12208149WA0077000759004003028275264
B2037363825601N12208154WA0077000760004003034277263
B2037373825602N12208161WA0077000761004003033280274
B2037383825603N12208166WA0077200763005003033283253
B2037393825604N12208171WA0077300764004003026282240
B2037403825604N12208176WA0077400765004003028279233
B2037413825605N12208182WA0077400765004003028278262
B2037423825606N12208187WA0077400765004003029280239
B2037433825607N12208193WA0077400764004003034284227
B2037443825608N12208200WA0077400765004003034283234
B2037453825609N12208206WA0077500765004003033276239
B2037463825609N12208212WA0077500766004003033273237
B2037473825610N12208218WA0077600767004003034277255
B2037483825611N12208225WA0077700767004003034283263
B2037493825612N12208231WA0077700767004003033289292
B2037503825615N12208237WA0077600766004003033295280
B2037513825617N12208242WA0077600766004003034303278
B2037523825620N12208248WA0077500765004003034302278
B2037533825622N12208253WA0077400764004003033293276
B2037543825623N12208259WA0077300762004003033281268
B2037553825624N12208266WA0077100762004003041275268
B2037563825625N12208274WA0077200763004003041276283
B2037573825626N12208281WA0077300766004003038278239
B2037583825627N12208286WA0077500767004003033281236
B2037593825627N12208291WA0077600768004003025278237
B2038003825627N12208296WA0077600767004003025273245
B2038013825628N12208301WA0077600767004003025280278
B2038023825630N12208307WA0077500766004003029296285
B2038033825634N12208313WA0077500765004003041310296
B2038043825638N12208319WA0077500766004003043316303
B2038053825642N12208324WA0077700768004003041317317
B2038063825646N12208329WA0077800770004003040313310
B2038073825650N12208334WA0077900770005003035309302
B2038083825653N12208339WA0078000770004003038311303
B2038093825657N12208345WA0078000770004003038313302
B2038103825661N12208350WA0078100771004003038315308
B2038113825665N12208354WA0078200772004003036317314
B2038123825669N12208359WA0078200773004003036315308
B2038133825672N12208363WA0078200773004003034312307
B2038143825676N12208368WA0078100772004003034308300
B2038153825679N12208374WA0077900769004003037300298
B2038163825681N12208381WA0077700767004003039293292
B2038173825683N12208388WA0077600766004003039291292
B2038183825685N12208394WA0077500765004003039293302
B2038193825688N12208401WA0077400764004003039296293
B2038203825691N12208408WA0077300763004003044304300
B2038213825696N12208415WA0077200762004003044311298
B2038223825701N12208421WA0077100761004003047317312
B2038233825706N12208427WA0077000760004003044314296
B2038243825710N12208433WA0076900759004003044306284
B2038253825713N12208440WA0076900759004003041300315
B2038263825716N12208445WA0076800757004003038301306
B2038273825718N12208451WA0076600755004003035303299
B2038283825721N12208457WA0076400753004003037305302
B2038293825725N12208463WA0076100750004003037310294
B2038303825729N12208469WA0075900747004003040312294
B2038313825734N12208475WA0075700745004003042309292
B2038323825737N12208481WA0075500744004003042303305
B2038333825740N12208487WA0075400742004003037299301
B2038343825742N12208493WA0075200740004003037298299
B2038353825745N12208500WA0075000738004003040300304
B2038363825749N12208506WA0074800735004003040305285
B2038373825753N12208512WA0074600733004003040309295
B2038383825757N12208518WA0074300730004003041309293
B2038393825761N12208525WA0074100727004003044308303
B2038403825765N12208532WA0073800724004003044308314
B2038413825769N12208538WA0073600722004003043314311
B2038423825774N12208543WA0073400719004003043323313
B2038433825780N12208547WA0073100717004003045330321
B2038443825786N12208551WA0073000715004003045334334
B2038453825792N12208555WA0072700712004003045335336
B2038463825799N12208558WA0072400709005003047338342
B2038473825807N12208561WA0072200706004003052341336
B2038483825814N12208564WA0071900703004003054342333
B2038493825822N12208568WA0071600701004003053340338
B2038503825829N12208571WA0071400699004003053340349
B2038513825836N12208574WA0071300698004003049342347
B2038523825844N12208577WA0071200696004003049346352
B2038533825851N12208578WA0071000694004003049348347
B2038543825858N12208580WA0070800692004003049347347
B2038553825866N12208583WA0070600689004003052345358
B2038563825873N12208585WA0070400687004003052347006
B2038573825881N12208587WA0070200685004003051350358
B2038583825888N12208588WA0070000683004003051352354
B2038593825896N12208590WA0069800681004003050350354
B2039003825903N12208591WA0069600679004003050348355
B2039013825910N12208593WA0069400677004003050350013
B2039023825918N12208594WA0069300676004003049354001
B2039033825925N12208595WA0069100674004003048356359
B2039043825932N12208595WA0068900671004003047356347
B2039053825939N12208596WA0068600669004003050353356
B2039063825947N12208598WA0068400666004003050351001
B2039073825955N12208599WA0068300665004003052351340
B2039083825963N12208601WA0068100664004003052352350
B2039093825970N12208602WA0068100663004003050352345
B2039103825977N12208603WA0067900662004003050348341
B2039113825985N12208605WA0067800660004003049347353
B2039123825992N12208607WA0067600658004003049347357
B2039133825999N12208610WA0067400657004003050347347
B2039143826007N12208612WA0067300655004003048344009
B2039153826013N12208615WA0067100654004003048340347
B2039163826019N12208617WA0067000651004003043339352
B2039173826025N12208620WA0066700649004003043342343
B2039183826032N12208622WA0066500646004003044345351
B2039193826039N12208624WA0066300643004003049346352
B2039203826046N12208627WA0066000641004003051346358
B2039213826054N12208629WA0065800639004003051346003
B2039223826061N12208631WA0065700638004003051348005
B2039233826068N12208633WA0065600637004003050349358
B2039243826075N12208634WA0065400635004003048350004
B2039253826082N12208636WA0065300634004003048348355
B2039263826089N12208638WA0065200632004003048345354
B2039273826096N12208641WA0065000630004003048344352
B2039283826103N12208643WA0064800628004003048345009
B2039293826110N12208645WA0064600626004003044348355
B2039303826116N12208646WA0064400622004003044349006
B2039313826122N12208647WA0064000619004003042350353
B2039323826129N12208649WA0063700614004003042351351
B2039333826135N12208650WA0063400611004003047354337
B2039343826143N12208650WA0063100609004003051356348
B2039353826151N12208651WA0063000610004003051352353
B2039363826158N12208653WA0063000610004003051346009
B2039373826164N12208655WA0063000610004003041343349
B2039383826169N12208657WA0063000610004003041345353
B2039393826175N12208658WA0062900608004003038353345
B2039403826180N12208659WA0062700607004003038358348
B2039413826187N12208659WA0062400604004003046359348
B2039423826195N12208659WA0062100600004003051356346
B2039433826203N12208660WA0061800597004003051353346
B2039443826211N12208661WA0061600595004003053353341
B2039453826218N12208662WA0061400593004003051352338
B2039463826226N12208664WA0061200591004003051350338
B2039473826234N12208666WA0061100589004003051347336
B2039483826241N12208668WA0061000588004003051347322
B2039493826248N12208670WA0060900588004003046347317
B2039503826254N12208672WA0060900586004003046343316
B2039513826260N12208675WA0060700585004003045337325
B2039523826267N12208678WA0060600583004003045335311
B2039533826273N12208682WA0060500582004003046335325
B2039543826279N12208686WA0060400581004003046334311
B2039553826284N12208689WA0060300580004003043331328
B2039563826290N12208693WA0060200579004003042331334
B2039573826295N12208697WA0060000577004003040331323
B2039583826301N12208700WA0059800574004003041331323
B2039593826306N12208704WA0059600571004003041329315
B2040003826312N12208709WA0059300568004003042327309
B2040013826317N12208713WA0059000565004003044326309
B2040023826322N12208718WA0058800562004003044323311
B2040033826328N12208724WA0058500560004003044321324
B2040043826333N12208729WA0058300558004003045322333
B2040053826339N12208734WA0058200556004003047326317
B2040063826346N12208738WA0058100556004003047335334
B2040073826352N12208741WA0058100556004003047346343
B2040083826359N12208742WA0058100555004003047352359
B2040093826366N12208743WA0058000554004003046356009
B2040103826373N12208743WA0057800552004003048358358
B2040113826381N12208743WA0057700551004003048357338
B2040123826388N12208744WA0057600550004003050357347
B2040133826396N12208744WA0057500549004003050354343
B2040143826403N12208746WA0057400548004003050353336
B2040153826410N12208747WA0057300547004003048351346
B2040163826417N12208748WA0057100545004003048352340
B2040173826425N12208749WA0057000543004003050352346
B2040183826432N12208751WA0056800542004003050351348
B2040193826440N12208752WA0056700540004003050351351
B2040203826447N12208753WA0056500540004003051351357
B2040213826455N12208755WA0056400540004003054351352
B2040223826464N12208756WA0056200538004003054351354
B2040233826472N12208758WA0056100536004003054352356
B2040243826480N12208759WA0056000534004003055353357
B2040253826489N12208760WA0055800533004003058353354
B2040263826497N12208761WA0055700532004003058353337
B2040273826506N12208763WA0055600531004003057353354
B2040283826513N12208764WA0055600531004003055353320
B2040293826521N12208765WA0055600531004003051350324
B2040303826528N12208768WA0055500530004003051344318
B2040313826535N12208771WA0055500528004003048339330
B2040323826541N12208774WA0055300526004003048337319
B2040333826548N12208778WA0055100524004003050338306
B2040343826555N12208781WA0055000523004003050338309
B2040353826562N12208785WA0054900522004003050336311
B2040363826568N12208789WA0054800520004003048335323
B2040373826575N12208793WA0054600519004003047333317
B2040383826581N12208797WA0054500517004003047331316
B2040393826587N12208801WA0054300515004003047332311
B2040403826593N12208805WA0054200514004003047332313
B2040413826599N12208809WA0054000512004003044331309
B2040423826605N12208813WA0053800510004003044329286
B2040433826610N12208818WA0053500507004003043324279
B2040443826614N12208823WA0053300504004003041317281
B2040453826618N12208828WA0053100501004003041311277
B2040463826622N12208835WA0052800499004003041308274
B2040473826625N12208841WA0052600496004003041303275
B2040483826628N12208847WA0052400494004003038297274
B2040493826630N12208853WA0052200492004003035295280
B2040503826633N12208859WA0052100490004003035301277
B2040513826636N12208864WA0051800487004003035312305
B2040523826640N12208869WA0051500486004003037327311
B2040533826647N12208873WA0051100482004003051337331
B2040543826655N12208877WA0050800482004003053343341
B2040553826663N12208879WA0050600481004003053345347
B2040563826670N12208881WA0050400479004003053348351
B2040573826678N12208883WA0050200476004003052349351
B2040583826686N12208884WA0050000473004003052349355
B2040593826694N12208886WA0049800473004003052350356
B2041003826702N12208887WA0049600470004003053352007
B2041013826710N12208888WA0049500468004003053354000
B2041023826718N12208889WA0049400467004003053355010
B2041033826725N12208889WA0049200466004003052357016
B2041043826733N12208889WA0049100463004003050000004
B2041053826740N12208888WA0048900461004003049004003
B2041063826748N12208888WA0048700458004003050004002
B2041073826755N12208887WA0048600456004003049002356
B2041083826763N12208887WA0048400456004003049001001
B2041093826770N12208886WA0048300454004003049001354
B2041103826777N12208886WA0048200453004003047000350
B2041113826784N12208886WA0048000451004003047359350
B2041123826791N12208886WA0047900449004003047358333
B2041133826798N12208887WA0047700447004003047357330
B2041143826805N12208887WA0047600445004003046355335
B2041153826812N12208888WA0047400442004003048351327
B2041163826819N12208890WA0047100440004003048350341
B2041173826826N12208892WA0047000438004003049349335
B2041183826833N12208894WA0046900437004003049347343
B2041193826840N12208896WA0046800436004003045344335
B2041203826846N12208898WA0046700434004003045345344
B2041213826853N12208900WA0046600433004003045345343
B2041223826859N12208903WA0046500432004003045343331
B2041233826866N12208905WA0046400431004003047341337
B2041243826873N12208908WA0046300430004003048341358
B2041253826880N12208911WA0046200430004003048342341
B2041263826886N12208914WA0046100428004003046344349
B2041273826893N12208916WA0046000428004003045344349
B2041283826899N12208918WA0046000426004003045345347
B2041293826906N12208920WA0045800424004003045347355
B2041303826913N12208922WA0045500422004003045349357
B2041313826920N12208923WA0045300419004003047349355
B2041323826927N12208925WA0045100417004003048349353
B2041333826934N12208926WA0044900415004003048351353
B2041343826941N12208927WA0044800414004003047354357
B2041353826948N12208928WA0044700412004003046354347
B2041363826954N12208929WA0044500410004003043353345
B2041373826960N12208930WA0044400408004003043353345
B2041383826967N12208931WA0044100406004003043351345
B2041393826973N12208933WA0043900403004003044349346
B2041403826980N12208934WA0043700402004003047348350
B2041413826987N12208936WA0043600400004003048349336
B2041423826994N12208937WA0043500398004003047350334
B2041433827001N12208939WA0043300397004003047350340
B2041443827008N12208941WA0043100395004003044348336
B2041453827014N12208943WA0042900392004003046347335
B2041463827021N12208945WA0042600389004003046347331
B2041473827028N12208947WA0042400387004003047345330
B2041483827035N12208949WA0042200385004003046343315
B2041493827041N12208952WA0042000383004003046341321
B2041503827047N12208955WA0041900381004003044339322
B2041513827054N12208958WA0041700379004003044337333
B2041523827060N12208961WA0041600378004003046337336
B2041533827066N12208964WA0041400376004003046341327
B2041543827072N12208966WA0041200375004003044345323
B2041553827078N12208968WA0041100374004003041341298
B2041563827083N12208971WA0041000373004003034326302
B2041573827087N12208975WA0040900371004003035321313
B2041583827091N12208980WA0040700369004003035324315
B2041593827096N12208983WA0040500368004003037330321
B2042003827101N12208987WA0040400366004003039333317
B2042013827106N12208990WA0040300365004003039332302
B2042023827111N12208994WA0040100363004003037329293
B2042033827115N12208997WA0040000362004003036326296
B2042043827119N12209001WA0039900360004003035324303
B2042053827124N12209005WA0039800359004003036327321
B2042063827129N12209008WA0039600357004003036331315
B2042073827134N12209012WA0039500356004003038334311
B2042083827139N12209015WA0039300354004003039334304
B2042093827144N12209018WA0039300353004003039331312
B2042103827149N12209022WA0039100352004003037330319
B2042113827154N12209025WA0039000350004003037331318
B2042123827159N12209028WA0038900348004003038335321
B2042133827164N12209031WA0038700347004003038339329
B2042143827170N12209033WA0038600345004003038346347
B2042153827176N12209034WA0038400344004003039351345
B2042163827182N12209035WA0038300342004003040354348
B2042173827188N12209036WA0038100340004003041353341
B2042183827194N12209037WA0037900338004003041351343
B2042193827201N12209038WA0037700336004003042351340
B2042203827207N12209039WA0037600335004003043352342
B2042213827213N12209040WA0037400333004003043352333
B2042223827219N12209042WA0037300331004003042349332
B2042233827226N12209043WA0037200330004003042346332
B2042243827232N12209046WA0037000328004003042344332
B2042253827238N12209048WA0036900327004003043343335
B2042263827244N12209050WA0036800326004003043343335
B2042273827250N12209053WA0036700325004003043342327
B2042283827256N12209055WA0036600323004003042340330
B2042293827262N12209058WA0036500322004003042338328
B2042303827268N12209061WA0036400321004003042339329
B2042313827274N12209064WA0036300320004003042341332
B2042323827280N12209066WA0036200319004003043343337
B2042333827286N12209068WA0036100319004003043345343
B2042343827292N12209070WA0036100318004003042346347
B2042353827298N12209072WA0036000317004003042346347
B2042363827304N12209074WA0035900316004003042347344
B2042373827310N12209075WA0035800315004003042348351
B2042383827317N12209077WA0035700314004003042350353
B2042393827323N12209078WA0035600312004003043349342
B2042403827329N12209080WA0035500311004003043347346
B2042413827336N12209082WA0035300309004003043346340
B2042423827342N12209084WA0035100307004003043344341
B2042433827349N12209086WA0035000305004003045343347
B2042443827356N12209089WA0034900304004003047342354
B2042453827362N12209092WA0034800304004003047342359
B2042463827368N12209094WA0034800303004003045345348
B2042473827374N12209096WA0034600302004003042347342
B2042483827381N12209097WA0034400300004003043349335
B2042493827387N12209099WA0034200297004003046348340
B2042503827394N12209101WA0034100296004003046347345
B2042513827401N12209103WA0033900294004003047347341
B2042523827408N12209105WA0033800293004003045347347
B2042533827415N12209107WA0033700292004003045345352
B2042543827421N12209109WA0033600290004003045345335
B2042553827428N12209111WA0033400288004003047346341
B2042563827435N12209113WA0033200287004003050345342
B2042573827443N12209116WA0033100286004003050342338
B2042583827449N12209119WA0033100285004003050341350
B2042593827456N12209121WA0033000284004003046343341
B2043003827461N12209123WA0032900283004003039347323
B2043013827467N12209125WA0032600280004003040346321
B2043023827473N12209127WA0032300276004003040339317
B2043033827480N12209131WA0032000272004003044334326
B2043043827486N12209135WA0031700273004003049329307
B2043053827492N12209140WA0031500271004003049327294
B2043063827498N12209145WA0031400270004003047324292
B2043073827503N12209150WA0031300269004003042321306
B2043083827507N12209155WA0031100266004003043321307
B2043093827513N12209160WA0030900264004003043323317
B2043103827518N12209165WA0030700261004003043322316
B2043113827523N12209170WA0030500259004003044319317
B2043123827528N12209176WA0030400258004003045318325
B2043133827533N12209182WA0030300257004003045320321
B2043143827539N12209187WA0030100255004003045325307
B2043153827551N12209196WA0029900252004003046330312
B2043163827557N12209200WA0029800251004003049329314
B2043173827564N12209205WA0029700250004003049328321
B2043183827570N12209210WA0029600249004003049327319
B2043193827576N12209215WA0029500247004003048326311
B2043203827582N12209220WA0029300246004003048325315
B2043213827588N12209226WA0029200244004003051326310
B2043223827595N12209231WA0029100243004003052327323
B2043233827601N12209236WA0029000242004003051328315
B2043243827607N12209241WA0028900242004003048330318
B2043253827613N12209244WA0028800240004003045334327
B2043263827619N12209247WA0028700239004003045338320
B2043273827626N12209251WA0028500236004003045336327
B2043283827632N12209255WA0028300234004003046333323
B2043293827638N12209259WA0028100232004003048332328
B2043303827645N12209263WA0028000231004003048333309
B2043313827651N12209267WA0027900230004003047334310
B2043323827657N12209270WA0027800228004003045333303
B2043333827662N12209274WA0027700227004003040330303
B2043343827667N12209278WA0027500225004003041328314
B2043353827673N12209282WA0027200221004003041329311
B2043363827679N12209287WA0026900218004003046330304
B2043373827687N12209292WA0026700215004003055332332
B2043383827694N12209297WA0026500214004003055332316
B2043393827700N12209301WA0026400213004003052333335
B2043403827707N12209305WA0026200210004003050339352
B2043413827715N12209307WA0026000208004003053349003
B2043423827723N12209308WA0025900206004003055357358
B2043433827731N12209308WA0025800206004003053000025
B2043443827738N12209308WA0025700206004003052001031
B2043453827745N12209308WA0025700205004003047003016
B2043463827752N12209307WA0025500203004003049006017
B2043473827760N12209305WA0025200200004003049010023
B2043483827767N12209303WA0025000197004003051012027
B2043493827775N12209300WA0024800196004003049015039
B2043503827781N12209298WA0024700194004003049018036
B2043513827788N12209294WA0024500192004003047021038
B2043523827794N12209291WA0024300190004003046021042
B2043533827801N12209288WA0024100188004003046019037
B2043553827807N12209286WA0023900185004003046016030
B2043563827814N12209284WA0023700183004003046010016
B2043573827821N12209283WA0023500181004003046001008
B2043583827829N12209284WA0023400179004003049353347
B2043593827836N12209285WA0023200178005003049348326
B2044003827842N12209288WA0023100177005003047337305
B2044013827847N12209291WA0023000177005003043319288
B2044023827851N12209297WA0022800174005003036305270
B2044033827853N12209303WA0022500171005003036288254
B2044043827853N12209308WA0022300169004003030275245
B2044053827853N12209312WA0022100168005003025262237
B2044063827852N12209316WA0022000167005003018261229
B2044073827852N12209319WA0022000166005003018261220
B2044083827852N12209322WA0022000166005003018265222
B2044093827852N12209323WA0021900166004003012301215
B2044103827852N12209323WA0022000166005003002301218
B2044113827852N12209322WA0022000165005003002301257
B2044123827853N12209322WA0022000165005003002352254
B2044133827853N12209322WA0022000165005003002352250
B2044143827853N12209322WA0022000165005003002352247
B2044153827853N12209323WA0022000165005003003352245
B2044163827854N12209322WA0022000165004003002352243
B2044173827854N12209322WA0022000165004003000352241
B2044183827854N12209322WA0022000165005003001352242
B2044193827854N12209322WA0022000165005003000352243
B2044203827854N12209322WA0022000165005003000352242
B2044213827854N12209322WA0022100165005003000352242
B2044223827855N12209323WA0022000165004003003352241
B2044233827855N12209323WA0022000165005003005308241
B2044243827855N12209324WA0022000165005003004316212
B2044253827856N12209324WA0022000165005003004316208
B2044263827856N12209324WA0022000165005003002316207
B2044273827856N12209324WA0022000165005003002316207
B2044283827856N12209324WA0022000165005003002316207
B2044293827856N12209324WA0022000165004003001316207
B2044303827856N12209325WA0022000165005003000316207
B2044313827856N12209325WA0022000165005003000316207
B2044323827856N12209325WA0022000165005003000316207
B2044333827856N12209325WA0022000165005003000316207
B2044343827856N12209325WA0022000165004003000316207
B2044353827856N12209325WA0022000165004003000316207
B2044363827857N12209325WA0022000165005003000316207
B2044373827857N12209325WA0022000165005003001316207
B2044383827857N12209325WA0022000165004003001316207
B2044393827857N12209325WA0022000165004003002316207
B2044403827857N12209325WA0022000165004003001316207
B2044413827857N12209326WA0022000165004003001316212
B2044423827857N12209326WA0022000165004003001316213
B2044433827858N12209326WA0022000165005003002316214
GmbUna2u5ZLLqFSyZslwcypZ1Dn/EOYMZXS8blhzhiuc8UVSvJzQT6Pv+CtfiUCqR
GT1GlGFFAUEizBmdvMY1l+lVM1EpIY+Ge4DBoHOZG3/lSWBZ7zwvEgSwF33ghs90f
Gf6ivroJbM5lLtJKWqhAu4y3IGj0wLZXbwOq2VsrF/+g=
