AXFH000
HFDTE080926
HFPLTPILOT:KaranS
HFGTYGLIDERTYPE:Niviuk Hiko P
HFDTM100GPSDATUM:WGS84
HFRFWFIRMWAREVERSION:9.7.1
HFRHWHARDWAREVERSION:iPhone 17 Pro
HFFTYFRTYPE:Flyskyhy,9.7.1
HFGPS:Internal
HFPRSVARIO:XC Tracer
HFCCLCOMPETITIONCLASS:Paraglider,EN-B
HFTZNTIMEZONE:-7
HFSITSITE:Mission Ridge (Fremont- San Jose),US
I053638FXA3941VXA4244GSP4547CCO4850HDT
C080926213707080926000106TASK
C0000000N00000000ETAKEOFF
C3646164N11906086W00000000000400000000360000STARTAREA DNLNCH
C3646886N11907285W00000000000400000000360000TURNAREA 49917
C3644816N11904600W00000000000400000000360000TURNAREA SONTAG
C3647347N11907139W00000000001000000000360000TURNAREA DELILA
C3644411N11907767W00000000001200000000360000TURNAREA TURKEY
C3646164N11906086W00000000000400000000360000TURNAREA DNLNCH
C3642989N11908259W00000000001200000000360000TURNAREA AIRSTR
C3644153N11906287W00000000000400000000360000FINISHAREA DNLPLZ
C0000000N00000000ELANDING
B2137353731054N12153509WA0058700587002003000128049
B2137363731054N12153509WA0058700587002003000128052
B2137373731054N12153509WA0058700587002003000128054
B2137383731054N12153509WA0058700587002003000128050
B2137393731054N12153509WA0058700587002003000128055
B2137403731054N12153509WA0058700587002003000128076
B2137413731054N12153509WA0058700587002003000128077
B2137423731054N12153509WA0058700587002003000128063
B2137433731054N12153509WA0058700587002003000128040
B2137443731054N12153509WA0058700587002003000128018
B2137453731054N12153509WA0058700587001003000128027
B2137463731054N12153510WA0058700587001003000234050
B2137473731054N12153510WA0058700587002003001156072
B2137483731054N12153509WA0058700587002003003101026
B2137493731054N12153508WA0058700587002003003169209
B2137503731053N12153509WA0058700587002003003230150
B2137513731053N12153510WA0058600586002003004234103
B2137523731052N12153511WA0058600586002003006240085
B2137533731051N12153513WA0058500586002003007236125
B2137543731051N12153514WA0058600586002003007234084
B2137553731050N12153516WA0058500586002003007228064
B2137563731049N12153517WA0058500586002003008224080
B2137573731047N12153518WA0058500585002003009208080
B2137583731046N12153519WA0058400585003003009210088
B2137593731044N12153520WA0058300584002003009210085
B2138003731043N12153521WA0058200584002003010206091
B2138013731041N12153522WA0058100583002003011213093
B2138023731039N12153524WA0058000583002003011217080
B2138033731038N12153525WA0058000583003003011214084
B2138043731036N12153527WA0057900581002003012216089
B2138053731034N12153529WA0057900581003003013215255
B2138063731032N12153531WA0057900581003003013208035
B2138073731029N12153532WA0057800581003003014208080
B2138083731026N12153535WA0057700580003003017219210
B2138093731023N12153540WA0057800580003003018237218
B2138103731022N12153545WA0057900580003003018250232
B2138113731021N12153550WA0057900580002003019248244
B2138123731020N12153553WA0057900580004003019252244
B2138133731019N12153557WA0057800578004003022259247
B2138143731019N12153561WA0057800576004003022254256
B2138153731017N12153566WA0057600574004003025248254
B2138163731016N12153570WA0057500573004003026252250
B2138173731015N12153575WA0057400573004003026265255
B2138183731016N12153579WA0057300572004003022284264
B2138193731017N12153582WA0057200570004003020301278
B2138203731019N12153585WA0057000568004003025312290
B2138213731023N12153589WA0056900567004003029320303
B2138223731026N12153592WA0056900566004003029323315
B2138233731029N12153595WA0056800567004003029325321
B2138243731033N12153598WA0056900568004003025328322
B2138253731036N12153600WA0057000569004003025336327
B2138263731039N12153601WA0057100570004003024338323
B2138273731042N12153603WA0057200570004003023332314
B2138283731045N12153605WA0057300571004003021322328
B2138293731047N12153608WA0057300571004003023322314
B2138303731050N12153611WA0057300572004003023328305
B2138313731054N12153613WA0057500573004003025337315
B2138323731057N12153614WA0057600575004003021337285
B2138333731060N12153616WA0057800576004003021331282
B2138343731062N12153618WA0057900577005003019322289
B2138353731064N12153620WA0058000579005003018316274
B2138363731065N12153622WA0058200581004003016307276
B2138373731066N12153625WA0058400583004003016280265
B2138383731066N12153627WA0058600585004003012241252
B2138393731064N12153628WA0058800587004003012210222
B2138403731063N12153629WA0058900588004003014186201
B2138413731060N12153628WA0059000589004003019169184
B2138423731057N12153627WA0059100590004003019153164
B2138433731053N12153623WA0059200591004003026138144
B2138443731049N12153618WA0059300593004003038124123
B2138453731047N12153611WA0059600596004003039109106
B2138463731046N12153604WA0059900597004003038090094
B2138473731046N12153597WA0060200597005003037070080
B2138483731049N12153590WA0060500600005003037058063
B2138493731053N12153585WA0060600601004003037046050
B2138503731058N12153581WA0060700603004003037033034
B2138513731063N12153579WA0060900604004003036014018
B2138523731068N12153579WA0060900605004003032354353
B2138533731072N12153581WA0061000607004003032334330
B2138543731074N12153584WA0061200609004003028309312
B2138553731075N12153587WA0061500612004003022296289
B2138563731076N12153589WA0061700615004003009287275
B2138573731076N12153590WA0061900617004003009264258
B2138583731075N12153592WA0062100619004003009243251
B2138593731075N12153594WA0062200620004003009243248
B2139003731074N12153596WA0062300620004003015257257
B2139013731074N12153599WA0062400622005003016268262
B2139023731074N12153602WA0062500623004003015278256
B2139033731074N12153603WA0062600623004003012261243
B2139043731074N12153604WA0062600623004003011199225
B2139053731071N12153604WA0062500621003003021185203
B2139063731067N12153604WA0062300619004003021170179
B2139073731062N12153602WA0062200620004003030151165
B2139083731057N12153598WA0062300622004003038133154
B2139093731054N12153592WA0062400623004003038121135
B2139103731051N12153585WA0062400623005003038114129
B2139113731049N12153578WA0062500624004003038112114
B2139123731047N12153571WA0062500624004003040106101
B2139133731047N12153563WA0062500625004003044094090
B2139143731046N12153555WA0062500624005003044077075
B2139153731050N12153546WA0062400624004003048061055
B2139163731055N12153539WA0062400624004003046041036
B2139173731060N12153535WA0062500624004003046015013
B2139183731066N12153534WA0062500624004003040351344
B2139193731070N12153536WA0062500626004003032334321
B2139203731073N12153539WA0062700627005003019319303
B2139213731074N12153541WA0062800630004003019314277
B2139223731075N12153543WA0063000631004003012312269
B2139233731076N12153544WA0063100632004003008301271
B2139243731076N12153545WA0063000631004003006276274
B2139253731076N12153546WA0062900629004003010284262
B2139263731077N12153548WA0062800628005003010298267
B2139273731078N12153551WA0062800628005003016303275
B2139283731080N12153554WA0062800629004003016300283
B2139293731080N12153556WA0062900629004003016286272
B2139303731081N12153558WA0062900629004003012267269
B2139313731080N12153561WA0062800629004003012256270
B2139323731080N12153563WA0062800629004003015252260
B2139333731079N12153566WA0062900630004003015248254
B2139343731078N12153568WA0063000631004003015239247
B2139353731077N12153570WA0063100632004003012222241
B2139363731076N12153571WA0063200633004003012218240
B2139373731074N12153573WA0063200633004003014223249
B2139383731073N12153575WA0063300634004003014231261
B2139393731072N12153577WA0063400635004003014245262
B2139403731071N12153579WA0063500636004003012258257
B2139413731071N12153581WA0063500636004003013267264
B2139423731071N12153584WA0063500636004003013266262
B2139433731071N12153586WA0063600636004003013250262
B2139443731070N12153589WA0063500636004003013233239
B2139453731068N12153590WA0063400635004003013211215
B2139463731066N12153591WA0063300634004003013184199
B2139473731063N12153590WA0063200631004003017168185
B2139483731058N12153588WA0062900629004003033160192
B2139493731053N12153586WA0062700627004003034156216
B2139503731049N12153583WA0062700627004003033155211
B2139513731046N12153581WA0062700627004003030156196
B2139523731043N12153580WA0062600626004003023157208
B2139533731040N12153578WA0062500625004003020163210
B2139543731037N12153578WA0062300623004003021173216
B2139553731034N12153578WA0062200621004003020189220
B2139563731031N12153579WA0062000619004003019206228
B2139573731030N12153581WA0061800618005003011233236
B2139583731030N12153583WA0061700616005003011276246
B2139593731031N12153584WA0061500614004003011313260
B2140003731032N12153586WA0061400615004003011330270
B2140013731035N12153587WA0061400615004003021342274
B2140023731039N12153588WA0061500616005003021353302
B2140033731041N12153588WA0061500616004003021358290
B2140043731044N12153588WA0061500616004003017348291
B2140053731045N12153589WA0061400615004003014318282
B2140063731046N12153592WA0061400614004003015297261
B2140073731047N12153594WA0061300614004003015279256
B2140083731047N12153597WA0061400615004003015260248
B2140093731046N12153601WA0061500616004003019252232
B2140103731045N12153604WA0061700617004003019239234
B2140113731044N12153605WA0061800619004003015231237
B2140123731043N12153607WA0061900620004003010238225
B2140133731042N12153608WA0062000621004003010248236
B2140143731042N12153610WA0062100621004003011254215
B2140153731041N12153612WA0062100622004003011246231
B2140163731040N12153615WA0062200623004003012234235
B2140173731038N12153617WA0062300624004003017220224
B2140183731036N12153618WA0062400625004003018206222
B2140193731033N12153619WA0062500626004003018193179
B2140203731031N12153620WA0062600627004003018189202
B2140213731029N12153620WA0062700627004003014181198
B2140223731027N12153620WA0062700627004003017187204
B2140233731024N12153621WA0062700627004003017200221
B2140243731022N12153623WA0062700626004003019218240
B2140253731020N12153626WA0062600626004003021240245
B2140263731019N12153630WA0062600627004003023260263
B2140273731019N12153634WA0062800628004003021282246
B2140283731020N12153638WA0063200633004003020294285
B2140293731021N12153640WA0063600638005003013296247
B2140303731022N12153642WA0063900637005003013278246
B2140313731022N12153643WA0064000638004003008250224
B2140323731021N12153645WA0064000638004003008246229
B2140333731020N12153648WA0063900637004003019248240
B2140343731019N12153652WA0063900638005003023254252
B2140353731018N12153656WA0064000638004003022254251
B2140363731017N12153660WA0064200639004003022253268
B2140373731016N12153663WA0064200640005003017252232
B2140383731015N12153666WA0064200640005003018244245
B2140393731014N12153669WA0064200640005003018237246
B2140403731012N12153672WA0064100639004003021237234
B2140413731010N12153676WA0064100640004003020244255
B2140423731009N12153679WA0064100640004003020252242
B2140433731009N12153682WA0064100640005003017253251
B2140443731008N12153685WA0064000640005003016253246
B2140453731008N12153688WA0063900639004003018255250
B2140463731007N12153691WA0063800638004003020256254
B2140473731006N12153695WA0063800638004003020259251
B2140483731006N12153699WA0063700637005003020265257
B2140493731006N12153703WA0063600636004003024268270
B2140503731006N12153708WA0063600636004003024267255
B2140513731005N12153712WA0063600636004003023264271
B2140523731005N12153716WA0063500636004003022270253
B2140533731005N12153719WA0063400635004003020280259
B2140543731006N12153723WA0063300634004003020284253
B2140553731007N12153727WA0063300633005003020284264
B2140563731008N12153729WA0063200632004003018283264
B2140573731008N12153732WA0063100631004003013287272
B2140583731009N12153734WA0062900631004003016291272
B2140593731010N12153738WA0062800630004003016297270
B2141003731012N12153741WA0062600629005003020307276
B2141013731014N12153744WA0062600629004003020306278
B2141023731015N12153747WA0062600629004003020298260
B2141033731016N12153750WA0062500628004003020293261
B2141043731017N12153754WA0062500628004003020290261
B2141053731018N12153759WA0062600629004003022285265
B2141063731019N12153762WA0062800631005003022280255
B2141073731019N12153765WA0062900632004003017276268
B2141083731019N12153768WA0063000633004003016270272
B2141093731019N12153771WA0063100633004003020265261
B2141103731019N12153775WA0063200634004003021269281
B2141113731019N12153779WA0063400638004003020269303
B2141123731019N12153781WA0063700640004003015259270
B2141133731019N12153782WA0063800641004003009250254
B2141143731018N12153784WA0063900641004003014250211
B2141153731017N12153788WA0063900642004003014243194
B2141163731015N12153791WA0064000642004003022221191
B2141173731012N12153794WA0064200643004003031187179
B2141183731006N12153792WA0064500646004003036160166
B2141193731001N12153787WA0064800649004003036135152
B2141203730998N12153779WA0065000652004003044110135
B2141213730998N12153771WA0065300656004003039080111
B2141223730999N12153765WA0065600655004003039050078
B2141233731004N12153762WA0065800658003003035024033
B2141243731008N12153761WA0066000660004003031359353
B2141253731011N12153763WA0066100662004003020324323
B2141263731012N12153766WA0066300664005003020289286
B2141273731012N12153770WA0066500667005003018259264
B2141283731011N12153773WA0066800670004003018231245
B2141293731008N12153775WA0067100674004003023207229
B2141303731004N12153776WA0067500676004003030191214
B2141313730999N12153777WA0067700679004003030179200
B2141323730994N12153775WA0068000683004003034160190
B2141343730990N12153772WA0068300686004003033138174
B2141353730986N12153767WA0068500686004003036113154
B2141363730984N12153760WA0068600687004003036097123
B2141373730985N12153752WA0068900690004003039083101
B2141383730987N12153745WA0069200694004003040066079
B2141393730991N12153739WA0069500697004003040043055
B2141403730995N12153737WA0069800700004003035017026
B2141413731000N12153736WA0070000701005003030359356
B2141423731004N12153736WA0070300705004003023349331
B2141433731007N12153738WA0070600708004003023341316
B2141443731010N12153740WA0070900712004003023331306
B2141453731013N12153742WA0071100715005003023321296
B2141463731015N12153745WA0071400718004003019308286
B2141473731016N12153748WA0071700721005003019281278
B2141483731016N12153752WA0071900724004003019262266
B2141493731015N12153757WA0072200727004003023250247
B2141503731013N12153761WA0072600732004003024235238
B2141513731010N12153764WA0073000736004003024206228
B2141523731007N12153763WA0073400740004003024165210
B2141533731003N12153759WA0073700743004003027135181
B2141543730999N12153754WA0074100744004003041106149
B2141553730997N12153746WA0074500744004003042081107
B2141563731004N12153731WA0075300750005003042037050
B2141573731009N12153729WA0075800754005003042008021
B2141583731014N12153731WA0076000758004003033335349
B2141593731020N12153733WA0076300760005003033318314
B2142003731024N12153737WA0076800763004003032323298
B2142013731027N12153740WA0077300770005003027332297
B2142023731030N12153742WA0077800771004003020334303
B2142033731033N12153744WA0078200777004003020320301
B2142043731034N12153746WA0078500781005003019306302
B2142053731035N12153749WA0078700785005003016293290
B2142063731036N12153752WA0078900788004003022294300
B2142073731037N12153757WA0079200792004003024291301
B2142083731038N12153761WA0079500796004003022283267
B2142093731038N12153765WA0079700800004003022276269
B2142103731038N12153769WA0080000803004003025267261
B2142113731038N12153775WA0080300806005003031258253
B2142123731037N12153780WA0080600808004003030251246
B2142133731035N12153784WA0081000814004003030236233
B2142143731033N12153787WA0081400819004003021217218
B2142153731030N12153789WA0081700823005003023204228
B2142163731026N12153790WA0082000826004003023200212
B2142173731022N12153793WA0082300829004003029201201
B2142183731017N12153795WA0082500833004003030202241
B2142193731013N12153797WA0082900837004003030197237
B2142203731009N12153798WA0083200840004003028193215
B2142213731005N12153800WA0083300842004003028194205
B2142223731000N12153801WA0083500844004003034197216
B2142233730995N12153803WA0083900846004003034198198
B2142243730992N12153805WA0084300851004003032200255
B2142253730988N12153807WA0084600850004003027200228
B2142263730985N12153808WA0084800853004003020192218
B2142273730983N12153808WA0084900853005003020183190
B2142283730980N12153808WA0084900854004003020174203
B2142293730976N12153807WA0084800854004003023167214
B2142303730971N12153806WA0084800855004003031166200
B2142313730966N12153804WA0084900856004003031167197
B2142323730962N12153803WA0085000858004003031169210
B2142333730958N12153803WA0085100861004003028172215
B2142343730956N12153803WA0085200862004003018180219
B2142353730953N12153803WA0085300862004003018186216
B2142363730950N12153804WA0085200862004003018196196
B2142373730947N12153806WA0085200863004003019207212
B2142383730944N12153808WA0085300864004003027207200
B2142393730940N12153810WA0085500866004003027204199
B2142403730937N12153812WA0085600869005003027204202
B2142413730933N12153814WA0085800870004003025206198
B2142423730930N12153816WA0085900870005003026204185
B2142433730927N12153818WA0085900870004003026203184
B2142443730923N12153820WA0085900870004003025199191
B2142453730920N12153821WA0085900870004003024196194
B2142463730916N12153822WA0085800870004003025196190
B2142473730913N12153824WA0085700870004003026199201
B2142483730909N12153826WA0085600869004003026203201
B2142493730906N12153828WA0085500868005003026205213
B2142503730902N12153830WA0085400867005003026200202
B2142513730898N12153831WA0085300866004003026189186
B2142523730894N12153831WA0085100864005003026181182
B2142533730890N12153831WA0085000862004003028178185
B2142543730885N12153831WA0084800860004003031180188
B2142553730880N12153831WA0084600859004003033185190
B2142563730875N12153832WA0084600858004003033188188
B2142573730870N12153833WA0084600859004003033186203
B2142583730866N12153833WA0084600859004003029178179
B2142593730862N12153833WA0084500858004003030176190
B2143003730857N12153832WA0084400857004003030177188
B2143013730853N12153832WA0084300856004003030179182
B2143033730848N12153832WA0084200855004003031179185
B2143043730843N12153832WA0084100853004003031176179
B2143053730839N12153832WA0084000853004003031177185
B2143063730834N12153832WA0084000852004003030182187
B2143073730830N12153832WA0083800851004003031188197
B2143083730825N12153834WA0083800851005003032189181
B2143093730820N12153835WA0083900852004003031191192
B2143103730816N12153836WA0084000854005003031189197
B2143113730812N12153836WA0084200855004003026187205
B2143123730808N12153837WA0084200856004003029183193
B2143133730803N12153837WA0084300856004003029178192
B2143143730798N12153836WA0084400857004003033175184
B2143153730794N12153836WA0084600859004003032174175
B2143163730789N12153835WA0084700861004003032172172
B2143173730785N12153834WA0084900863004003030172160
B2143183730781N12153833WA0085000864004003027170174
B2143193730777N12153832WA0085000864005003030167172
B2143203730772N12153831WA0085100864004003034164185
B2143213730767N12153829WA0085100865004003034165169
B2143223730762N12153827WA0085200866004003035164172
B2143233730757N12153825WA0085200866004003035156156
B2143243730752N12153821WA0085300866004003039146135
B2143253730747N12153816WA0085200866004003039139138
B2143263730743N12153811WA0085200867004003042135134
B2143273730738N12153805WA0085200867004003042132125
B2143283730734N12153799WA0085300867004003042130122
B2143293730731N12153793WA0085400868004003041126125
B2143303730728N12153787WA0085400868004003040122130
B2143313730725N12153780WA0085400869004003039121123
B2143323730721N12153774WA0085500869004003041125128
B2143333730717N12153768WA0085600870004003039131154
B2143343730714N12153763WA0085700871004003039130135
B2143353730711N12153758WA0085700871004003035125132
B2143363730708N12153752WA0085700871004003038120135
B2143373730705N12153745WA0085800872004003038116154
B2143383730702N12153739WA0085800872004003038116132
B2143393730700N12153733WA0085800872004003033121147
B2143403730697N12153729WA0085600871005003033131145
B2143413730694N12153725WA0085400869004003032143167
B2143423730689N12153722WA0085200866004003032152177
B2143433730684N12153719WA0085100864004003034157184
B2143443730680N12153717WA0084900863005003034159175
B2143453730675N12153715WA0084700861004003034162187
B2143463730670N12153714WA0084500859004003034168181
B2143473730665N12153713WA0084400857005003032175188
B2143483730660N12153713WA0084200855004003032178180
B2143493730656N12153712WA0084000853004003032177159
B2143503730650N12153712WA0083700850004003032177171
B2143513730645N12153712WA0083500848005003036177167
B2143523730640N12153712WA0083400846005003036176183
B2143533730634N12153711WA0083200845004003036173166
B2143543730629N12153710WA0083000842004003036169174
B2143553730623N12153708WA0082800842004003037166158
B2143563730618N12153707WA0082500842004003039165152
B2143573730612N12153705WA0082300842005003039165169
B2143583730606N12153703WA0082300843006003039170149
B2143593730601N12153703WA0082200841004003029178202
B2144003730598N12153704WA0082000837004003029177159
B2144013730594N12153704WA0081800833004003026171174
B2144023730585N12153702WA0081100826004003031174184
B2144033730580N12153702WA0080900823004003032178195
B2144043730576N12153703WA0080800822004003032186207
B2144053730572N12153704WA0080700820004003028197222
B2144063730568N12153706WA0080500819004003028208226
B2144073730564N12153710WA0080300818004003031223251
B2144083730562N12153714WA0080200816004003028240258
B2144093730561N12153719WA0080100815004003028256257
B2144103730561N12153723WA0080000814004003023269271
B2144113730562N12153727WA0079800811004003023277262
B2144123730563N12153733WA0079600809004003024284268
B2144133730564N12153738WA0079400807004003029287284
B2144143730565N12153743WA0079300806004003029286280
B2144153730566N12153747WA0079200804004003027283271
B2144163730567N12153751WA0079000802004003023286274
B2144173730568N12153755WA0078800799004003022298287
B2144183730570N12153758WA0078500796004003026312301
B2144193730574N12153762WA0078300794004003026319309
B2144203730577N12153766WA0078100792004003030319277
B2144213730581N12153770WA0078000791005003031315281
B2144223730584N12153774WA0077800790004003031308263
B2144233730586N12153778WA0077700788004003028298273
B2144243730587N12153782WA0077500786004003026285269
B2144253730587N12153788WA0077300783004003030277265
B2144263730588N12153794WA0077100781004003032277277
B2144273730589N12153800WA0076900779004003030278279
B2144283730589N12153805WA0076800778004003030277279
B2144293730590N12153809WA0076700777004003020271248
B2144303730589N12153812WA0076500775004003020263266
B2144313730589N12153815WA0076200772004003017261265
B2144323730589N12153819WA0075900768004003017267264
B2144333730589N12153824WA0075600764004003030273265
B2144343730589N12153830WA0075300765004003030278264
B2144353730590N12153835WA0075200764004003029283301
B2144363730591N12153839WA0075100763004003025296307
B2144373730593N12153842WA0075000761004003022309312
B2144383730596N12153845WA0074800759004003025318326
B2144393730599N12153848WA0074700758004003025327336
B2144403730602N12153850WA0074700757004003025341344
B2144413730605N12153850WA0074600756004003018353353
B2144423730607N12153850WA0074500754004003018005347
B2144433730610N12153849WA0074200751004003018007342
B2144443730614N12153849WA0073900748004003020004343
B2144453730618N12153849WA0073700748004003027358327
B2144463730622N12153849WA0073500746004003027355325
B2144473730625N12153850WA0073300745004003025358325
B2144483730629N12153850WA0073100742004003023002323
B2144493730632N12153850WA0072900739004003023359352
B2144503730636N12153850WA0072500735004003025346002
B2144513730640N12153852WA0072200731004003025337344
B2144523730643N12153854WA0071900729005003025328347
B2144533730646N12153857WA0071700726004003022324341
B2144543730648N12153859WA0071600725004003022314321
B2144563730649N12153861WA0071400723004003015291272
B2144573730648N12153867WA0070900717004003020255240
B2144593730647N12153871WA0070700715004003022251235
B2145003730646N12153875WA0070600714004003020243237
B2145013730644N12153878WA0070500714004003020229235
B2145023730642N12153880WA0070400712005003021208223
B2145033730638N12153881WA0070200710004003027190208
B2145043730633N12153882WA0070000707004003027181194
B2145053730628N12153881WA0069800706005003034174188
B2145063730623N12153880WA0069700704004003034168179
B2145073730618N12153878WA0069600703004003034156173
B2145083730614N12153875WA0069400701005003033146162
B2145093730610N12153871WA0069200699004003033137152
B2145103730607N12153866WA0069000697004003033130143
B2145113730604N12153861WA0068800693004003033123135
B2145123730602N12153856WA0068500690004003033116128
B2145133730600N12153850WA0068200687004003032110119
B2145143730599N12153844WA0067800683004003033107112
B2145153730597N12153838WA0067500680004003034102108
B2145163730597N12153832WA0067200676004003034095102
B2145173730597N12153825WA0066800672004003034089092
B2145183730597N12153819WA0066400669004003032078085
B2145193730599N12153814WA0066100665004003032063072
B2145203730602N12153809WA0065800662004003031046055
B2145213730606N12153806WA0065500658005003030027030
B2145223730610N12153805WA0065200655004003027010006
B2145233730614N12153805WA0064900652004003027001353
B2145243730618N12153805WA0064600649004003027358345
B2145253730621N12153805WA0064300645005003025354329
B2145263730624N12153806WA0063900641004003022343334
B2145273730628N12153808WA0063500636004003023331325
B2145283730630N12153810WA0063000631005003023321325
B2145293730634N12153814WA0062500626005003025318325
B2145303730637N12153818WA0062200627004003032318331
B2145313730641N12153822WA0062100627005003032323319
B2145323730644N12153826WA0062100626004003032319324
B2145333730647N12153829WA0062100626005003028320304
B2145343730650N12153832WA0062000625005004026319314
B2145353730653N12153835WA0061900624005004026323297
B2145363730655N12153837WA0061700623006004025326301
B2145373730658N12153840WA0061700623006005024326306
B2145383730661N12153842WA0061700624006005022325271
B2145393730664N12153844WA0061700624007006022316257
B2145403730666N12153847WA0061600624008006020301260
B2145413730666N12153850WA0061500620008006018287265
B2145423730666N12153854WA0061400619008006018266268
B2145433730665N12153857WA0061400621009007018249259
B2145443730664N12153859WA0061300621008006018242243
B2145453730660N12153862WA0061300620007006019219238
B2145463730656N12153864WA0061300621007005019203223
B2145473730652N12153865WA0061300620007005025172206
B2145483730648N12153864WA0061300620007004025163180
B2145493730643N12153862WA0061300620006004029164183
B2145503730638N12153860WA0061300619006003026172195
B2145513730633N12153858WA0061300618005003026180195
B2145523730629N12153856WA0061300616006003023186203
B2145533730624N12153854WA0061100613004003020184198
B2145543730620N12153853WA0061000611004003022181207
B2145553730616N12153852WA0060800609005003025184191
B2145563730611N12153851WA0060700608004003025190198
B2145573730607N12153852WA0060700607004003025194212
B2145583730604N12153853WA0060700607004003023201218
B2145593730601N12153855WA0060600606004003023216242
B2146003730599N12153858WA0060500605004003021232259
B2146013730597N12153862WA0060400604005003021242253
B2146023730596N12153866WA0060200602004003025248259
B2146033730595N12153870WA0060100601004003026253255
B2146043730594N12153875WA0060000600004003025257267
B2146053730593N12153879WA0059900598005003025257254
B2146063730592N12153884WA0059700596005003027255247
B2146073730591N12153890WA0059500594004003031253257
B2146083730588N12153901WA0059400593005003031248257
B2146093730586N12153906WA0059400594004003029248233
B2146103730585N12153910WA0059500595004003024252228
B2146113730584N12153914WA0059500594005003025253237
B2146123730583N12153919WA0059400594005003025249252
B2146133730581N12153924WA0059500593005003026244237
B2146143730579N12153928WA0059500594004003026240240
B2146153730578N12153931WA0059400593005003021236233
B2146163730576N12153934WA0059300592004003022232233
B2146173730573N12153938WA0059100590004003022229233
B2146183730570N12153942WA0059000590005003026229237
B2146193730568N12153946WA0059000591004003026229219
B2146203730566N12153949WA0059100591004003020230235
B2146213730564N12153952WA0059000591004003020233244
B2146223730562N12153955WA0059000589005003020237238
B2146233730560N12153959WA0058800588004003022235237
B2146243730558N12153963WA0058700587004003025229239
B2146253730554N12153967WA0058700586005003029224236
B2146263730551N12153971WA0058700587004003029226251
B2146273730549N12153974WA0058700586005003026233265
B2146283730548N12153977WA0058600585004003021246261
B2146293730547N12153981WA0058400583004003021255269
B2146303730546N12153986WA0058200582005003028260275
B2146313730546N12153991WA0058100581004003029263278
B2146323730546N12153997WA0058100580004003028269285
B2146333730546N12154001WA0058000580005003027280294
B2146343730548N12154006WA0057900579005003024290303
B2146353730549N12154010WA0057800577005003027297281
B2146363730552N12154015WA0057700576004003027299301
B2146373730554N12154020WA0057700576004003030302292
B2146383730557N12154025WA0057800577004003032306324
B2146393730560N12154029WA0057900577004003032320346
B2146403730563N12154031WA0057900577004003028336357
B2146413730567N12154031WA0058000577004003028359358
B2146423730572N12154030WA0057900576004003036017009
B2146433730578N12154026WA0058000576004003042030025
B2146443730583N12154021WA0058100579004003039044045
B2146453730586N12154015WA0058300581005003039060058
B2146463730588N12154010WA0058500581004003030081070
B2146473730587N12154004WA0058500582005003030093086
B2146483730587N12153998WA0058600582004003030098100
B2146493730585N12153991WA0058600582005003034103111
B2146503730583N12153985WA0058500582005003038110126
B2146513730581N12153978WA0058600583005003038117133
B2146523730578N12153973WA0058700584004003036124139
B2146543730575N12153968WA0058800585004003033131142
B2146553730572N12153964WA0058800585004003032137148
B2146563730568N12153961WA0058800585005003032143157
B2146573730564N12153957WA0058800585005003032148159
B2146583730560N12153954WA0058800585005003032151164
B2146593730555N12153952WA0058800586004003034151162
B2147003730551N12153948WA0058800586005003034149156
B2147013730547N12153945WA0058800586004003034145146
B2147023730543N12153941WA0058800586004003032139147
B2147033730540N12153938WA0058700585004003030136144
B2147043730536N12153933WA0058600583004003033136159
B2147053730533N12153929WA0058400582004003033139144
B2147063730528N12153925WA0058300581005003034140151
B2147073730524N12153921WA0058200580005003036139151
B2147083730520N12153916WA0058100580004003036137143
B2147093730516N12153911WA0058100579004003036135144
B2147103730513N12153907WA0058000579004003036135140
B2147113730509N12153902WA0057900578004003033139150
B2147123730505N12153899WA0057800577005003033140147
B2147133730501N12153894WA0057700575005003033139141
B2147143730498N12153890WA0057600574005003034135140
B2147153730494N12153885WA0057500573005003033131134
B2147163730491N12153881WA0057300571004003033130141
B2147173730488N12153876WA0057200569004003033129151
B2147183730485N12153872WA0057000567004003032130134
B2147193730482N12153867WA0056700565005003032132140
B2147203730478N12153862WA0056500562005003035131147
B2147213730475N12153857WA0056300560005003035131153
B2147223730471N12153852WA0056200558004003037134163
B2147233730467N12153847WA0056100558004003037137145
B2147243730463N12153843WA0056000557004003037137159
B2147253730459N12153838WA0056000557004003037135165
B2147263730454N12153832WA0056200558004003040137171
B2147273730449N12153827WA0056300560004003043143165
B2147283730443N12153823WA0056400560004003043150182
B2147293730438N12153820WA0056400560004003041158169
B2147303730433N12153817WA0056300559005003039166164
B2147313730427N12153816WA0056000556004003041169194
B2147323730420N12153815WA0055700553004003041174218
B2147333730414N12153816WA0055400550005003040190218
B2147343730409N12153817WA0055000549004003040215231
B2147353730405N12153822WA0054600549004003036240247
B2147363730402N12153829WA0054400548004003036259265
B2147373730402N12153835WA0054200549004003031274272
B2147383730403N12153839WA0054000546004003023279274
B2147393730404N12153842WA0053900543004003016299278
B2147403730406N12153845WA0053700541004003018301291
B2147413730408N12153848WA0053700540004003018294286
B2147423730409N12153852WA0053600538004003020285299
B2147433730410N12153855WA0053400537004003020282297
B2147443730411N12153859WA0053300533005003020290312
B2147453730412N12153863WA0053100532004003020295312
B2147463730414N12153866WA0052900530004003020300305
B2147473730415N12153869WA0052800528004003019308301
B2147483730417N12153872WA0052700527004003019309315
B2147493730419N12153874WA0052500524004003019308304
B2147503730421N12153878WA0052300521004003020314290
B2147513730424N12153881WA0052200520004003028322306
B2147523730428N12153884WA0052200520004003028331309
B2147533730430N12153885WA0052300521005003023342329
B2147543730433N12153885WA0052400521004003017351312
B2147553730435N12153886WA0052300519004003018346316
B2147563730438N12153887WA0052200517004003020337313
B2147573730441N12153889WA0052000515004003020330314
B2147583730444N12153891WA0051900515005003022329292
B2147593730447N12153893WA0052000515004003023333328
B2148003730450N12153895WA0052000515004003023336325
B2148013730453N12153896WA0052000515004003023339303
B2148023730456N12153898WA0052000514005003022340290
B2148033730459N12153899WA0051900513004003021334311
B2148043730462N12153902WA0051800512005003023324295
B2148053730465N12153905WA0051700511005003023321299
B2148063730469N12153908WA0051700511005003028323297
B2148073730472N12153911WA0051700511004003030330326
B2148083730476N12153913WA0051800512004003030337321
B2148093730479N12153915WA0051800512004003025339321
B2148103730482N12153916WA0051800512004003021336300
B2148113730485N12153918WA0051700511005003022328307
B2148123730488N12153920WA0051700511005003024321293
B2148133730491N12153924WA0051700511004003024317299
B2148143730494N12153927WA0051700511004003026316304
B2148153730496N12153930WA0051700511005003026320320
B2148163730499N12153932WA0051600509005003021326318
B2148173730502N12153934WA0051400507005003024331320
B2148183730505N12153937WA0051200504004003024334315
B2148193730510N12153939WA0051000502005003029341303
B2148203730515N12153941WA0050800503005003033351323
B2148213730519N12153941WA0050800503004003030357327
B2148223730524N12153941WA0050800502004003030000326
B2148233730528N12153941WA0050700501004003028003316
B2148243730532N12153940WA0050600500005003027005323
B2148253730536N12153940WA0050500498004003027006325
B2148263730540N12153939WA0050300496004003028003334
B2148273730545N12153939WA0050100494004003031356337
B2148283730549N12153940WA0050000493004003031351330
B2148293730554N12153941WA0049900492005003031351333
B2148303730558N12153942WA0049700490004003031352333
B2148313730563N12153942WA0049600488004003029351339
B2148323730567N12153943WA0049400487004003029347328
B2148333730571N12153945WA0049300485005003029344324
B2148343730575N12153946WA0049200484004003028344330
B2148353730578N12153947WA0049100483004003026347320
B2148363730582N12153948WA0048900482005003023352313
B2148373730585N12153948WA0048800480004003024354333
B2148383730589N12153949WA0048600478004003024352342
B2148393730593N12153950WA0048500477004003027349332
B2148403730597N12153951WA0048400476004003027350318
B2148413730600N12153951WA0048300475004003022352306
B2148423730604N12153952WA0048100473005003022343303
B2148433730607N12153954WA0047900470004003022330304
B2148443730610N12153957WA0047700468005003026322304
B2148453730614N12153961WA0047700468005003028321302
B2148463730616N12153963WA0047700469005003028321295
B2148473730618N12153966WA0047700469004003021304298
B2148483730619N12153969WA0047600468004003017270287
B2148493730618N12153972WA0047500466004003022255267
B2148503730617N12153977WA0047400465004003024250263
B2148513730616N12153981WA0047400465004003022251272
B2148523730615N12153984WA0047300465004003022262278
B2148533730615N12153988WA0047200464004003018293287
B2148543730618N12153990WA0047000461005003023337307
B2148553730623N12153990WA0046800459004003023002339
B2148563730627N12153988WA0046700458004003029030001
B2148573730631N12153983WA0046600458005003031055025
B2148583730632N12153977WA0046500457004003034073055
B2148593730633N12153971WA0046400455004003034085074
B2149003730633N12153964WA0046200453004003035095091
B2149013730632N12153957WA0046000451004003039106110
B2149023730629N12153950WA0045800448005003039120123
B2149033730625N12153944WA0045600446005003039135135
B2149043730621N12153940WA0045500445004003038145149
B2149053730616N12153937WA0045300443004003036150158
B2149063730611N12153934WA0045200441004003036156172
B2149073730606N12153932WA0045100440004003036162185
B2149083730601N12153931WA0045000440005003036174201
B2149093730597N12153931WA0044900439005003027194206
B2149103730594N12153934WA0044800437005003027218223
B2149113730592N12153937WA0044600436005003024230243
B2149123730590N12153941WA0044500435005003024238252
B2149133730589N12153945WA0044400434004003022247266
B2149143730588N12153948WA0044300433004003022265280
B2149153730589N12153952WA0044200431005003021282288
B2149163730590N12153956WA0044000429005003021294296
B2149173730592N12153960WA0043900428005003023304304
B2149183730594N12153963WA0043700426005003023311310
B2149193730596N12153966WA0043600424005003023318318
B2149203730599N12153969WA0043400423005003023327323
B2149213730602N12153970WA0043200420005003023340340
B2149223730606N12153971WA0043000419005003025354335
B2149233730610N12153971WA0042800416005003025004340
B2149243730614N12153970WA0042600414004003027008322
B2149253730619N12153970WA0042300411005003028004308
B2149263730623N12153970WA0042100409005003028353307
B2149273730626N12153971WA0041900406005003025334303
B2149283730629N12153974WA0041600403004003025317296
B2149293730631N12153979WA0041400401005003028306289
B2149303730633N12153983WA0041300400005003028294279
B2149313730633N12153986WA0041200399004003023274276
B2149323730633N12153989WA0041000397005003017252269
B2149333730632N12153992WA0040800395005003020246259
B2149343730631N12153996WA0040600393005003023249253
B2149353730629N12154000WA0040500392005003021251256
B2149363730629N12154003WA0040300390005003021253255
B2149373730628N12154007WA0040200388004003018256250
B2149383730627N12154010WA0039900386004003020255243
B2149393730626N12154014WA0039700383005003020247236
B2149403730625N12154017WA0039500380005003020237232
B2149413730623N12154021WA0039200378004003024228230
B2149423730620N12154024WA0038900375005003025214230
B2149433730616N12154026WA0038800373004003025198216
B2149443730612N12154027WA0038500371004003025186198
B2149453730608N12154027WA0038300368005003027177188
B2149463730604N12154026WA0038100366004003029163176
B2149473730600N12154023WA0037800363004003029150156
B2149483730596N12154019WA0037500359004003032141147
B2149493730592N12154015WA0037200357004003037137155
B2149503730588N12154010WA0037100355004003037135167
B2149513730584N12154005WA0037000354004003037139165
B2149523730580N12154001WA0036800354005003035151177
B2149533730576N12153999WA0036600351005003031162180
B2149543730571N12153998WA0036400348004003032173190
B2149553730566N12153999WA0036200346005003031184201
B2149563730562N12154000WA0036100344004003031200216
B2149573730560N12154002WA0035800342004003020223229
B2149583730558N12154005WA0035500339006003020252249
B2149593730558N12154009WA0035200339005003020272263
B2150003730558N12154013WA0035000336005003020270267
B2150013730558N12154017WA0034700333005003022255261
B2150023730556N12154021WA0034500330005003024234251
B2150033730553N12154024WA0034200327005003024220239
B2150043730549N12154027WA0033900324005003027212232
B2150053730546N12154030WA0033700323005003028211232
B2150063730542N12154033WA0033500321004003028210223
B2150073730539N12154035WA0033200318005003027208229
B2150083730535N12154037WA0033000316005003027204216
B2150093730532N12154039WA0032900313005003026201224
B2150103730528N12154041WA0032700311005003027198226
B2150113730524N12154042WA0032500309005003027195235
B2150123730520N12154044WA0032300307005003028195218
B2150133730516N12154045WA0032200306005003026199236
B2150143730513N12154047WA0032100304005003026202238
B2150153730510N12154049WA0031800303005003025208238
B2150163730506N12154051WA0031500299005003025213234
B2150173730502N12154055WA0031200296005003032216243
B2150183730499N12154059WA0031000294004003032220253
B2150193730496N12154062WA0030800292005003031221243
B2150203730493N12154066WA0030700291005003027228243
B2150213730491N12154069WA0030600289004003024232243
B2150223730489N12154072WA0030500288005003022227251
B2150233730486N12154075WA0030400286004003022220249
B2150243730484N12154078WA0030200284005003022219247
B2150253730481N12154081WA0029900281005003023225250
B2150263730478N12154085WA0029600278005003026228247
B2150273730476N12154088WA0029500276005003026226245
B2150283730473N12154092WA0029300275005003026222251
B2150293730470N12154095WA0029200272005003026221239
B2150303730467N12154098WA0028900270005003026224251
B2150313730464N12154102WA0028700268005003027228237
B2150323730462N12154106WA0028600266005003027230244
B2150333730459N12154110WA0028400265005003027228247
B2150343730457N12154113WA0028300263005003026225243
B2150353730454N12154116WA0028100261005003025225248
B2150363730452N12154120WA0027900259005003025226256
B2150373730449N12154123WA0027700256004003027228258
B2150383730444N12154131WA0027300252004003027233247
B2150393730442N12154135WA0027100251005003026234249
B2150403730440N12154139WA0027000249005003025234257
B2150413730438N12154142WA0026800247005003023235257
B2150423730436N12154146WA0026700246005003023239253
B2150433730434N12154150WA0026500244004003023237237
B2150443730432N12154153WA0026300242004003023222223
B2150453730428N12154155WA0026100240004003024205203
B2150463730424N12154157WA0025900237004003029197199
B2150473730420N12154158WA0025700235004003034193187
B2150483730414N12154159WA0025500233004003034184178
B2150493730410N12154159WA0025400232004003034172186
B2150503730405N12154157WA0025400232004003032167204
B2150513730400N12154156WA0025300231004003032170196
B2150523730396N12154156WA0025200229004003031176207
B2150533730391N12154155WA0025000227004003031176204
B2150543730385N12154155WA0024900226004003037175205
B2150553730379N12154154WA0024800226005003038179218
B2150563730374N12154155WA0024700225004003037189233
B2150573730369N12154157WA0024600224005003034203231
B2150583730366N12154160WA0024500222005003028217242
B2151003730363N12154164WA0024300220005003028232254
B2151013730362N12154168WA0024100218005003028250259
B2151023730362N12154173WA0024000217004003027278273
B2151033730364N12154176WA0023900217005003019317286
B2151043730366N12154178WA0024000217005003019322315
B2151053730367N12154179WA0024000216004003017276301
B2151063730366N12154182WA0023800214005003017246277
B2151073730365N12154186WA0023600211004003022257285
B2151083730365N12154191WA0023400212005003026283272
B2151093730367N12154195WA0023500213005003023305272
B2151103730369N12154198WA0023600214004003023309289
B2151113730370N12154200WA0023600214004003014300274
B2151123730371N12154203WA0023500212005003017288278
B2151133730372N12154206WA0023300210004003017285277
B2151143730373N12154211WA0023200209004003023283275
B2151153730374N12154215WA0023200209005003021278266
B2151163730374N12154219WA0023200209004003021278273
B2151173730374N12154221WA0023200209004003015286299
B2151183730375N12154223WA0023200209005003015301307
B2151193730377N12154226WA0023200207004003020323308
B2151203730381N12154228WA0023000206005003025337321
B2151213730384N12154229WA0023000206005003025343334
B2151223730388N12154230WA0023000207004003025346337
B2151233730392N12154231WA0023100207005003023344339
B2151243730395N12154233WA0023200208004003023334301
B2151253730398N12154235WA0023200208005003022317284
B2151263730399N12154239WA0023200207005003022293275
B2151273730399N12154243WA0023100207004003021266261
B2151283730399N12154246WA0023100207004003021240244
B2151293730396N12154249WA0022900205004003021216233
B2151303730393N12154251WA0022800205004003021196215
B2151313730389N12154251WA0022600203004003029178207
B2151323730384N12154250WA0022600202004003031161182
B2151333730380N12154247WA0022500201005003030154170
B2151343730376N12154245WA0022400200004003030149167
B2151353730373N12154242WA0022300199004003028149169
B2151363730369N12154239WA0022100197004003030156180
B2151373730364N12154238WA0021900194004003030171196
B2151383730360N12154238WA0021700192004003030190212
B2151393730356N12154240WA0021600191004003025210232
B2151403730354N12154244WA0021400189004003025242258
B2151413730354N12154248WA0021200186005003024285285
B2151423730356N12154252WA0020900185005003024331313
B2151433730360N12154255WA0020700185004003038006342
B2151443730366N12154252WA0020600185005003038025007
B2151453730370N12154247WA0020600185004003036040020
B2151463730374N12154243WA0020500184004003033039036
B2151473730378N12154240WA0020400182004003026030012
B2151483730382N12154238WA0020200179004003029018004
B2151493730386N12154237WA0020100177005003029007346
B2151503730391N12154237WA0019900175005003030356334
B2151513730395N12154238WA0019700174004003027340322
B2151523730398N12154241WA0019600172005003027318311
B2151533730400N12154245WA0019400170004003024292294
B2151543730400N12154249WA0019300168005003023265279
B2151553730399N12154253WA0019100166004003021243262
B2151563730397N12154256WA0019000166004003023226245
B2151573730395N12154259WA0018900164004003023221230
B2151583730392N12154262WA0018800163004003023217224
B2151593730390N12154264WA0018800163004003017211221
B2152003730387N12154266WA0018700162004003017210221
B2152013730385N12154268WA0018500160004003017213218
B2152023730383N12154270WA0018300158004003018216215
B2152033730380N12154273WA0018100157004003024215215
B2152043730377N12154275WA0017900156004003024212215
B2152053730374N12154277WA0017900156004003022210212
B2152063730372N12154279WA0017900155004003020207207
B2152073730369N12154280WA0017800154004003019200200
B2152083730366N12154281WA0017800153005003019192196
B2152093730364N12154282WA0017700152004003018183201
B2152103730362N12154281WA0017700152004003014182176
B2152113730361N12154281WA0017700152004003003182171
B2152123730361N12154281WA0017700151004003003182167
B2152133730361N12154280WA0017700151004003003182158
B2152143730361N12154280WA0017700151004003003150175
B2152153730360N12154280WA0017700150004003002150179
B2152163730360N12154280WA0017700150004003002150184
B2152173730360N12154280WA0017700151004003001150187
B2152183730360N12154279WA0017700150004003001150188
B2152193730360N12154279WA0017700150004003003150195
B2152203730360N12154279WA0017700150005003000150194
B2152213730360N12154279WA0017700150004003001150195
B2152223730360N12154279WA0017700150004003001150196
B2152233730360N12154279WA0017700150004003000150198
B2152243730360N12154278WA0017700149004003000150200
B2152253730360N12154278WA0017700149004003000150201
B2152263730360N12154278WA0017700149004003000150204
B2152273730360N12154278WA0017700149004003000150204
B2152283730360N12154279WA0017700149004003001150205
B2152293730360N12154279WA0017700149004003000150206
B2152303730360N12154279WA0017600149004003000150206
B2152313730360N12154279WA0017600149005003000150207
B2152323730360N12154279WA0017600149004003000150207
B2152333730360N12154279WA0017600149004003000150207
B2152343730360N12154279WA0017600149004003000150207
B2152353730360N12154279WA0017700149004003001150208
B2152363730360N12154279WA0017700149004003000150208
B2152373730360N12154279WA0017700149004003000150208
B2152383730360N12154279WA0017700148004003001150208
B2152393730360N12154279WA0017700148004003000150208
B2152403730360N12154279WA0017700148004003000150208
B2152413730360N12154279WA0017700148004003000150208
B2152423730360N12154279WA0017700149004003001150208
B2152433730360N12154279WA0017700148004003000150208
B2152443730360N12154279WA0017700148004003000150208
GVkBUBv4rrXOztLMK+VWTbXLceZ8d+Hn9N6t2km7zA+8SUzfyLeBcSy/wiKsBJGBO
Gn6Tij4bbmyCgpptjGAi3Yv7LljjEEO65TR02Ox/wMGN2Z08KldpoEGUGasVIsp6u
GbbVJ0zVADGzlQZ2d0vtPe5wn19QpO/BgIHE9bgnR8y4=
