AXFH000
HFDTE160826
HFPLTPILOT:KaranS
HFGTYGLIDERTYPE:Niviuk Hiko P
HFDTM100GPSDATUM:WGS84
HFRFWFIRMWAREVERSION:9.7
HFRHWHARDWAREVERSION:iPhone 17 Pro
HFFTYFRTYPE:Flyskyhy,9.7
HFGPS:Internal
HFPRSVARIO:XC Tracer
HFCCLCOMPETITIONCLASS:Paraglider
HFTZNTIMEZONE:-7
HFSITSITE:Ed Levin,US
I053638FXA3941VXA4244GSP4547CCO4850HDT
C160826192756160826000109TASK
C0000000N00000000ETAKEOFF
C3645907N11905878W00010009999999000000360000STARTAREA DNLNCH
C3646886N11907285W00000000000400000000360000TURNAREA 49917
C3644816N11904600W00000000001000000000360000TURNAREA SONTAG
C3646886N11907285W00000000000400000000360000TURNAREA 49917
C3644411N11907767W00000000001500000000360000TURNAREA TURKEY
C3645907N11905878W00000000000400000000360000TURNAREA DNLNCH
C3643790N11908069W00000000001500000000360000TURNAREA GRNY
C3644227N11904779W00000000001000000000360000TURNAREA LASTCH
C3646886N11907285W00000000000400000000360000TURNAREA 49917
C3644153N11906286W00000000002000000000360000TURNAREA DNLPLZ
C3644153N11906286W00000000000400000000360000FINISHAREA DNLPLZ
C0000000N00000000ELANDING
B1928253728537N12151679WA0070200702001003000034017
B1928263728537N12151679WA0070200702001003000034035
B1928273728538N12151679WA0070200702001003000034045
B1928283728538N12151679WA0070300702001003000034046
B1928293728537N12151679WA0070200702001003001034032
B1928303728537N12151679WA0070200702001003000034327
B1928313728537N12151679WA0070200702001003000034313
B1928323728537N12151679WA0070200702002003000034313
B1928333728537N12151679WA0070200702003003000034311
B1928343728538N12151679WA0070200702003003000034313
B1928353728538N12151679WA0070200702003003000034311
B1928363728538N12151679WA0070200702002003000034311
B1928373728538N12151679WA0070200702002003000034311
B1928383728538N12151679WA0070200702002003000034311
B1928393728538N12151679WA0070200702002003000034310
B1928403728538N12151679WA0070200702002003000034349
B1928413728538N12151679WA0070200702002003000034010
B1928423728538N12151679WA0070200702002003000034046
B1928433728538N12151679WA0070200702002003000034044
B1928443728538N12151679WA0070200702002003000034044
B1928453728538N12151679WA0070200702001003000034047
B1928463728538N12151680WA0070200702001003000254061
B1928473728538N12151679WA0070200702001003002027016
B1928483728537N12151680WA0070100702002003003245186
B1928493728537N12151682WA0070000701002003007258182
B1928503728537N12151684WA0069900701002003007259070
B1928513728536N12151687WA0069800701003003010260078
B1928523728536N12151690WA0069500700003003014260071
B1928533728535N12151694WA0069200700003003016258352
B1928543728533N12151699WA0069200697003003016249013
B1928553728532N12151703WA0069200697003003019243056
B1928563728531N12151707WA0069100697004003022240244
B1928573728528N12151712WA0069100697004003023243245
B1928583728526N12151718WA0069500698003003023242244
B1928593728524N12151720WA0069700697004003023219244
B1929003728522N12151722WA0069600696004003021209224
B1929013728518N12151724WA0069500695004003027220216
B1929023728515N12151729WA0069500695004003027239224
B1929033728512N12151735WA0069500695004003033250243
B1929043728511N12151741WA0069500694004003029244248
B1929053728509N12151745WA0069500694004003029234247
B1929063728507N12151748WA0069500693004003026232248
B1929073728505N12151753WA0069500693004003026240242
B1929083728503N12151758WA0069500693004003029250253
B1929093728502N12151763WA0069500694004003029252252
B1929103728501N12151768WA0069600694004003029250256
B1929113728500N12151772WA0069600694004003027249261
B1929123728498N12151777WA0069600694004003024249257
B1929133728497N12151780WA0069600693004003024244279
B1929143728495N12151784WA0069500693004003023252270
B1929153728495N12151788WA0069400692004003023263277
B1929173728495N12151793WA0069300690004003026275271
B1929183728496N12151798WA0069200690004003028281265
B1929193728496N12151804WA0069200690005003028280293
B1929203728497N12151809WA0069100690004003028270270
B1929213728496N12151814WA0069000690004003026268286
B1929223728496N12151819WA0068900688004003027268273
B1929233728496N12151824WA0068800687004003027267268
B1929243728495N12151829WA0068700686004003027264260
B1929253728495N12151834WA0068600685004003030260260
B1929263728494N12151840WA0068500685004003031259261
B1929273728493N12151846WA0068500685005003031256266
B1929283728492N12151851WA0068400685005003031257269
B1929293728491N12151856WA0068300684005004029258265
B1929303728490N12151861WA0068100682004003031256259
B1929313728489N12151867WA0068000679004003031255262
B1929323728487N12151872WA0067900678004003032253255
B1929333728486N12151878WA0067900677004003031251255
B1929343728485N12151884WA0067800676004003031252266
B1929353728483N12151889WA0067800676004003031251239
B1929363728481N12151894WA0067700676004003031248243
B1929373728479N12151900WA0067600675004003033245235
B1929383728477N12151906WA0067500674004003033241252
B1929393728474N12151911WA0067400674004003033241241
B1929403728472N12151916WA0067300673004003032242251
B1929413728470N12151922WA0067300671004003032243240
B1929423728468N12151927WA0067100670004003033240250
B1929433728465N12151932WA0067000669004003032237248
B1929443728463N12151937WA0066900667004003032237257
B1929453728460N12151943WA0066700666004003032241260
B1929463728458N12151948WA0066600664004003032241245
B1929473728455N12151953WA0066500663004003032238242
B1929483728453N12151958WA0066400662004003032235243
B1929493728450N12151963WA0066300661004003030234249
B1929503728447N12151967WA0066200660003003030237250
B1929513728445N12151972WA0066100659004003030238235
B1929523728443N12151977WA0066100657004003030233214
B1929533728439N12151981WA0065900656004003030224214
B1929543728436N12151984WA0065800654004003032216215
B1929553728431N12151988WA0065600652004003032214233
B1929563728427N12151992WA0065500651004003035214223
B1929573728423N12151995WA0065400650004003034214227
B1929583728419N12151999WA0065300649004003034214216
B1929593728415N12152002WA0065200648004003033212208
B1930003728410N12152006WA0065000646004003033208207
B1930013728405N12152009WA0064800646004003038205212
B1930023728400N12152012WA0064600643004003041205213
B1930033728394N12152016WA0064400642004003041213237
B1930043728390N12152021WA0064300641004003041224242
B1930053728387N12152026WA0064300641005003034233254
B1930063728384N12152031WA0064200640004003034237242
B1930073728382N12152036WA0064100638004003033236247
B1930083728379N12152041WA0063900636004003033234238
B1930093728375N12152047WA0063800636004003038235247
B1930103728372N12152053WA0063600635004003039238245
B1930113728369N12152059WA0063600635004003038241246
B1930123728367N12152065WA0063600635004003038245253
B1930133728365N12152071WA0063600634004003032248249
B1930143728363N12152077WA0063500633004003032250252
B1930153728362N12152083WA0063400631004003032250246
B1930163728360N12152089WA0063300630004003034247248
B1930173728358N12152095WA0063200629004003035244239
B1930183728355N12152101WA0063200629004003035241246
B1930193728352N12152106WA0063200628004003035237241
B1930203728349N12152112WA0063100628004003035234236
B1930213728346N12152117WA0063000627004003036235243
B1930223728343N12152123WA0062900625004003038237246
B1930233728340N12152129WA0062800623004003038238245
B1930243728337N12152136WA0062600623004003039238242
B1930253728334N12152142WA0062600622004003037237244
B1930263728331N12152148WA0062500621004003037237245
B1930273728329N12152153WA0062400621004003036239244
B1930283728326N12152159WA0062300619004003036240243
B1930293728323N12152165WA0062200618004003037239245
B1930303728320N12152171WA0062100617004003037236239
B1930313728317N12152177WA0062100617004003037234241
B1930323728314N12152182WA0062100617004003037233242
B1930333728311N12152188WA0062000616004003037234243
B1930343728308N12152194WA0061900615004003037235241
B1930353728305N12152199WA0061800614004003037236246
B1930363728302N12152205WA0061700613004003037238244
B1930373728299N12152211WA0061700613004003035239250
B1930383728296N12152216WA0061700613004003035239244
B1930393728294N12152221WA0061700612004003032238257
B1930403728292N12152226WA0061600611004003030239251
B1930413728290N12152231WA0061500610004003029239244
B1930423728287N12152235WA0061400609004003029234243
B1930433728284N12152239WA0061300608004003029227229
B1930443728281N12152244WA0061200607004003030224242
B1930453728278N12152248WA0061100605004003032225246
B1930463728274N12152252WA0060900604004003033230242
B1930473728271N12152258WA0060700602004003033232246
B1930483728268N12152263WA0060600600004003034230236
B1930493728265N12152267WA0060500600004003033227242
B1930503728261N12152272WA0060400599004003033227245
B1930513728258N12152276WA0060300598004003033229248
B1930523728255N12152281WA0060100596004003033231242
B1930533728252N12152287WA0060000594004003035231240
B1930543728244N12152297WA0059700592004003037229245
B1930553728241N12152303WA0059600591004003038231242
B1930563728237N12152309WA0059500590004003038232247
B1930573728234N12152314WA0059400590004003036230228
B1930583728230N12152319WA0059300589004003036224215
B1930593728226N12152323WA0059300588004003035217228
B1931003728222N12152327WA0059200587004003034218233
B1931013728218N12152331WA0059100585004003035218224
B1931023728213N12152335WA0058900584004003037215221
B1931033728208N12152339WA0058800582004003037210226
B1931043728204N12152342WA0058700582004003037209253
B1931053728200N12152345WA0058700581004003031216245
B1931063728197N12152349WA0058600580004003031227248
B1931073728193N12152354WA0058400579004003030236247
B1931083728191N12152359WA0058300577004003030240250
B1931093728189N12152364WA0058100576004003031241257
B1931103728187N12152369WA0058000575004003031242255
B1931113728185N12152374WA0057900574004003031244265
B1931123728183N12152380WA0057800572004003031247257
B1931133728181N12152385WA0057700571004003031248247
B1931153728180N12152390WA0057600570004003031246254
B1931163728178N12152396WA0057600569004003031243252
B1931173728175N12152401WA0057500568004003032242264
B1931183728173N12152406WA0057400567004003032242255
B1931193728171N12152412WA0057200566004003032243262
B1931203728169N12152417WA0057100564004003032244254
B1931213728167N12152423WA0057000562004003032244256
B1931223728165N12152429WA0056800561004003034244255
B1931233728162N12152434WA0056700560004003035244262
B1931243728160N12152440WA0056600559004003035245270
B1931253728158N12152446WA0056500558004003035245274
B1931263728156N12152452WA0056300556004003035244264
B1931273728153N12152458WA0056200554004003035242246
B1931283728151N12152464WA0056000554004003035239238
B1931293728148N12152470WA0055900554004003035236230
B1931303728145N12152475WA0055700552004003036231249
B1931313728141N12152480WA0055500550004003036230260
B1931323728138N12152486WA0055400547004003036233259
B1931333728135N12152491WA0055200545004003036238258
B1931343728133N12152497WA0054900543004003035243257
B1931353728131N12152503WA0054800541004003035244259
B1931363728128N12152509WA0054500539004003035244261
B1931373728126N12152515WA0054400537004003036244259
B1931383728124N12152522WA0054300536004003036246265
B1931393728122N12152528WA0054200535004003036248263
B1931403728120N12152533WA0054200535004003034250267
B1931413728119N12152539WA0054100534004003033252271
B1931423728117N12152545WA0054000534004003033254265
B1931433728116N12152551WA0053900533004003035252253
B1931443728114N12152558WA0053800532004003035247236
B1931453728111N12152564WA0053800531004003036239216
B1931463728108N12152569WA0053800531004003035226201
B1931473728104N12152573WA0053700531004003035210196
B1931483728099N12152575WA0053700531004003035192187
B1931493728094N12152576WA0053600530004003035181178
B1931503728088N12152575WA0053500529004003038171172
B1931513728082N12152573WA0053400528004003040163165
B1931523728076N12152570WA0053300526004003040159161
B1931533728070N12152567WA0053200526004003041158157
B1931543728064N12152564WA0053100525004003043156147
B1931553728059N12152560WA0053100524004003043151136
B1931563728054N12152556WA0053000524004003041144132
B1931573728050N12152552WA0053000523004003038136136
B1931583728047N12152546WA0053000523004003036130128
B1931593728043N12152541WA0052900522004003038125120
B1932003728040N12152535WA0052800521004003038119108
B1932013728037N12152528WA0052700520004003039117122
B1932023728034N12152521WA0052600519004003040122120
B1932033728031N12152516WA0052500518004003040131134
B1932043728027N12152511WA0052500518004003038136130
B1932053728023N12152506WA0052400518005003038137126
B1932063728018N12152501WA0052200517005003038138121
B1932073728014N12152496WA0052000517006003039139122
B1932083728009N12152491WA0052000517006004039139122
B1932093728005N12152486WA0052000518007005039138127
B1932103728001N12152481WA0051900518007005039134123
B1932113727997N12152476WA0051900517006006039133130
B1932123727993N12152471WA0051800516007006039134124
B1932133727990N12152465WA0051700516007007039131129
B1932143727986N12152459WA0051600517008008042129123
B1932153727982N12152453WA0051600518009009042129114
B1932163727977N12152447WA0051700517009010042130110
B1932173727973N12152440WA0051700517042011043130114
B1932183727969N12152434WA0051600516011012042130107
B1932193727965N12152428WA0051400516011012042129115
B1932203727962N12152421WA0051200515011012042129116
B1932213727958N12152413WA0051100516009012042124117
B1932223727956N12152404WA0051000511010010044123123
B1932233727953N12152397WA0051000512010010044123123
B1932243727950N12152391WA0050900511010010043124121
B1932253727946N12152384WA0050700511010011042125126
B1932263727943N12152378WA0050600511010011042126124
B1932273727940N12152372WA0050500511010011042127129
B1932283727936N12152366WA0050300511010012042127127
B1932293727933N12152360WA0050100510010012042127122
B1932303727929N12152353WA0049900507010012044128125
B1932313727926N12152347WA0049800505010012044128139
B1932323727922N12152340WA0049600504011012044127125
B1932333727917N12152333WA0049600503012012044127116
B1932343727913N12152326WA0049600502012012045128125
B1932353727909N12152319WA0049600502011012045128128
B1932363727905N12152312WA0049400501012013045126125
B1932373727901N12152305WA0049300500012013045125127
B1932383727897N12152297WA0049000500012013045123134
B1932393727893N12152290WA0048800500014014045124119
B1932403727890N12152282WA0048600500014014045124114
B1932413727886N12152274WA0048600500012014045124107
B1932423727882N12152267WA0048800500012014045123113
B1932433727878N12152260WA0048900500011015045123115
B1932443727875N12152253WA0048800499012014044123101
B1932453727873N12152249WA0048700496010014044123100
B1932463727870N12152243WA0048500494010014039123099
B1932473727867N12152237WA0048400494010014039121114
B1932483727864N12152231WA0048400494011014039122122
B1932493727861N12152224WA0048500495011014038121123
B1932503727858N12152218WA0048500495011014038116121
B1932513727856N12152212WA0048500495011015038117119
B1932523727854N12152205WA0048300494011015038116125
B1932533727852N12152199WA0048300494011015037116120
B1932543727850N12152193WA0048200493011015036118134
B1932553727847N12152187WA0048200493011015036118151
B1932563727845N12152182WA0048200492011015035119152
B1932573727843N12152176WA0048200491014015034119144
B1932583727840N12152171WA0048100490014016032123144
B1932593727838N12152167WA0047900489014016032123153
B1933003727836N12152162WA0047700488014016032122152
B1933013727833N12152157WA0047500486016017032121149
B1933023727831N12152152WA0047300483017017033120134
B1933033727829N12152147WA0047100482015017030120139
B1933043727824N12152141WA0046900482014016032131132
B1933053727821N12152138WA0046700481015016030134129
B1933063727818N12152134WA0046500481016016031136155
B1933073727815N12152131WA0046500479016016030137152
B1933083727811N12152127WA0046500478016016030133163
B1933093727808N12152124WA0046500478017016029135159
B1933103727806N12152122WA0046300473015015028143167
B1933113727804N12152123WA0046200460014011025138165
B1933123727802N12152123WA0046000454013010027135171
B1933133727799N12152121WA0045800450012008027137173
B1933143727795N12152121WA0045700447010006029141150
B1933153727792N12152120WA0045500446009005030142172
B1933163727788N12152117WA0045500445008004030142157
B1933173727785N12152113WA0045400444008003029141170
B1933183727781N12152110WA0045400444007003029140150
B1933193727778N12152106WA0045300444007003034137162
B1933203727774N12152101WA0045300444007003034133152
B1933213727771N12152097WA0045400444006003034133141
B1933223727768N12152093WA0045400444006003031138141
B1933233727765N12152090WA0045300443006003022140168
B1933243727763N12152088WA0045100441006003022134158
B1933253727760N12152084WA0044900438006003022132140
B1933263727757N12152080WA0044600435005003024132150
B1933273727754N12152076WA0044300432005003035136156
B1933283727750N12152071WA0044000429005003037142155
B1933293727745N12152067WA0043800427005003036146168
B1933303727741N12152064WA0043700427005003036148170
B1933313727736N12152061WA0043700426005003033151184
B1933323727732N12152058WA0043700426005003033153194
B1933333727727N12152055WA0043700426005003033153178
B1933343727723N12152052WA0043700426005003033151181
B1933353727718N12152049WA0043700426005003033148169
B1933363727714N12152046WA0043700426005003034147149
B1933373727710N12152042WA0043700426005003034148183
B1933383727705N12152038WA0043700426005003037147182
B1933393727700N12152034WA0043800428005003038144177
B1933403727696N12152030WA0043900429005003038141174
B1933413727692N12152026WA0044000430005003036138161
B1933423727688N12152021WA0044100430005003035135159
B1933433727684N12152017WA0044000429005003034136150
B1933443727681N12152012WA0043900428005003036135150
B1933453727677N12152007WA0043800427005003036131141
B1933463727673N12152001WA0043700426004003040127135
B1933473727669N12151994WA0043700426005003043126149
B1933483727665N12151988WA0043700426004003043127151
B1933493727661N12151982WA0043700426004003042131157
B1933503727657N12151976WA0043600425005003042135160
B1933513727652N12151971WA0043500424004003042136162
B1933523727647N12151965WA0043400423004003043137145
B1933533727642N12151960WA0043400423004003043134133
B1933543727638N12151953WA0043300422004003044128127
B1933553727635N12151946WA0043300422004003045118121
B1933563727632N12151939WA0043300422004003045113124
B1933573727630N12151931WA0043300422004003044111104
B1933583727627N12151923WA0043200421004003044111106
B1933593727625N12151916WA0043100420004003042111106
B1934003727623N12151909WA0043000419004003042112127
B1934013727620N12151902WA0042900417004003040115118
B1934023727617N12151896WA0042600415004003039121121
B1934033727614N12151889WA0042400412004003042123120
B1934043727611N12151882WA0042200410004003046118108
B1934053727608N12151874WA0042000409004003046113095
B1934063727605N12151866WA0041900408004003046108091
B1934073727604N12151859WA0041800406004003041104102
B1934083727603N12151851WA0041600405004003041098086
B1934093727602N12151844WA0041500403004003041093084
B1934103727602N12151836WA0041400402004003041092076
B1934113727602N12151828WA0041300401004003042094089
B1934123727601N12151820WA0041300401004003042096107
B1934133727600N12151812WA0041300402004003042093097
B1934143727600N12151805WA0041300402004003039088108
B1934153727601N12151799WA0041300402004003036088109
B1934163727601N12151792WA0041300402004003036089109
B1934173727601N12151785WA0041300402005003036091104
B1934183727600N12151777WA0041300402005003037093114
B1934193727600N12151770WA0041200401006003038093124
B1934203727599N12151762WA0041200401005004040103121
B1934213727596N12151756WA0041200401004003040107127
B1934223727593N12151749WA0041100400004003040108125
B1934233727591N12151742WA0041100400004003039110122
B1934243727589N12151735WA0041100400004003040109117
B1934253727587N12151728WA0041100400004003040109119
B1934263727585N12151721WA0041100400004003040107118
B1934273727583N12151714WA0041000398004003040105106
B1934283727581N12151706WA0040900398004003040103102
B1934293727580N12151699WA0040800397004003039100099
B1934303727579N12151692WA0040700396004003039098081
B1934313727579N12151684WA0040700395004003039097080
B1934323727578N12151677WA0040500395004003039097060
B1934333727578N12151670WA0040400394004003039085057
B1934343727579N12151663WA0040300393004003038069055
B1934353727582N12151657WA0040200392004003037055050
B1934363727586N12151652WA0040200392004003037045031
B1934373727589N12151648WA0040100392004003033041022
B1934383727593N12151644WA0040100391004003032036011
B1934393727598N12151641WA0040100390004003034026007
B1934403727603N12151639WA0040100390004003036018003
B1934413727608N12151637WA0040200391004003035013001
B1934423727613N12151636WA0040300393004003035014340
B1934433727618N12151634WA0040400394004003032015319
B1934443727622N12151633WA0040600395004003032014323
B1934453727627N12151631WA0040700396004003031013329
B1934463727631N12151630WA0040700396004003030012335
B1934473727636N12151629WA0040800397004003031010335
B1934483727640N12151628WA0040800397004003031004336
B1934493727644N12151628WA0040800397004003030352333
B1934503727647N12151630WA0040800397004003025333324
B1934513727649N12151632WA0040800396004003020316309
B1934523727651N12151635WA0040700396004003020301295
B1934533727652N12151638WA0040600395004003019296286
B1934543727654N12151641WA0040500394004003018295282
B1934553727655N12151645WA0040400394004003020289281
B1934563727655N12151649WA0040400393004003023276278
B1934573727654N12151653WA0040300392004003023255268
B1934583727653N12151657WA0040200392004003023233252
B1934593727650N12151660WA0040200391004003023214235
B1935003727647N12151662WA0040100390004003023198221
B1935013727643N12151662WA0040100390004003023181208
B1935023727639N12151661WA0040000389004003024168195
B1935033727636N12151660WA0040000388004003026159183
B1935043727632N12151658WA0039900387004003027152175
B1935053727628N12151655WA0039700385004003027144168
B1935063727625N12151650WA0039500383004003030133161
B1935073727622N12151645WA0039300381004003033127149
B1935083727618N12151640WA0039100379004003036130141
B1935093727614N12151636WA0039000378004003036140143
B1935103727610N12151632WA0038800376004003035151154
B1935113727605N12151630WA0038700375004003034165164
B1935123727602N12151630WA0038500373004003030185176
B1935133727599N12151632WA0038400372004003019210195
B1935143727598N12151634WA0038300370004003019241219
B1935153727598N12151637WA0038200369004003015279240
B1935163727598N12151640WA0038000369004003015306263
B1935173727601N12151643WA0037900368004003020318282
B1935183727604N12151645WA0037800367004003020330293
B1935193727606N12151646WA0037700367004003020334301
B1935203727609N12151648WA0037500366004003018324304
B1935213727611N12151650WA0037400364004003017314299
B1935223727612N12151653WA0037300362004003017312291
B1935233727615N12151656WA0037100360004003022314292
B1935243727617N12151659WA0037000359004003022313297
B1935253727619N12151661WA0036900358004003021313297
B1935263727621N12151664WA0036700356004003020317296
B1935273727624N12151667WA0036600355004003020321299
B1935283727627N12151669WA0036600354004003024324302
B1935293727630N12151672WA0036600355004003024320307
B1935303727632N12151674WA0036600354004003021317304
B1935313727634N12151676WA0036500353004003018324301
B1935323727636N12151678WA0036400352004003019330303
B1935333727639N12151680WA0036300351004003021328308
B1935343727641N12151682WA0036200350004003019320309
B1935353727643N12151685WA0036200350004003019312302
B1935363727645N12151687WA0036100348004003020312297
B1935373727647N12151690WA0036000347004003021314297
B1935383727650N12151693WA0035900347004003021312299
B1935393727652N12151696WA0035900347004003022307298
B1935403727654N12151699WA0035900347004003021310294
B1935413727656N12151702WA0035900346004003022321296
B1935423727659N12151705WA0035800346004003022324304
B1935433727662N12151708WA0035800346004003023314306
B1935443727664N12151712WA0035700346004003026304300
B1935453727666N12151716WA0035800346004003027305294
B1935463727669N12151720WA0035900347004003026305295
B1935473727670N12151724WA0036000350004003024288295
B1935483727670N12151727WA0036200350004003020259282
B1935493727670N12151731WA0036400350004003020253261
B1935503727669N12151734WA0036600352004003019272257
B1935513727670N12151736WA0036800353004003016295270
B1935523727670N12151738WA0036800354004003010264284
B1935533727669N12151740WA0036800353004003018227265
B1935543727667N12151743WA0036700354004003018223241
B1935553727663N12151747WA0036800355004003026239238
B1935563727662N12151752WA0037100357004003024250246
B1935573727660N12151756WA0037300360004003024241255
B1935583727659N12151759WA0037500361004003021211249
B1935593727656N12151760WA0037700363004003021189228
B1936003727652N12151759WA0037900364004003025168211
B1936013727648N12151757WA0037900364004003031149190
B1936023727644N12151752WA0038000365004003031130167
B1936033727641N12151744WA0038000366004003040109145
B1936043727641N12151736WA0038200368004003043087116
B1936053727643N12151728WA0038400370004003043069087
B1936063727646N12151723WA0038600372004003039051064
B1936073727650N12151719WA0038700374004003034039041
B1936083727653N12151716WA0038800375004003030031025
B1936093727658N12151714WA0039000376004003030016012
B1936103727662N12151714WA0039100378004003030356357
B1936113727666N12151715WA0039300380004003030337338
B1936123727669N12151718WA0039400382004003019317322
B1936133727670N12151720WA0039600382004003019274300
B1936143727670N12151722WA0039800382004003012244272
B1936153727669N12151724WA0039800382004003011252254
B1936163727668N12151727WA0039700381004003014271259
B1936173727669N12151730WA0039600380004003020278269
B1936183727669N12151734WA0039600381004003020276274
B1936193727670N12151739WA0039600382004003026274273
B1936203727669N12151744WA0039800385004003026268272
B1936213727668N12151749WA0040100388004003026248268
B1936223727667N12151752WA0040400388004003023212253
B1936233727663N12151753WA0040600390004003023192228
B1936243727658N12151754WA0040700391004003032180212
B1936253727653N12151752WA0040700392005003033164197
B1936263727649N12151749WA0040800393004003033140182
B1936273727645N12151744WA0040700393004003035116157
B1936283727643N12151736WA0040600393005003039093127
B1936293727644N12151729WA0040600393004003039078096
B1936303727646N12151723WA0040600393004003036059076
B1936313727649N12151719WA0040600393004003033043050
B1936323727653N12151715WA0040700394005003029028029
B1936333727657N12151713WA0040900397005003029019009
B1936343727661N12151712WA0041200400004003029013000
B1936353727665N12151711WA0041400403004003027008354
B1936363727669N12151711WA0041700405004003022002347
B1936373727671N12151711WA0041800407004003022351338
B1936383727673N12151712WA0041800406004003017318328
B1936393727674N12151714WA0041600405004003013282300
B1936403727674N12151717WA0041400402004003019269276
B1936413727674N12151721WA0041100401004003025262268
B1936423727673N12151726WA0040900401004003025259264
B1936433727672N12151731WA0040900402004003027255261
B1936443727671N12151736WA0041100402004003025247258
B1936453727669N12151740WA0041400403004003025242253
B1936463727667N12151743WA0041600403004003021243249
B1936473727667N12151745WA0041600403004003017246251
B1936483727666N12151748WA0041600403004003015251253
B1936493727665N12151751WA0041500402004003019256257
B1936503727664N12151755WA0041500402004003019250259
B1936513727663N12151759WA0041400402004003023228255
B1936523727659N12151762WA0041400401004003029208239
B1936533727654N12151763WA0041300400004003032183221
B1936543727649N12151762WA0041100398004003032169199
B1936553727644N12151760WA0041000397004003034159186
B1936563727638N12151756WA0040900396004003043148174
B1936573727633N12151751WA0040800395004003045132159
B1936583727630N12151743WA0040700394004003045115141
B1936593727629N12151735WA0040600394004003045099120
B1937003727628N12151728WA0040700395004003037093101
B1937013727628N12151722WA0040800396004003037088094
B1937023727629N12151716WA0040900397004003033078087
B1937033727631N12151711WA0041000397004003032060073
B1937043727634N12151707WA0041000398004003028040049
B1937053727638N12151705WA0041100399004003028021022
B1937063727641N12151703WA0041200400004003027004001
B1937073727643N12151704WA0041400401004003021347344
B1937083727645N12151705WA0041500401004003012321325
B1937093727646N12151707WA0041500401004003013299300
B1937103727646N12151710WA0041500401004003013285288
B1937113727647N12151712WA0041500401004003014274280
B1937123727647N12151715WA0041500402004003014271274
B1937133727647N12151717WA0041500402004003010289272
B1937143727648N12151718WA0041400401004003011322282
B1937153727649N12151719WA0041200400004003011344300
B1937163727653N12151720WA0041000398004003017347311
B1937173727656N12151721WA0040900399004003020332322
B1937183727658N12151724WA0040900399005003018300314
B1937193727657N12151728WA0040900398004003020259291
B1937203727656N12151732WA0040900398004003020244265
B1937213727654N12151737WA0040900398004003026253255
B1937223727654N12151741WA0040900399004003026274260
B1937233727656N12151746WA0041000400004003023290275
B1937243727657N12151749WA0041200402004003023303286
B1937253727659N12151752WA0041300402004003019321296
B1937263727661N12151753WA0041500402004003016331306
B1937273727663N12151755WA0041500402004003016314312
B1937283727664N12151757WA0041400401004003017254300
B1937293727661N12151760WA0041300399004003025222264
B1937303727657N12151762WA0041200398004003025193238
B1937313727652N12151763WA0041100399004003033157215
B1937323727647N12151758WA0041100399004003038136174
B1937333727642N12151751WA0041100399004003040113148
B1937343727641N12151744WA0041100399004003041102117
B1937353727641N12151736WA0041000398004003040091102
B1937363727642N12151729WA0040900397004003040077087
B1937373727645N12151722WA0040900396005003039058069
B1937383727649N12151718WA0040800396004003033034046
B1937393727653N12151716WA0040800396004003033005016
B1937403727656N12151718WA0040800396004003027339349
B1937413727659N12151720WA0040800397004003023322324
B1937423727661N12151722WA0040900398004003020316310
B1937433727663N12151725WA0041000399004003018315304
B1937443727665N12151727WA0041100399004003020316303
B1937453727667N12151730WA0041100400004003020318304
B1937463727670N12151733WA0041100400004003022317306
B1937473727672N12151736WA0041200400004003023320306
B1937483727675N12151738WA0041200400004003022341308
B1937493727678N12151738WA0041300401004003023000323
B1937503727682N12151737WA0041300401004003022000338
B1937513727685N12151738WA0041300401004003022337338
B1937523727686N12151741WA0041300400004003018287320
B1937533727686N12151745WA0041200400004003026238285
B1937543727683N12151749WA0041200400004003029211250
B1937553727678N12151751WA0041300401004003029180228
B1937563727672N12151749WA0041400402004003033163200
B1937573727668N12151746WA0041400402004003035143180
B1937583727664N12151740WA0041400402004003037128157
B1937593727660N12151734WA0041300401004003040109138
B1938003727659N12151726WA0041200400004003040098112
B1938013727660N12151718WA0041200400004003042081096
B1938023727662N12151711WA0041200400004003039062074
B1938033727666N12151706WA0041200401004003039042050
B1938043727671N12151703WA0041300402004003036027027
B1938053727675N12151701WA0041300402004003033021011
B1938063727678N12151700WA0041300402004003025013003
B1938073727682N12151699WA0041300401004003026000351
B1938083727686N12151700WA0041300401004003026345341
B1938093727690N12151702WA0041200401004003027330328
B1938103727693N12151706WA0041200401004003027315317
B1938113727695N12151710WA0041300402004003027307306
B1938123727697N12151713WA0041400403004003025308299
B1938133727699N12151716WA0041500403004003023318296
B1938143727702N12151718WA0041500403004003019325299
B1938153727704N12151720WA0041500403004003022321302
B1938163727707N12151723WA0041500403004003022305297
B1938173727708N12151727WA0041500404004003022289290
B1938183727708N12151731WA0041600405004003022265280
B1938193727707N12151735WA0041800406004003022258268
B1938203727707N12151739WA0041900408004003022264263
B1938213727707N12151743WA0042000408004003021272278
B1938223727707N12151745WA0042000408004003009289272
B1938233727708N12151746WA0041900408004003009283270
B1938243727708N12151748WA0041800406004003009268271
B1938253727707N12151751WA0041700406004003013250260
B1938263727705N12151755WA0041600405004003023236254
B1938273727703N12151758WA0041500404004003024215241
B1938283727699N12151760WA0041400403004003024196227
B1938293727695N12151760WA0041300402004003026183213
B1938303727690N12151760WA0041200401004003034176201
B1938313727684N12151759WA0041100400004003039168190
B1938323727679N12151757WA0041000399004003039156179
B1938333727673N12151753WA0040900398004003040143168
B1938343727669N12151747WA0040800397004003041130153
B1938353727666N12151740WA0040800396004003041120137
B1938363727664N12151734WA0040700396004003041105123
B1938373727664N12151726WA0040700395004003039088105
B1938383727664N12151720WA0040500394004003036060082
B1938393727668N12151715WA0040300394004003036029045
B1938403727673N12151715WA0040200392004003033358012
B1938413727676N12151718WA0040200392004003029315342
B1938423727676N12151722WA0040300393004003020275306
B1938433727676N12151725WA0040400394004003020251279
B1938443727675N12151727WA0040400394004003017244271
B1938453727674N12151729WA0040500395004003013251260
B1938463727674N12151732WA0040500394004003013263266
B1938473727674N12151735WA0040400394004003018281270
B1938483727676N12151739WA0040400394004003017297292
B1938493727677N12151741WA0040400394004003017307300
B1938503727679N12151743WA0040400394004003014318288
B1938513727681N12151745WA0040400394004003016320282
B1938523727682N12151747WA0040400394004003016309300
B1938533727684N12151750WA0040300392004003018295286
B1938543727685N12151755WA0040300392004003025288270
B1938553727687N12151760WA0040300393004003030286263
B1938563727688N12151765WA0040400394004003030281252
B1938573727688N12151770WA0040700395004003030267280
B1938583727687N12151773WA0040800396004003017238239
B1938593727685N12151775WA0040900396004003018220250
B1939003727683N12151778WA0040800396004003018223248
B1939013727680N12151781WA0040800396004003021231252
B1939023727678N12151784WA0040700396004003022235261
B1939033727676N12151787WA0040600395004003022227224
B1939043727674N12151790WA0040600394004003022207201
B1939053727670N12151791WA0040400392004003023193195
B1939063727665N12151792WA0040300390004003035184198
B1939073727660N12151792WA0040100390004003038172173
B1939083727654N12151790WA0040100390004003038157164
B1939093727648N12151786WA0040100390004003041146153
B1939103727643N12151781WA0040100390004003043141145
B1939113727638N12151776WA0040200391004003044137141
B1939123727634N12151769WA0040400393004003044128140
B1939133727630N12151762WA0040600395004003045116127
B1939143727628N12151754WA0040700395004003042105115
B1939153727627N12151747WA0040700396004003042098102
B1939163727627N12151740WA0040800396004003039086092
B1939173727628N12151733WA0040800396005003036074076
B1939183727631N12151728WA0040700395004003036047059
B1939193727635N12151724WA0040700395004003032012027
B1939203727640N12151725WA0040700395004003032337351
B1939213727643N12151728WA0040900396005003029305322
B1939223727645N12151733WA0041200399004003025282298
B1939233727644N12151736WA0041600404004003016280279
B1939243727645N12151739WA0042100405004003016308287
B1939253727646N12151741WA0042300405004003015325308
B1939263727648N12151743WA0042500406004003015328307
B1939273727651N12151745WA0042700408004003017318289
B1939283727652N12151747WA0042900411004003015301279
B1939293727653N12151749WA0043000412004003015251269
B1939303727652N12151752WA0043100413005003015226245
B1939313727649N12151755WA0043000413004003021214231
B1939323727645N12151758WA0043100414004003028206221
B1939333727640N12151760WA0043100416004003033195211
B1939343727635N12151760WA0043200418004003033178199
B1939353727630N12151759WA0043200417004003033154184
B1939363727625N12151755WA0043000417004003035135161
B1939373727621N12151748WA0042900415004003042122139
B1939383727618N12151739WA0042800415004003051107122
B1939393727618N12151729WA0042800415004003051082103
B1939403727621N12151722WA0043000417005003048057073
B1939413727625N12151717WA0043200420004003042033044
B1939423727629N12151715WA0043500424004003034019018
B1939433727633N12151714WA0043800427004003025024000
B1939443727636N12151712WA0044000429004003025031355
B1939453727639N12151710WA0044100430004003023018002
B1939463727643N12151710WA0044200431004003023352350
B1939473727647N12151712WA0044400433004003026331327
B1939483727650N12151715WA0044700434004003018311313
B1939493727651N12151717WA0045000435004003018281297
B1939503727651N12151719WA0045100435004003013255279
B1939513727650N12151722WA0045100435004003013249260
B1939523727648N12151725WA0045100435004003017236255
B1939533727645N12151729WA0045100436004003026217245
B1939543727641N12151731WA0045100435004003029195228
B1939553727636N12151731WA0045000435004003029179211
B1939563727630N12151730WA0044900435004003034173195
B1939573727625N12151729WA0044900436004003039171186
B1939583727618N12151728WA0045000436004003041172183
B1939593727612N12151727WA0045100437004003040176196
B1940003727607N12151727WA0045100438004003040181212
B1940013727602N12151728WA0045100437004003032189207
B1940023727598N12151730WA0045000437004003032199201
B1940033727594N12151731WA0045000437004003029193192
B1940043727589N12151732WA0044900436004003029163172
B1940053727585N12151729WA0044700435004003039133153
B1940063727581N12151723WA0044300434004003042113121
B1940073727580N12151715WA0044000431004003042096097
B1940083727581N12151706WA0043800428004003042073075
B1940093727583N12151699WA0043500428004003036044049
B1940103727588N12151696WA0043300425004003036028017
B1940113727593N12151693WA0043200425004003034016003
B1940123727597N12151693WA0043400426004003029004353
B1940133727601N12151693WA0043600427004003022355339
B1940143727604N12151694WA0043700429004003022352336
B1940153727606N12151694WA0043900429004003020001340
B1940163727609N12151693WA0043900430004003017026323
B1940173727611N12151691WA0043900430004003018025332
B1940183727614N12151691WA0043900429004003018004324
B1940193727617N12151691WA0043900429004003018347325
B1940203727620N12151693WA0043900430004003022342311
B1940213727624N12151694WA0044000431004003024344322
B1940223727627N12151695WA0044200431004003024345315
B1940233727630N12151696WA0044200431004003022345309
B1940243727632N12151697WA0044200430004003016331302
B1940253727634N12151699WA0044100429004003019313291
B1940263727636N12151703WA0044000428004003020303286
B1940273727638N12151706WA0044000428004003020304291
B1940283727640N12151709WA0044000427004003020307296
B1940293727642N12151712WA0043800426004003021311312
B1940303727644N12151715WA0043700425004003021317298
B1940313727646N12151717WA0043600424004003021322314
B1940323727649N12151719WA0043400422004003021321311
B1940333727651N12151722WA0043300422004003022318287
B1940343727654N12151725WA0043100420004003022320318
B1940353727656N12151727WA0043000419004003022327338
B1940363727659N12151729WA0042900419004003022342341
B1940373727663N12151729WA0042800417004003024001350
B1940383727666N12151727WA0042700416004003027021005
B1940393727670N12151725WA0042600416004003027044015
B1940403727673N12151719WA0042500415004003032058031
B1940413727676N12151713WA0042500415004003034066033
B1940423727677N12151708WA0042500415004003034066051
B1940433727679N12151702WA0042500415004003032067050
B1940443727681N12151696WA0042400413004003032073070
B1940453727682N12151689WA0042300412004003038084101
B1940463727681N12151682WA0042300412004003038096112
B1940473727680N12151676WA0042300412004003037103112
B1940483727679N12151671WA0042200411004003032105111
B1940493727677N12151665WA0042100410004003029107126
B1940503727676N12151660WA0041900408004003032114128
B1940513727673N12151654WA0041700405004003032120143
B1940523727670N12151647WA0041600406005003037122152
B1940533727666N12151641WA0041600406004003039130166
B1940543727662N12151637WA0041700407004003039144173
B1940553727657N12151634WA0041600406004003035162181
B1940563727653N12151633WA0041600406004003033167194
B1940573727648N12151632WA0041600405004003034172201
B1940583727643N12151632WA0041500405004003034180205
B1940593727638N12151633WA0041500404004003032200210
B1941003727636N12151636WA0041500404004003028229228
B1941013727634N12151640WA0041600405004003017250254
B1941023727634N12151642WA0041700406004003017245265
B1941033727633N12151644WA0041800407004003013228271
B1941043727631N12151646WA0041800407004003013229271
B1941053727631N12151648WA0041800406004003014244273
B1941063727630N12151651WA0041700405004003016267274
B1941073727631N12151654WA0041600404004003016284286
B1941083727632N12151657WA0041500403004003018291294
B1941093727633N12151660WA0041400402004003016288295
B1941103727633N12151663WA0041300401004003017280296
B1941113727633N12151667WA0041200400004003017274290
B1941123727633N12151671WA0041100398004003020265287
B1941133727633N12151675WA0041000398004003024259289
B1941143727632N12151680WA0040900398004003024261290
B1941153727632N12151684WA0040800397004003024269278
B1941163727633N12151688WA0040700397004003022283290
B1941173727634N12151691WA0040600395004003017299297
B1941183727635N12151693WA0040500393004003018302305
B1941193727637N12151697WA0040300391004003018300312
B1941203727638N12151701WA0040100389004003021299320
B1941213727640N12151704WA0039900388004003023303320
B1941223727642N12151707WA0039800386004003023315317
B1941233727645N12151709WA0039700385004003021327315
B1941243727647N12151711WA0039500384004003020333318
B1941253727650N12151713WA0039400382004003019330314
B1941263727652N12151715WA0039200380004003017316299
B1941273727653N12151717WA0039000380004003017285279
B1941283727653N12151721WA0038800377004003017254261
B1941293727650N12151725WA0038600375004003021227249
B1941303727646N12151728WA0038500374004003027208236
B1941313727642N12151730WA0038300373004003029198220
B1941323727638N12151731WA0038300372004003029193230
B1941333727634N12151732WA0038100370005003027190231
B1941343727630N12151733WA0038000368004003027189239
B1941353727626N12151734WA0037700365004003028190234
B1941363727621N12151735WA0037400362004003031194231
B1941373727617N12151737WA0037200360004003032197229
B1941383727612N12151739WA0036900357004003032197226
B1941393727607N12151741WA0036700355004003032195232
B1941403727603N12151742WA0036500353004003032193227
B1941413727598N12151743WA0036300350004003033191215
B1941423727593N12151744WA0036100348004003035186209
B1941433727587N12151744WA0035900346004003035178201
B1941443727582N12151743WA0035800345004003036172204
B1941453727576N12151742WA0035600344004003037170204
B1941463727571N12151741WA0035500343004003035172213
B1941473727566N12151740WA0035400341004003035171213
B1941483727561N12151739WA0035200339004003035167204
B1941493727556N12151737WA0035000337004003035163197
B1941503727551N12151735WA0034900336004003036158176
B1941513727546N12151732WA0034900336004003035154165
B1941523727541N12151729WA0034800335004003035150195
B1941533727538N12151727WA0034700334004003032153206
B1941543727533N12151725WA0034500332004003030165203
B1941553727529N12151725WA0034400330004003028178209
B1941563727525N12151725WA0034200329004003028183218
B1941573727521N12151725WA0034000327004003028187223
B1941583727517N12151727WA0033800324004003028193232
B1941593727513N12151728WA0033500322004003028203232
B1942003727509N12151731WA0033300320004003028215247
B1942013727507N12151735WA0033200318004003023227254
B1942023727505N12151738WA0033000316004003023242259
B1942033727503N12151741WA0032800316004003021257266
B1942043727503N12151745WA0032600313004003021267275
B1942053727504N12151749WA0032400312004003020282282
B1942063727505N12151752WA0032300310004003017298290
B1942073727507N12151754WA0032100309004003017315300
B1942083727509N12151755WA0032000308004003017335308
B1942093727512N12151756WA0031900306004003018348319
B1942103727517N12151757WA0031700305004003023352331
B1942113727521N12151758WA0031700304004003031351336
B1942123727525N12151759WA0031700304004003031343345
B1942133727529N12151761WA0031700305004003029333339
B1942143727532N12151763WA0031700305004003026335344
B1942153727535N12151765WA0031700304004003022346335
B1942163727538N12151765WA0031700304004003024354341
B1942173727542N12151766WA0031600303004003024353345
B1942183727546N12151766WA0031500302004003026350333
B1942193727551N12151768WA0031500302004003031347340
B1942203727556N12151769WA0031500302004003031345335
B1942213727560N12151771WA0031400302004003031343322
B1942223727564N12151772WA0031400301004003030339324
B1942233727567N12151774WA0031400301004003024333345
B1942243727570N12151776WA0031300301004003024330327
B1942253727573N12151778WA0031300300004003021333319
B1942263727576N12151780WA0031200299004003021333315
B1942273727579N12151782WA0031100298004003022324313
B1942283727581N12151785WA0031100298004003022309316
B1942293727583N12151788WA0031000297004003021297314
B1942303727584N12151792WA0030900297004003020300318
B1942313727586N12151795WA0030900297004003019310331
B1942323727588N12151797WA0030900296004003019316326
B1942333727590N12151799WA0030800295004003018317321
B1942343727592N12151802WA0030700295004003018312324
B1942353727593N12151804WA0030700294004003017309322
B1942363727595N12151807WA0030700294004003017316315
B1942373727597N12151809WA0030600293004003017330319
B1942383727600N12151810WA0030600293004003017335313
B1942393727602N12151811WA0030400291004003016327309
B1942403727603N12151814WA0030200289004003016308307
B1942413727604N12151816WA0030000287004003016278300
B1942423727604N12151820WA0029900285004003016267288
B1942433727604N12151824WA0029800285004003020278287
B1942443727605N12151827WA0029800285004003020289307
B1942453727606N12151830WA0029900286004003019290290
B1942463727607N12151833WA0029900286004003018281303
B1942473727607N12151837WA0029900285004003018266304
B1942483727606N12151840WA0029800285004003019259304
B1942493727606N12151844WA0029800284004003018271309
B1942503727607N12151847WA0029800284004003017289300
B1942513727608N12151849WA0029700283004003013304299
B1942523727609N12151851WA0029600282004003013303301
B1942533727610N12151853WA0029500282004003013288303
B1942543727610N12151856WA0029400280004003015284296
B1942553727611N12151859WA0029300280004003020285304
B1942563727612N12151863WA0029200279004003022285316
B1942573727613N12151867WA0029100278004003020284301
B1942583727613N12151871WA0029000277004003020287299
B1942593727614N12151874WA0028900276004003018289301
B1943003727615N12151877WA0028800274004003018294295
B1943013727617N12151880WA0028700273004003018304300
B1943023727618N12151882WA0028600272004003018311298
B1943033727620N12151885WA0028500272004003017314302
B1943043727622N12151887WA0028400271004003017312316
B1943053727623N12151889WA0028200269004003017300309
B1943063727624N12151892WA0028000269004003015290288
B1943073727625N12151895WA0027800266004003017281301
B1943083727625N12151898WA0027600264004003021279295
B1943093727626N12151902WA0027500263004003021284308
B1943103727627N12151906WA0027400262004003021297314
B1943113727629N12151908WA0027300261004003018307309
B1943123727630N12151911WA0027200260004003018309298
B1943133727631N12151913WA0027100259004003016297292
B1943143727632N12151916WA0027000257004003015282273
B1943153727632N12151919WA0026800256004003016265263
B1943163727631N12151922WA0026700254004003019245248
B1943173727629N12151925WA0026600253004003019222229
B1943183727626N12151928WA0026400252004003022202212
B1943193727621N12151929WA0026200250004003035186191
B1943203727615N12151928WA0026100248004003040170176
B1943213727609N12151925WA0026000247004003040155162
B1943223727604N12151920WA0026000247004003044143154
B1943233727599N12151915WA0026000247004003039136146
B1943243727595N12151910WA0026000246004003039132163
B1943253727592N12151906WA0025800245004003035134154
B1943263727588N12151901WA0025500242004003035135150
B1943273727584N12151896WA0025300239004003041134156
B1943283727580N12151890WA0025000236004003044128155
B1943293727576N12151883WA0024700234004003044125157
B1943303727572N12151877WA0024700233004003044128158
B1943313727568N12151871WA0024600232004003042132154
B1943323727564N12151866WA0024500232004003035136161
B1943333727560N12151862WA0024200230004003035139160
B1943343727556N12151858WA0023900227004003035145162
B1943353727551N12151854WA0023700224004003038149169
B1943363727545N12151851WA0023600225004003039161173
B1943373727540N12151850WA0023700226004003034179187
B1943383727536N12151851WA0023900227004003034191207
B1943393727533N12151852WA0023900228004003026218217
B1943403727532N12151854WA0023900227004003016230240
B1943413727531N12151856WA0023900227004003012243259
B1943423727531N12151859WA0023900226004003014260273
B1943433727530N12151862WA0023900226004003014279284
B1943443727531N12151864WA0023800224004003014295294
B1943453727532N12151866WA0023800224004003014309296
B1943463727534N12151868WA0023800224004003015316310
B1943473727536N12151870WA0023800223004003017321315
B1943483727538N12151872WA0023700223004003018322299
B1943493727540N12151875WA0023600222004003018313294
B1943503727542N12151878WA0023500221004003019297289
B1943513727543N12151882WA0023500221004003022289283
B1943523727545N12151887WA0023500221004003025288283
B1943533727546N12151891WA0023500221004003025290313
B1943543727547N12151895WA0023600221004003023300292
B1943553727549N12151898WA0023800223004003022311299
B1943563727551N12151901WA0023900225004003021319286
B1943573727553N12151903WA0024000226004003018318292
B1943583727555N12151905WA0024200227004003018315278
B1943593727557N12151908WA0024300229004003017302266
B1944003727557N12151909WA0024400229004003013256262
B1944013727555N12151911WA0024500229004003013221255
B1944023727553N12151914WA0024500229004003019220262
B1944033727551N12151916WA0024500229004003019225277
B1944043727550N12151918WA0024500230004003019226273
B1944053727549N12151920WA0024500229004003013241273
B1944063727549N12151921WA0024400229004003008300279
B1944073727550N12151922WA0024300227004003014326308
B1944083727553N12151923WA0024100225004003020344323
B1944093727556N12151923WA0024000225004003020004334
B1944103727560N12151922WA0024000225004003023012327
B1944113727563N12151922WA0024000225004003023009329
B1944123727566N12151922WA0024000224004003015345314
B1944133727567N12151923WA0023900224004003015295297
B1944143727567N12151927WA0023700223004003015262276
B1944153727565N12151930WA0023700222004003016217254
B1944163727561N12151930WA0023700222004003021177233
B1944173727557N12151929WA0023600222004003038148201
B1944183727552N12151924WA0023500221004003041133161
B1944193727548N12151917WA0023500221004003040124157
B1944203727545N12151911WA0023400221004003040123150
B1944213727542N12151905WA0023400220004003039131151
B1944223727538N12151901WA0023300219004003036140156
B1944233727534N12151897WA0023100218004003036145164
B1944243727529N12151894WA0023000216004003034149166
B1944253727525N12151891WA0022900215004003033153174
B1944263727521N12151889WA0022800214004003031160179
B1944273727517N12151887WA0022700213004003026164187
B1944283727514N12151886WA0022600212004003026165196
B1944293727511N12151885WA0022600211004003024168197
B1944303727508N12151885WA0022500210004003021177204
B1944313727505N12151886WA0022400209004003016202216
B1944323727504N12151888WA0022300209004003016238242
B1944333727504N12151890WA0022300209004003015266263
B1944343727504N12151892WA0022400209004003013295282
B1944353727505N12151894WA0022300209004003014306290
B1944363727507N12151896WA0022300209004003015304282
B1944373727508N12151898WA0022200208004003014299290
B1944383727508N12151901WA0022200207004003013285276
B1944393727509N12151903WA0022100207004003011274290
B1944403727509N12151905WA0022000206004003016270273
B1944413727509N12151909WA0021900206004003016268281
B1944423727508N12151912WA0022000206004003017266255
B1944433727508N12151915WA0022100207004003014272266
B1944443727509N12151917WA0022100207004003014278276
B1944453727509N12151920WA0022100207004003013283280
B1944463727509N12151922WA0022000206004003012296275
B1944473727510N12151924WA0021800204004003013290289
B1944483727511N12151927WA0021600201004003017274294
B1944493727511N12151930WA0021400199004003017262289
B1944503727510N12151934WA0021300199004003017258284
B1944513727510N12151936WA0021300200004003013262275
B1944523727510N12151939WA0021200198004003013267272
B1944533727509N12151941WA0021100197005003011259266
B1944543727509N12151943WA0021000195004003011244259
B1944553727508N12151945WA0020700192004003016237258
B1944563727506N12151948WA0020500190004003019239261
B1944573727505N12151951WA0020200190004003019241261
B1944583727503N12151954WA0020000189004003019240262
B1944593727502N12151957WA0019900188004003016233260
B1945003727500N12151959WA0019900187004003017229254
B1945013727499N12151962WA0019800185004003017233246
B1945023727497N12151964WA0019600182004003017237244
B1945033727496N12151966WA0019400181004003011232236
B1945043727495N12151968WA0019300181004003011210228
B1945053727494N12151968WA0019400181004003008196241
B1945063727493N12151969WA0019400180004003008204229
B1945073727492N12151969WA0019400180004003009210242
B1945083727491N12151970WA0019400179004003009207240
B1945093727490N12151970WA0019400180004003007226240
B1945103727489N12151972WA0019400179004003007226250
B1945113727489N12151972WA0019400179004003007219251
B1945123727488N12151973WA0019400179004003007223251
B1945133727487N12151975WA0019300178004003007231250
B1945143727486N12151976WA0019300178004003009227254
B1945153727486N12151977WA0019300178004003009225246
B1945163727485N12151978WA0019300178004003009231244
B1945173727484N12151980WA0019300177004003008233243
B1945183727483N12151981WA0019300177004003008234245
B1945193727483N12151983WA0019300177004003009231248
B1945203727482N12151984WA0019300177004003009235251
B1945213727482N12151985WA0019400177004003007243252
B1945223727481N12151986WA0019400176004003006256273
B1945233727481N12151987WA0019400176004003003256236
B1945243727480N12151987WA0019400176004003004222250
B1945253727480N12151987WA0019400176004003004237249
B1945263727479N12151988WA0019400177004003004241255
B1945273727479N12151989WA0019400177004003005246252
B1945283727479N12151990WA0019400177004003005252254
B1945293727479N12151991WA0019400177004003005246251
B1945303727478N12151992WA0019300177004003006251250
B1945313727478N12151994WA0019300177004003007249244
B1945323727478N12151995WA0019300177004003007237240
B1945333727477N12151996WA0019300177004003007225244
B1945343727476N12151997WA0019300176004003008223240
B1945353727475N12151998WA0019400176004003008228235
B1945363727475N12151998WA0019400177004003002228233
B1945373727475N12151998WA0019400177004003003228240
B1945383727475N12151999WA0019400177004003002228239
B1945393727475N12151999WA0019400177004003001228236
B1945403727474N12151999WA0019400177004003001228239
B1945413727474N12151999WA0019400177004003001228242
B1945423727474N12151999WA0019400177004003002228244
B1945433727473N12151999WA0019400177004003001228245
B1945443727473N12151999WA0019400177004003000228265
B1945453727473N12151999WA0019400177004003001228247
B1945463727473N12151999WA0019400177004003000228249
B1945473727473N12151999WA0019400177004003000228250
B1945483727473N12151999WA0019400177004003000228251
B1945493727473N12151999WA0019400178004003000228252
B1945503727473N12151999WA0019400178004003000228252
B1945513727473N12151999WA0019400178004003000228253
B1945523727473N12151999WA0019400178004003000228253
B1945533727473N12151999WA0019400178004003000228254
B1945543727473N12151999WA0017800178004003000228254
B1945553727473N12151999WA0017800178004003000228254
B1945563727473N12151999WA0017800178004003000228254
B1945573727473N12151999WA0017800178004003000228254
B1945583727473N12151999WA0017800178004003000228254
B1945593727473N12151999WA0017800178004003000228255
B1946003727473N12151999WA0017700177004003000228255
B1946013727473N12151999WA0017700177004003001228255
E194601PEVVario Device disconnected
B1946023727473N12151999WA0021000177004003000228255
B1946033727473N12151999WA0021000178004003000228255
B1946043727473N12151999WA0021000178004003000228255
G1YuGf1eN5NnryjbdjkyLlwG+Krs5AXHXvTsXNjm7ySyYho+/rjqisx2ssd/gxZ8V
G40BryV3YASrVedtlvp8zAgDMa9mJOAxDC7jrb+eIa5J2ul9pEja6teBp///eGhXE
Gr8V8ve9tCmSld0aUDxGdFTxWYxX8d51T6uIB6KzO1HE=
