AXFH000
HFDTE180926
HFPLTPILOT:KaranS
HFGTYGLIDERTYPE:Niviuk Hiko P
HFDTM100GPSDATUM:WGS84
HFRFWFIRMWAREVERSION:9.7.2
HFRHWHARDWAREVERSION:iPhone 17 Pro
HFFTYFRTYPE:Flyskyhy,9.7.2
HFGPS:Internal
HFPRSVARIO:Internal Vario
HFCCLCOMPETITIONCLASS:Paraglider,EN-B
HFTZNTIMEZONE:-7
I053638FXA3941VXA4244GSP4547CCO4850HDT
C180926214754180926000106TASK
C0000000N00000000ETAKEOFF
C3646164N11906086W00000000000400000000360000STARTAREA DNLNCH
C3646886N11907285W00000000000400000000360000TURNAREA 49917
C3644816N11904600W00000000000400000000360000TURNAREA SONTAG
C3647347N11907139W00000000001000000000360000TURNAREA DELILA
C3644411N11907767W00000000001200000000360000TURNAREA TURKEY
C3646164N11906086W00000000000400000000360000TURNAREA DNLNCH
C3642989N11908259W00000000001200000000360000TURNAREA AIRSTR
C3644153N11906287W00000000000400000000360000FINISHAREA DNLPLZ
C0000000N00000000ELANDING
E214823PEVBackground
B2148233833323N12211334WA0013900139001003000243210
B2148243833323N12211334WA0013900139001003000243211
B2148253833323N12211334WA0013900139001003000243211
B2148263833323N12211334WA0013900139002003000243156
B2148273833323N12211335WA0013900139002003001265200
B2148283833323N12211335WA0013900139002003000249168
B2148293833323N12211335WA0013900139002003001249192
B2148303833323N12211335WA0013900139002003000249179
B2148313833323N12211335WA0013900139002003000249193
B2148323833322N12211335WA0013900139002003000249193
B2148333833322N12211335WA0013900139002003000249194
B2148343833322N12211335WA0013900139002003000249192
B2148353833322N12211335WA0013900139002003000249192
B2148363833322N12211335WA0013900139002003000249194
B2148373833322N12211335WA0013900139002003000249199
B2148383833322N12211335WA0013900139002003000249204
B2148393833322N12211335WA0013900139002003000249198
B2148403833322N12211335WA0013900139002003000249217
B2148413833322N12211335WA0013900139002003000249215
B2148423833322N12211334WA0013900139002003000249213
B2148433833322N12211334WA0013900139002003000249217
B2148443833322N12211334WA0013900139002003000249218
B2148453833322N12211334WA0013900139002003000249227
B2148463833322N12211334WA0013900139002003000249225
B2148473833322N12211334WA0013900139001003000249227
B2148483833322N12211334WA0013900139001003000249223
B2148493833322N12211335WA0013900139001003000267171
B2148503833322N12211337WA0013900138001003005269104
B2148513833322N12211339WA0013900138002003010276113
B2148523833322N12211343WA0013800138002003018282099
B2148533833323N12211349WA0013800138002003030266241
B2148543833322N12211357WA0013700144002003030262301
B2148553833322N12211365WA0013800147002003031266306
B2148563833321N12211371WA0014000147002003031267318
B2148573833321N12211376WA0014300148002003031266333
B2148583833321N12211383WA0014600148004003034263337
B2148593833320N12211390WA0014600153004003034260342
B2149003833320N12211397WA0015000159005003035262344
B2149013833319N12211404WA0015500160005003035263347
B2149023833319N12211411WA0016000166005003032264349
B2149033833318N12211418WA0016400168005003035266351
B2149043833318N12211425WA0016700169005003035271353
B2149053833319N12211432WA0017100173004003036277354
B2149063833320N12211438WA0017500174004003036279355
B2149073833321N12211444WA0017900177004003034279355
B2149083833321N12211451WA0018200178005003035280356
B2149093833323N12211457WA0018600180005003035282357
B2149103833324N12211464WA0018900185005003035280357
B2149113833324N12211471WA0019200189004003035265357
B2149123833322N12211477WA0019500194004003034249357
B2149133833320N12211483WA0019800199004003036246358
B2149143833318N12211490WA0020000203004003036248358
B2149153833316N12211496WA0020200207005003036244358
B2149163833313N12211502WA0020200210004003035239358
B2149173833310N12211508WA0020500212004003038242359
B2149183833308N12211515WA0020700215004003038243359
B2149193833305N12211520WA0021000219004003037229359
B2149203833300N12211523WA0021200222004003034208359
B2149213833295N12211525WA0021500225004003034197359
B2149223833289N12211527WA0021800227005003040193359
B2149233833284N12211529WA0022000228004003043193359
B2149243833277N12211531WA0022300232004003043196359
B2149253833271N12211534WA0022600236004003043199359
B2149263833265N12211537WA0022800239004003043198359
B2149273833259N12211540WA0023100240004003044197359
B2149283833253N12211542WA0023400242004003045201359
B2149293833247N12211546WA0023700246004003045206359
B2149303833241N12211549WA0024000250005003045204359
B2149313833235N12211552WA0024400254004003042201359
B2149323833230N12211555WA0024700257004003042202359
B2149333833224N12211558WA0024700260004003040202359
B2149343833219N12211560WA0025000262004003040193359
B2149353833212N12211561WA0025300265004003042186359
B2149363833206N12211561WA0025600268004003044181359
B2149373833199N12211561WA0025600271004003044177359
B2149383833192N12211561WA0025900272004003045176359
B2149393833185N12211560WA0026300273004003046177359
B2149403833179N12211560WA0026600277004003046176359
B2149413833172N12211559WA0026600281004003045172359
B2149423833165N12211558WA0026900284004003045173359
B2149433833158N12211557WA0027200287004003046177359
B2149443833151N12211558WA0027600290004003046180359
B2149453833145N12211558WA0027600293004003044184359
B2149463833138N12211559WA0027900296004003043184359
B2149473833132N12211560WA0028300298004003045185359
B2149483833125N12211561WA0028700301004003046187359
B2149493833118N12211562WA0028700304004003045189359
B2149503833112N12211564WA0029000307004003045188359
B2149513833105N12211565WA0029300310004003045188359
B2149523833098N12211566WA0029700313004003046190359
B2149533833092N12211569WA0029700315004003046194359
B2149543833085N12211571WA0030000319004003046193359
B2149553833079N12211572WA0030300323004003041188359
B2149563833073N12211573WA0030700325004003041187359
B2149573833067N12211574WA0030700327004003041189359
B2149583833060N12211576WA0031000328004003043191359
B2149593833053N12211578WA0031400331004003046190359
B2150003833047N12211579WA0031700334004003046189359
B2150013833040N12211580WA0031700336005003045190359
B2150023833033N12211582WA0032000339004003045191359
B2150033833027N12211584WA0032400341005003046191359
B2150043833020N12211585WA0032700345005003046186359
B2150053833013N12211586WA0032700347004003045183359
B2150063833006N12211586WA0032900349004003045184359
B2150073832999N12211587WA0033300352004003046185359
B2150083832992N12211588WA0033600354004003048183359
B2150093832985N12211588WA0033600357004003048181359
B2150103832978N12211589WA0033900360004003048182359
B2150113832971N12211589WA0034200362004003048184359
B2150123832964N12211590WA0034500365004003047183359
B2150133832957N12211590WA0034500367004003047181359
B2150143832950N12211590WA0034900370004003047180359
B2150153832943N12211590WA0035200372004003047180359
B2150163832935N12211591WA0035500374004003048182359
B2150173832928N12211591WA0035500376004003049183359
B2150183832921N12211592WA0035800379004003049183359
B2150193832913N12211593WA0036100381004003049183359
B2150203832906N12211594WA0036400384004003049186359
B2150213832899N12211595WA0036400386004003048188359
B2150223832892N12211597WA0036700388004003048188359
B2150233832885N12211598WA0037000391004003047189359
B2150243832878N12211600WA0037300393004003047192359
B2150253832871N12211602WA0037300395004003047195359
B2150263832865N12211605WA0037600397004003047196359
B2150273832858N12211608WA0037900400004003046198359
B2150283832852N12211611WA0038200402004003044203359
B2150293832846N12211614WA0038200404004003044203359
B2150303832840N12211617WA0038500406004003043197359
B2150313832834N12211618WA0038800408004003043187359
B2150323832826N12211619WA0039100409004003046182359
B2150333832819N12211619WA0039100411004003049181359
B2150343832811N12211619WA0039300413004003051182359
B2150353832804N12211620WA0039600415004003051185359
B2150363832796N12211621WA0039800417004003051185359
B2150373832789N12211622WA0039800420004003051185359
B2150383832781N12211623WA0040000422004003049186359
B2150393832774N12211624WA0040300424004003049186359
B2150403832767N12211625WA0040500425004003049185359
B2150413832759N12211626WA0040500427004003049187359
B2150423832752N12211628WA0040800429004003050189359
B2150433832745N12211629WA0041000431004003049186359
B2150443832737N12211629WA0041300433005003049179359
B2150453832730N12211628WA0041300434004003049177359
B2150463832723N12211628WA0041500435004003049179359
B2150473832715N12211629WA0041800436004003051180359
B2150483832707N12211629WA0042000437004003053182359
B2150493832699N12211630WA0042000439004003053184359
B2150503832691N12211631WA0042100440004003052186359
B2150513832683N12211632WA0042300442004003052186359
B2150523832676N12211633WA0042500443004003052187359
B2150533832668N12211634WA0042500444004003051189359
B2150543832661N12211636WA0042600446004003051191359
B2150553832653N12211638WA0042800447004003051190359
B2150563832646N12211640WA0043000449004003051187359
B2150573832638N12211641WA0043000450004003050185359
B2150583832631N12211641WA0043200451004003051184359
B2150593832623N12211642WA0043400452004003052183359
B2151003832615N12211642WA0043500453004003052181359
B2151013832607N12211642WA0043500454004003052179359
B2151023832600N12211642WA0043700455004003052179359
B2151033832592N12211642WA0043800456004003053180359
B2151043832583N12211642WA0044000457004003053182359
B2151053832575N12211643WA0044000459004003053182359
B2151063832568N12211643WA0044100460004003053180359
B2151073832560N12211643WA0044300461004003053180359
B2151083832551N12211643WA0044400462004003054182359
B2151093832543N12211644WA0044400463004003054183359
B2151103832536N12211645WA0044500465004003054183359
B2151113832528N12211645WA0044700466004003053185359
B2151123832520N12211647WA0044800467004003052187359
B2151133832512N12211648WA0044800468004003053187359
B2151143832505N12211649WA0045000469004003053187359
B2151153832497N12211651WA0045100471004003053188359
B2151163832489N12211652WA0045100472004003052188359
B2151173832481N12211654WA0045300473004003052188359
B2151183832474N12211655WA0045400475004003052188359
B2151193832466N12211657WA0045600476004003052189359
B2151203832458N12211658WA0045600478004003051190359
B2151213832451N12211660WA0045800479004003051190359
B2151223832443N12211662WA0045900481004003051191359
B2151233832436N12211664WA0046100483004003052191359
B2151243832428N12211666WA0046100484004003052191359
B2151253832420N12211669WA0046300486004003052194359
B2151263832413N12211672WA0046500488004003052196359
B2151273832406N12211674WA0046700489004003051197359
B2151283832398N12211677WA0046700491004003051197359
B2151293832391N12211680WA0046900493004003051198359
B2151303832384N12211684WA0047100494004003051199359
B2151313832377N12211687WA0047300496004003051201359
B2151323832370N12211691WA0047300497004003051203359
B2151333832363N12211695WA0047600499004003051203359
B2151343832356N12211699WA0047800500004003051204359
B2151353832349N12211703WA0048000502004003050205359
B2151363832342N12211707WA0048000503004003050205359
B2151373832335N12211711WA0048200504004003051206359
B2151383832329N12211716WA0048400505004003051207359
B2151393832322N12211720WA0048500507004003051208359
B2151403832315N12211725WA0048500508004003050209359
B2151413832309N12211730WA0048700510004003050210359
B2151423832303N12211735WA0048900511004003050211359
B2151433832297N12211740WA0049100512004003050213359
B2151443832290N12211746WA0049100513004003050216359
B2151453832285N12211752WA0049200514005003049217359
B2151463832279N12211757WA0049400516005003049218359
B2151473832273N12211763WA0049600517005003049218359
B2151483832268N12211769WA0049600519004003048221359
B2151493832263N12211775WA0049700520004003047223359
B2151503832258N12211781WA0049900521004003047223359
B2151513832253N12211788WA0050100523004003047225359
B2151523832248N12211794WA0050100524004003047227359
B2151533832244N12211801WA0050200525005003045231359
B2151543832240N12211808WA0050400526006003045234359
B2151553832236N12211815WA0050600528006003045236359
B2151563832233N12211822WA0050600530005003045239359
B2151573832230N12211829WA0050800531005003043241359
B2151583832227N12211837WA0050900533005003043242359
B2151593832224N12211844WA0051100535005003043245359
B2152003832222N12211851WA0051100537004003043246359
B2152013832220N12211859WA0051300538004003040247359
B2152023832217N12211866WA0051500540004003040248359
B2152033832215N12211873WA0051700541004003040251359
B2152043832214N12211880WA0051700544004003040252359
B2152053832212N12211887WA0051900546004003038252359
B2152063832210N12211894WA0052100548004003038254359
B2152073832209N12211901WA0052400550004003037255359
B2152083832208N12211908WA0052400551004003037257359
B2152093832207N12211915WA0052600553004003037259359
B2152103832206N12211922WA0052800555005003038261359
B2152113832205N12211929WA0053100557005003037262359
B2152123832205N12211936WA0053300559004003036262359
B2152133832204N12211942WA0053600561004003036264354
B2152143832204N12211949WA0053800563004003036266350
B2152153832204N12211956WA0054000565004003036268348
B2152163832204N12211963WA0054000567004003036270346
B2152173832204N12211969WA0054200569004003035272344
B2152183832204N12211976WA0054400570004003035273343
B2152193832205N12211983WA0054600572004003035276344
B2152203832206N12211989WA0054600574004003035280343
B2152213832207N12211996WA0054800576004003035280342
B2152223832208N12212002WA0055000577004003034280344
B2152233832209N12212008WA0055300579005003033283346
B2152243832210N12212014WA0055300581004003033286348
B2152253832212N12212020WA0055500582004003033288350
B2152263832214N12212026WA0055700584004003033289352
B2152273832216N12212032WA0055900585004003033292352
B2152283832218N12212038WA0055900587004003033295354
B2152293832220N12212043WA0056100589005003033298356
B2152303832222N12212048WA0056300590004003031302357
B2152313832225N12212052WA0056500592004003031307358
B2152323832228N12212057WA0056500593004003031311359
B2152333832231N12212061WA0056700595004003031313354
B2152343832234N12212066WA0056900597005003031309352
B2152353832237N12212070WA0057100599004003029306356
B2152363832239N12212074WA0057100600004003028306358
B2152373832242N12212079WA0057300602004003028307358
B2152383832245N12212083WA0057500603004003030308001
B2152393832248N12212087WA0057700604004003030311001
B2152403832250N12212091WA0057700606004003030312000
B2152413832253N12212096WA0057900607005003030309000
B2152423832256N12212100WA0058200609005003030310006
B2152433832260N12212105WA0058400610005003031315006
B2152443832263N12212109WA0058400612004003032315004
B2152453832266N12212113WA0058500613004003031314007
B2152463832270N12212117WA0058700615005003031315008
B2152473832273N12212121WA0058900617005003030318009
B2152483832276N12212125WA0058900618005003030318010
B2152493832280N12212129WA0059100619005003031320012
B2152503832284N12212132WA0059300621005003031323012
B2152513832287N12212135WA0059500623005003031323009
B2152523832290N12212139WA0059700624005003029320011
B2152533832294N12212142WA0059900625005003028320013
B2152543832297N12212146WA0060100626005003029321012
B2152553832300N12212149WA0060100627005003029319015
B2152563832304N12212153WA0060200629005003029320020
B2152573832307N12212156WA0060400631004003029325019
B2152583832311N12212159WA0060500632004003026327019
B2152593832314N12212161WA0060600633004003026330023
B2153003832318N12212164WA0060800633004003026335025
B2153013832322N12212165WA0060900635004003028342025
B2153023832326N12212167WA0061000636005003029347027
B2153033832330N12212167WA0061200638004003028352026
B2153043832334N12212168WA0061300639004003028355026
B2153053832339N12212168WA0061400640004003028359029
B2153063832344N12212168WA0061500642004003030004024
B2153073832349N12212167WA0061600644004003032008019
B2153083832353N12212166WA0061800645004003032012016
B2153093832358N12212164WA0062000647004003033016014
B2153103832363N12212162WA0062100648004003033018011
B2153113832368N12212160WA0062200650004003034018008
B2153123832373N12212158WA0062200651004003034017007
B2153133832377N12212156WA0062400652004003032015006
B2153143832382N12212155WA0062600653004003032008010
B2153153832387N12212155WA0062700654004003032005011
B2153163832391N12212154WA0062800656004003032009009
B2153173832396N12212152WA0063000657004003033012007
B2153183832401N12212151WA0063100659004003033011006
B2153193832406N12212150WA0063200661004003033011005
B2153203832411N12212149WA0063400662004003032009004
B2153213832416N12212148WA0063500664004003032009003
B2153223832420N12212147WA0063700665004003032010002
B2153233832425N12212146WA0063800667004003032007002
B2153243832430N12212145WA0064000668004003032002001
B2153253832435N12212145WA0064100669005003032358001
B2153263832439N12212146WA0064300671005003032355003
B2153273832444N12212146WA0064400672005003031356003
B2153283832448N12212146WA0064600673005003031002002
B2153293832453N12212146WA0064700674004003033005002
B2153303832458N12212145WA0064700675004003033004001
B2153313832463N12212144WA0064800676004003034005001
B2153323832468N12212144WA0064900678004003034007001
B2153333832473N12212143WA0065000679004003032009001
B2153343832478N12212142WA0065200680004003034011000
B2153353832483N12212140WA0065300681004003034013000
B2153363832488N12212138WA0065400682004003035014000
B2153373832494N12212136WA0065500682004003037015000
B2153383832499N12212134WA0065600684004003036017000
B2153393832504N12212132WA0065800685004003036016000
B2153403832509N12212131WA0065900687004003034014000
B2153413832514N12212129WA0066000688004003034011000
B2153423832519N12212128WA0066100689004003034010000
B2153433832524N12212127WA0066300690004003034010000
B2153443832529N12212126WA0066400691004003034010000
B2153453832535N12212124WA0066600692004003036014000
B2153463832540N12212122WA0066700694004003038017000
B2153473832545N12212120WA0066700696004003038017000
B2153483832550N12212118WA0066800697004003036016000
B2153493832555N12212116WA0066900699004003035013000
B2153503832560N12212115WA0067100699004003035007000
B2153513832566N12212114WA0067200701004003035006000
B2153523832571N12212113WA0067200702004003035009000
B2153533832575N12212112WA0067400704004003034011000
B2153543832580N12212111WA0067500705004003032014000
B2153553832585N12212109WA0067700706004003032018000
B2153563832589N12212106WA0067700707004003032020000
B2153573832594N12212105WA0067900709004003033014000
B2153583832599N12212104WA0068100710004003032009000
B2153593832604N12212103WA0068200711004003032004000
B2154003832609N12212103WA0068200712004003032003000
B2154013832614N12212102WA0068400713004003034002000
B2154023832619N12212102WA0068500714004003034002000
B2154033832624N12212102WA0068600715004003034002000
B2154043832629N12212101WA0068600717004003034002000
B2154053832634N12212101WA0068800718004003033000000
B2154063832639N12212101WA0068900719004003033359000
B2154073832644N12212102WA0069100720005003033359000
B2154083832650N12212102WA0069100721005003034358000
B2154093832655N12212102WA0069200722004003034359000
B2154103832660N12212102WA0069400723004003034003000
B2154113832665N12212101WA0069500724004003035008000
B2154123832671N12212100WA0069500725004003036008000
B2154133832676N12212099WA0069700727004003034005000
B2154143832681N12212099WA0069800728004003034003000
B2154153832686N12212098WA0069900729004003034003000
B2154163832691N12212098WA0069900729004003034005000
B2154173832697N12212097WA0070100731004003036007000
B2154183832702N12212096WA0070200733004003036008000
B2154193832707N12212095WA0070400734004003036008000
B2154203832713N12212093WA0070400735004003035011000
B2154213832718N12212092WA0070500737004003035013000
B2154223832723N12212090WA0070700738004003036013000
B2154233832729N12212089WA0070800740004003037011000
B2154243832734N12212087WA0070800741004003037012000
B2154253832740N12212085WA0071000743004003037014000
B2154263832745N12212083WA0071200743004003037016000
B2154273832750N12212081WA0071400744004003038016000
B2154283832756N12212079WA0071400745005003038017000
B2154293832761N12212077WA0071500746004003040021000
B2154303832767N12212073WA0071700747004003040025000
B2154313832772N12212070WA0071900749004003041026000
B2154323832778N12212066WA0071900750004003041026000
B2154333832783N12212062WA0072100751004003041030000
B2154343832788N12212058WA0072200752004003042035000
B2154353832793N12212053WA0072400752004003042034000
B2154363832799N12212049WA0072400754004003042031000
B2154373832804N12212045WA0072500756004003039029000
B2154383832809N12212042WA0072700757004003038027000
B2154393832814N12212038WA0072800757004003040026000
B2154403832820N12212034WA0072800758004003040030000
B2154413832825N12212030WA0073000760004003044033000
B2154423832830N12212025WA0073100762004003044034000
B2154433832835N12212021WA0073200764004003037034000
B2154443832840N12212017WA0073200765004003037030000
B2154453832845N12212014WA0073400766004003037024000
B2154463832850N12212011WA0073600767004003038022000
B2154473832856N12212009WA0073700768004003039021000
B2154483832861N12212006WA0073700769004003041023000
B2154493832867N12212002WA0073900770004003042025000
B2154503832873N12211998WA0074000772004003042028000
B2154513832878N12211994WA0074200773004003042030000
B2154523832883N12211991WA0074200775004003042028000
B2154533832889N12211988WA0074300776004003038021000
B2154543832894N12211986WA0074500777004003038016000
B2154553832899N12211984WA0074600778004003038011000
B2154563832905N12211983WA0074600780004003037008000
B2154573832910N12211982WA0074800781004003037006000
B2154583832916N12211982WA0074900782004003037004000
B2154593832921N12211981WA0075100783004003037002000
B2155003832927N12211981WA0075100784004003037001000
B2155013832932N12211981WA0075300785004003036002000
B2155023832938N12211980WA0075400786004003036005000
B2155033832943N12211979WA0075600787004003039009000
B2155043832949N12211978WA0075600788004003039011000
B2155053832955N12211976WA0075700790004003039015000
B2155063832960N12211974WA0075800790004003038017000
B2155073832966N12211971WA0076000791004003038017000
B2155083832972N12211969WA0076000792004003043017000
B2155093832978N12211966WA0076100793004003043017000
B2155103832984N12211964WA0076200795004003042018000
B2155113832990N12211961WA0076300796004003041020000
B2155123832995N12211959WA0076300797004003041019000
B2155133833001N12211957WA0076500799004003041014000
B2155143833007N12211955WA0076600800004003041012000
B2155153833013N12211954WA0076700802004003039011000
B2155163833018N12211952WA0076700802004003038010000
B2155173833024N12211951WA0076900803004003038011000
B2155183833030N12211949WA0077100804004003039012000
B2155193833036N12211948WA0077200806004003040011000
B2155203833041N12211946WA0077200808004003039011000
B2155213833046N12211945WA0077400809004003038008000
B2155223833052N12211944WA0077500809004003035005000
B2155233833057N12211944WA0077700810004003037009000
B2155243833063N12211942WA0077700810004003039012000
B2155253833069N12211940WA0077800811004003039012000
B2155263833075N12211938WA0078000812004003040014000
B2155273833080N12211936WA0078100813004003040017000
B2155283833086N12211934WA0078100814004003038015000
B2155293833091N12211932WA0078200815004003038013000
B2155303833097N12211931WA0078300816004003038011000
B2155313833103N12211930WA0078400816004003038008000
B2155323833109N12211929WA0078400817004003039006000
B2155333833114N12211928WA0078500818004003038002000
B2155343833120N12211928WA0078700819004003038000000
B2155353833125N12211928WA0078800820004003037000000
B2155363833131N12211928WA0078800821004003037000000
B2155373833136N12211928WA0078900822004003036359000
B2155383833141N12211928WA0079000823004003036001000
B2155393833147N12211928WA0079100824004003037002000
B2155403833152N12211927WA0079100825004003037003000
B2155413833158N12211927WA0079200826004003037004000
B2155423833163N12211926WA0079300827004003036006000
B2155433833168N12211925WA0079500828004003035006000
B2155443833173N12211925WA0079500828004003035005000
B2155453833179N12211924WA0079600829004003035005000
B2155463833184N12211923WA0079700830004003035006000
B2155473833189N12211923WA0079800831004003036005000
B2155483833195N12211922WA0079800831004003036005000
B2155493833200N12211922WA0079900832004003036004000
B2155503833205N12211921WA0080100833004003036005000
B2155513833211N12211920WA0080100834004003036006000
B2155523833216N12211919WA0080100835004003037006000
B2155533833222N12211919WA0080200836004003037006000
B2155543833227N12211918WA0080400838004003036006000
B2155553833232N12211917WA0080500839004003035005000
B2155563833237N12211916WA0080500839004003035006000
B2155573833243N12211915WA0080600840004003036009000
B2155583833248N12211914WA0080700841004003036009000
B2155593833253N12211913WA0080800843004003035007000
B2156003833258N12211913WA0080800844004003034005000
B2156013833263N12211912WA0081000844004003033005000
B2156023833267N12211911WA0081100845004003033007000
B2156033833273N12211910WA0081200845004003034009000
B2156043833278N12211909WA0081200846004003034010000
B2156053833283N12211908WA0081300848004003036009000
B2156063833288N12211907WA0081400850004003036010000
B2156073833293N12211905WA0081600851004003033011000
B2156083833298N12211904WA0081600852004003034012000
B2156093833303N12211903WA0081700852004003034011000
B2156103833308N12211901WA0081800854004003035012000
B2156113833313N12211900WA0082000855004003035013000
B2156123833318N12211898WA0082000856004003035011000
B2156133833324N12211897WA0082100858004003035011000
B2156143833328N12211895WA0082300860004003034015000
B2156153833333N12211893WA0082400861004003032018000
B2156163833338N12211891WA0082400861004003032018000
B2156173833343N12211889WA0082600863004003036019000
B2156183833348N12211887WA0082800864004003036020000
B2156193833353N12211884WA0082900866004003035020000
B2156203833357N12211882WA0082900867004003034020000
B2156213833362N12211880WA0083100869004003034018000
B2156223833367N12211878WA0083300870004003034015000
B2156233833372N12211876WA0083400871004003035016000
B2156243833377N12211874WA0083400873004003035017000
B2156253833382N12211872WA0083600875004003035015000
B2156263833387N12211871WA0083800877004003034014000
B2156273833392N12211869WA0084000878004003033015000
B2156283833396N12211868WA0084000880004003033015000
B2156293833401N12211866WA0084200881004003033014000
B2156303833406N12211864WA0084400883004003033013000
B2156313833411N12211863WA0084600884004003033013000
B2156323833416N12211861WA0084600885004003035013000
B2156333833421N12211860WA0084800886004003038012000
B2156343833427N12211858WA0085000887004003038016000
B2156353833432N12211855WA0085200889004003038023000
B2156363833437N12211852WA0085200891004003038024000
B2156373833442N12211849WA0085300893004003035023000
B2156383833447N12211846WA0085500894004003035028000
B2156393833451N12211843WA0085600895004003035034000
B2156403833455N12211839WA0085600896004003035036000
B2156413833459N12211835WA0085800896004003034037000
B2156423833463N12211831WA0086000897004003033042000
B2156433833465N12211827WA0086200899004003033053000
B2156443833466N12211824WA0086200899004003025067000
B2156453833467N12211821WA0086400898004003018068000
B2156463833468N12211819WA0086600895004003016052000
B2156473833471N12211816WA0086700893004003021041000
B2156483833474N12211813WA0086700891004003026033000
B2156493833478N12211810WA0086700891004003026034000
B2156503833481N12211807WA0086700892004003028038000
B2156513833483N12211803WA0086600892004003028048000
B2156523833486N12211799WA0086600891004003025055000
B2156533833488N12211795WA0086400890004003025053000
B2156543833491N12211792WA0086300888004003025049000
B2156553833493N12211787WA0086200887004003028053000
B2156563833496N12211782WA0086200886004003030063000
B2156573833497N12211776WA0086100886004003031066000
B2156583833499N12211771WA0086000884004003031061000
B2156593833502N12211767WA0085900883004003028055000
B2157003833504N12211763WA0085900882004003028059000
B2157013833506N12211757WA0085700881004003029071000
B2157023833506N12211751WA0085600880004003033080000
B2157033833507N12211745WA0085500879004003033081000
B2157043833508N12211740WA0085500878004003031074000
B2157053833509N12211736WA0085400877004003026065000
B2157063833511N12211732WA0085200875004003023060000
B2157073833513N12211729WA0085100873004003022057000
B2157083833515N12211725WA0085100872004003023054000
B2157093833517N12211721WA0084900870004003023050000
B2157103833519N12211719WA0084700869004003023043000
B2157113833521N12211716WA0084600868004003021031000
B2157123833524N12211716WA0084600866004003015007000
B2157133833526N12211717WA0084400864004003016338003
B2157143833528N12211719WA0084200862004003016316001
B2157153833530N12211723WA0084000860004003020297356
B2157163833530N12211727WA0084000858004003022278350
B2157173833530N12211732WA0083800857004003026260341
B2157183833528N12211737WA0083500856004003028246339
B2157193833526N12211742WA0083300854004003028239341
B2157203833523N12211747WA0083300852004003030235342
B2157213833520N12211753WA0083100851004003033231345
B2157223833516N12211758WA0082900850004003035227347
B2157233833512N12211762WA0082700849004003035218346
B2157243833508N12211765WA0082700848004003035201341
B2157253833502N12211765WA0082500846004003036181019
B2157263833495N12211762WA0082400843004003040156011
B2157273833489N12211758WA0082200842006003043133005
B2157283833485N12211751WA0082200840004003043111001
B2157293833485N12211745WA0082000839004003034043352
B2157303833487N12211743WA0081700837012004018043337
B2157313833487N12211743WA0081300835012005017218021
B2157323833486N12211744WA0081300835200006009218003
B2157333833485N12211746WA0080700833200008009218350
B2157343833483N12211747WA0079800838200010009218344
B2157353833473N12211755WA0078700841200011013208337
B2157363833469N12211760WA0078700845200012038208336
B2157373833467N12211766WA0077800841200013033231339
B2157383833464N12211764WA0077100843200013033192346
B2157393833460N12211764WA0076600849015013028189349
B2157403833457N12211756WA0076600815014012028198351
B2157413833451N12211761WA0076500804014011037194353
B2157423833443N12211763WA0076500806014011041188354
B2157433833437N12211765WA0076500807011011041180354
B2157443833431N12211764WA0076500809039010037174355
B2157453833428N12211769WA0076400802035009037165355
B2157463833421N12211767WA0076200793030008039161356
B2157473833416N12211766WA0076000789025006042160357
B2157483833411N12211764WA0076000784021005042161357
B2157493833406N12211762WA0075800781017004040163358
B2157503833401N12211761WA0075700780014003039166358
B2157513833396N12211759WA0075600778012003039168358
B2157523833390N12211758WA0075500776010003041168359
B2157533833384N12211756WA0075500775008003041168359
B2157543833378N12211755WA0075400774007003041169359
B2157553833372N12211754WA0075300773006003040169359
B2157563833366N12211752WA0075200772005003042168359
B2157573833360N12211750WA0075200770004003045167359
B2157583833353N12211748WA0075100768004003045167359
B2157593833346N12211747WA0074900768004003045168359
B2158003833340N12211745WA0074800768004003045168359
B2158013833335N12211744WA0074800768004003038173359
B2158023833329N12211745WA0074600767004003038187359
B2158033833323N12211746WA0074500766004003038213359
B2158043833319N12211751WA0074400764004003037238359
B2158053833316N12211757WA0074400765004003037278359
B2158063833318N12211763WA0074300765004003025309009
B2158073833320N12211765WA0074100761005004029080017
B2158083833320N12211752WA0073800753006004029131340
B2158093833314N12211745WA0073800754006005047158356
B2158103833307N12211742WA0073400756008006047182014
B2158113833302N12211741WA0072800759122007039149339
B2158123833296N12211738WA0072000756013007049161348
B2158133833288N12211735WA0072000763083008049168355
B2158143833279N12211735WA0070900769037009049177357
B2158153833275N12211745WA0069800769021010049203005
B2158163833275N12211746WA0068800772022010017225006
B2158173833274N12211751WA0068800758021009017227355
B2158183833274N12211752WA0068200747019009016196013
B2158193833280N12211752WA0067900745017008012356020
B2158203833287N12211747WA0067900732016006012012022
B2158213833294N12211744WA0067900723015005029024022
B2158223833300N12211741WA0067900719013005029027019
B2158233833303N12211738WA0067900718012004028048017
B2158243833306N12211736WA0067800715011004021056015
B2158253833310N12211734WA0067800712011004020052011
B2158263833314N12211731WA0067600708011004023044009
B2158273833318N12211729WA0067400706010003025034007
B2158283833322N12211727WA0067300704009003024025005
B2158293833326N12211727WA0067300703009003024016003
B2158303833331N12211727WA0067200701009003019004004
B2158313833334N12211728WA0067100699008003016348003
B2158323833339N12211731WA0067000695009003018331002
B2158333833343N12211734WA0067000692009003018320000
B2158343833346N12211737WA0066900691008003020314357
B2158353833349N12211741WA0066800689007003020305357
B2158363833350N12211744WA0066700688006003018286334
B2158373833351N12211749WA0066500685006003021260318
B2158383833349N12211754WA0066400682006003021232312
B2158393833345N12211757WA0066200679005003030204308
B2158403833339N12211758WA0066200676005003038175303
B2158413833334N12211754WA0066100674005003044147035
B2158423833331N12211747WA0065900671005003044114016
B2158433833330N12211740WA0065700670005003041064005
B2158443833333N12211734WA0065500669005003035013356
B2158453833338N12211737WA0065200666005003033331339
B2158463833342N12211740WA0065000665006003029331328
B2158473833345N12211745WA0064700664008003029317320
B2158483833348N12211748WA0064400665008003023317022
B2158493833347N12211747WA0064100662015005023317005
B2158503833345N12211744WA0063600663019006021317345
B2158513833343N12211741WA0063100663200009018317329
B2158523833339N12211745WA0062400652200011021317015
B2158533833334N12211745WA0061500651200014021317003
B2158543833328N12211746WA0060500645038016021317356
B2158553833321N12211745WA0059600641200020029317350
B2158563833313N12211744WA0058900636200023036317342
B2158573833308N12211744WA0058900636200027036317349
B2158583833304N12211762WA0058500624200031036317350
B2158593833318N12211755WA0058500666020021036297348
B2159003833322N12211754WA0058500670019019023291344
B2159013833327N12211756WA0058500666018017023290345
B2159023833328N12211758WA0058400657017014023282342
B2159033833329N12211760WA0058200644015012020262335
B2159043833330N12211760WA0058000630013010020232333
B2159053833328N12211761WA0057800617012009020219333
B2159063833325N12211763WA0057700608010008035215338
B2159073833322N12211766WA0057500603009007036215342
B2159083833318N12211769WA0057400599008006035214344
B2159093833315N12211771WA0057200593007005034212347
B2159103833312N12211774WA0057000589006004033212349
B2159113833308N12211777WA0056800586006004033211351
B2159123833303N12211779WA0056700584005003034202351
B2159133833298N12211781WA0056600582005003034188352
B2159143833292N12211781WA0056600579004003037176353
B2159153833286N12211779WA0056500577004003040171354
B2159163833280N12211778WA0056400575004003042173355
B2159173833274N12211777WA0056200573004003042177356
B2159183833268N12211777WA0056100572004003042178356
B2159193833261N12211777WA0055900570004003042175357
B2159203833255N12211775WA0055900569004003042168357
B2159213833249N12211773WA0055800568004003043160358
B2159223833243N12211770WA0055600568004003043153358
B2159233833238N12211766WA0055500566004003042147358
B2159243833232N12211761WA0055500565004003042136358
B2159253833228N12211756WA0055400564004003041134359
B2159263833223N12211749WA0055200562004003045136000
B2159273833218N12211743WA0055000557004003047135359
B2159283833213N12211736WA0055000552004003047130000
B2159293833208N12211729WA0054700548004003049132000
B2159303833203N12211723WA0054400544004003049143359
B2159313833197N12211717WA0054000543004003045159359
B2159323833189N12211717WA0054000537004003047181359
B2159333833182N12211719WA0053500533005003047193359
B2159343833175N12211722WA0053000532004003047200359
B2159353833169N12211726WA0052500529004003042210359
B2159363833165N12211730WA0052500525004003034219359
B2159373833162N12211734WA0052000521004003034231359
B2159383833160N12211739WA0051500519004003031242359
B2159393833159N12211743WA0051000514004003029259359
B2159403833160N12211748WA0051000510004003026279358
B2159413833162N12211752WA0050500506004003023300358
B2159423833165N12211755WA0050100502004003024320359
B2159433833168N12211757WA0049700498004003024337003
B2159443833173N12211758WA0049700494004003024357018
B2159453833177N12211757WA0049200489004003025018018
B2159463833182N12211753WA0048700485004003035036021
B2159473833186N12211748WA0048300480004003040050030
B2159483833189N12211741WA0048300477004003040061025
B2159493833191N12211734WA0047800473004003042070020
B2159503833193N12211726WA0047400473005003042073022
B2159513833195N12211720WA0046900469005003037067014
B2159523833198N12211715WA0046500464004003037050008
B2159533833202N12211712WA0046100459004003032022007
B2159543833206N12211712WA0045700455004003029002004
B2159553833210N12211713WA0045400452004003028341002
B2159563833212N12211716WA0045000448004003024311357
B2159573833214N12211721WA0044500447004003025274341
B2159583833214N12211726WA0044100446005003025233339
B2159593833207N12211730WA0043600441006003028212336
B2200003833198N12211728WA0043100436006003050144334
B2200013833192N12211721WA0042600434008004051134015
B2200023833187N12211706WA0042100427007004050070005
B2200033833191N12211696WA0041500424008004049060000
B2200043833194N12211692WA0041000422010005049061344
B2200053833198N12211686WA0041000417016005037061332
B2200063833194N12211683WA0040300415022007037061015
B2200073833193N12211679WA0039600413029009029061005
B2200083833186N12211684WA0038700419039009026061359
B2200093833193N12211677WA0037700385033008022061350
B2200103833195N12211678WA0036800400031007009204342
B2200113833194N12211681WA0036100401029006009215346
B2200123833195N12211685WA0035800391026006006215352
B2200133833194N12211687WA0035800383023005006326358
B2200143833195N12211689WA0035800379021004010316348
B2200153833198N12211694WA0035800375019004028315353
B2200163833201N12211698WA0035800373017004028321351
B2200173833204N12211701WA0035600371015004025326000
B2200183833206N12211703WA0035400368014003020321345
B2200193833207N12211707WA0035200365012003014290326
B2200203833208N12211711WA0035000362011003019254319
B2200213833208N12211716WA0035000360010003030223318
B2200223833204N12211721WA0035000359010003030200317
B2200233833198N12211722WA0034800358010004034175319
B2200243833191N12211722WA0034600357010004037162322
B2200253833186N12211719WA0034400355009004035154327
B2200263833181N12211715WA0034200353009004036149331
B2200273833176N12211711WA0034000348008003036145335
B2200283833171N12211705WA0033900344007003040142019
B2200293833165N12211699WA0033800340006003045139016
B2200303833160N12211693WA0033700338005003043136012
B2200313833156N12211687WA0033500337005003043129009
B2200323833153N12211681WA0033300336005003037121006
B2200333833151N12211675WA0033300335004003034109004
B2200343833150N12211669WA0033200333004003034090003
B2200353833152N12211661WA0033000329004003041073002
B2200363833154N12211653WA0032900328004003041065001
B2200373833157N12211647WA0032900328004003041069001
B2200383833157N12211644WA0032700327004003030084001
B2200393833158N12211640WA0032500325004003022086001
B2200403833158N12211635WA0032300323004003033071000
B2200413833161N12211627WA0032300323004003048059000
B2200423833165N12211619WA0032100323004003037064000
B2200433833167N12211614WA0031800322005003037081000
B2200443833167N12211611WA0031600319004003022093000
B2200453833167N12211607WA0031600315004003027092000
B2200463833167N12211600WA0031400311005003046073000
B2200473833170N12211590WA0031100312005003044067000
B2200483833173N12211582WA0030700314006003044075000
B2200493833174N12211577WA0030700315007003035095000
B2200503833173N12211574WA0030500310007003019104000
B2200513833173N12211571WA0030300308008003028098000
B2200523833174N12211567WA0030000306008003028060000
B2200533833178N12211558WA0030000306009004043053354
B2200543833181N12211552WA0029700306022005043053349
B2200553833185N12211545WA0029400307200007026053345
B2200563833188N12211541WA0029100300200009026053013
B2200573833189N12211540WA0029100300200011013053009
B2200583833191N12211538WA0028400300200014013053007
B2200593833190N12211532WA0027700300043012013053005
B2201003833192N12211527WA0027400303200013020053005
B2201013833193N12211524WA0027400301200015023053004
B2201023833194N12211519WA0027000300200016022053003
B2201033833195N12211514WA0026700298200018022053002
B2201043833198N12211513WA0026500297200020021053002
B2201053833201N12211510WA0026500297048023021053001
B2201063833202N12211506WA0026400295048025022053001
B2201073833204N12211501WA0026300294200028022053001
B2201093833172N12211482WA0026000213048020032053000
B2201103833171N12211473WA0025900209048021033053359
B2201113833169N12211468WA0025800210048022033053359
B2201123833164N12211462WA0025600218048021033127359
B2201133833159N12211455WA0025600227048019031122359
B2201143833154N12211450WA0025400235048017032123000
B2201153833150N12211444WA0025300239048017037126000
B2201163833146N12211438WA0025100241048016037128359
B2201183833107N12211446WA0025000263048008034141000
B2201193833102N12211440WA0024800264040007038140000
B2201203833097N12211433WA0024600265034007032131000
B2201213833095N12211430WA0024600261028006032131000
B2201223833092N12211426WA0024400256024005032137000
B2201233833089N12211420WA0024200251021005032136000
B2201243833083N12211413WA0024000249018005045136000
B2201253833079N12211407WA0024000243015004032134000
B2201263833078N12211404WA0023800238013003032132000
B2201273833076N12211400WA0023600235011003024129000
B2201283833073N12211397WA0023500232010003024138000
B2201293833068N12211392WA0023500233010003040140000
B2201303833062N12211385WA0023300235009003038145359
B2201313833059N12211382WA0023000235008003038141000
B2201323833056N12211379WA0022800233007003022136359
B2201333833053N12211375WA0022800230007003022137000
B2201343833049N12211370WA0022700225006003028126000
B2201353833046N12211364WA0022400223006003031104000
B2201363833046N12211357WA0022200221007003032072000
B2201373833049N12211350WA0022200219008003031024000
B2201383833056N12211348WA0022000219008003032019000
B2201393833063N12211346WA0021700217008003031033000
B2201403833067N12211344WA0021300213008003022042000
B2201413833070N12211341WA0021300210007003026036000
B2201423833074N12211339WA0021100208006003026023000
B2201433833079N12211337WA0021000205006003029012000
B2201443833084N12211336WA0020800203005003032010000
B2201453833089N12211335WA0020800203005003030012000
B2201463833093N12211334WA0020700202005003030012000
B2201473833097N12211333WA0020600200004003029009000
B2201483833102N12211332WA0020400199004003028001002
B2201493833106N12211333WA0020400198004003028348003
B2201503833110N12211335WA0020200197004003028334359
B2201513833113N12211338WA0020100196004003028324355
B2201523833116N12211341WA0020000195004003027314348
B2201533833118N12211345WA0020000194004003026307345
B2201543833121N12211349WA0019900193004003025304341
B2201553833123N12211353WA0019800191004003025304339
B2201563833125N12211357WA0019700190004003027304340
B2201573833128N12211361WA0019600188004003027306341
B2201583833130N12211365WA0019400187004003027311345
B2201593833133N12211368WA0019400186004003027322354
B2202003833136N12211371WA0019300186005003023340007
B2202013833140N12211372WA0019100185004003025355020
B2202023833143N12211371WA0019000183004003025008031
B2202033833148N12211369WA0018900182004003027023037
B2202043833151N12211366WA0018800180004003030039041
B2202053833154N12211361WA0018700180004003031055037
B2202063833157N12211356WA0018600179004003030055027
B2202073833159N12211352WA0018400178004003029040014
B2202083833162N12211349WA0018300177004003026022009
B2202093833166N12211348WA0018200175004003028008006
B2202103833171N12211348WA0018100173004003032000013
B2202113833176N12211348WA0017900173004003029003008
B2202123833180N12211348WA0017800172004003029003010
B2202133833184N12211348WA0017600170004003025357007
B2202143833188N12211348WA0017500167004003028354006
B2202153833193N12211349WA0017400165004003031352005
B2202163833198N12211349WA0017400165004003030353004
B2202173833202N12211350WA0017200164004003030354003
B2202183833206N12211350WA0017100164004003027357002
B2202193833210N12211350WA0016900163004003027359002
B2202203833214N12211350WA0016800162004003027359002
B2202213833218N12211350WA0016700161004003027000001
B2202223833222N12211350WA0016500160004003027001001
B2202233833227N12211349WA0016400159004003028002001
B2202243833231N12211349WA0016300159004003028002001
B2202253833235N12211349WA0016100156004003028000000
B2202263833239N12211348WA0016000156004003028000000
B2202273833244N12211348WA0015900155004003028000000
B2202283833249N12211347WA0015700155004003030000000
B2202293833254N12211348WA0015600153004003031359000
B2202303833258N12211348WA0015500152004003031358000
B2202313833263N12211348WA0015300150005003030359000
B2202323833267N12211348WA0015200149005003029001000
B2202333833271N12211348WA0015200147005003029001000
B2202343833276N12211347WA0015100145004003030001000
B2202353833280N12211347WA0015000144004003031002000
B2202363833285N12211347WA0014900143004003030003000
B2202373833289N12211347WA0014800142004003030006000
B2202383833293N12211346WA0014700141005003028009000
B2202393833295N12211345WA0014600140005003018016000
B2202403833297N12211344WA0014500140005003018015000
B2202413833299N12211344WA0014400140005003015008000
B2202423833301N12211344WA0014300139005003014006000
B2202433833304N12211344WA0014300140005003014001000
B2202443833306N12211344WA0014300139005003015000000
B2202453833308N12211344WA0014300139005003015006000
B2202463833310N12211344WA0014300139005003013357000
B2202473833311N12211344WA0014300138005003011341000
B2202483833313N12211345WA0014300138005003009347000
B2202493833313N12211345WA0014300137005003004330000
B2202503833313N12211345WA0014300137005003000330000
B2202513833313N12211345WA0014200137005003001330000
B2202523833313N12211345WA0014200137005003001330000
B2202533833313N12211344WA0014200137005003000330000
B2202543833313N12211345WA0014200137005003000330000
B2202553833313N12211345WA0014200137005003000330000
B2202563833313N12211344WA0014200137005003000330000
B2202573833313N12211344WA0014200137005003000330000
B2202583833313N12211344WA0014200137005003000330000
B2202593833313N12211344WA0014200137005003000330000
B2203003833313N12211344WA0014200137005003000330000
B2203013833313N12211345WA0014200137005003000330000
B2203023833313N12211345WA0014200137004003000330000
B2203033833313N12211345WA0014200137004003000330000
B2203043833313N12211345WA0014200137004003000330000
B2203053833313N12211345WA0014200137005003000330000
B2203063833313N12211344WA0014200137005003001330000
B2203073833313N12211344WA0014200137005003001330000
B2203083833314N12211344WA0014200136005003001330000
B2203093833314N12211344WA0014200136005003001330000
B2203103833314N12211344WA0014200136005003003330000
B2203113833315N12211344WA0014200136004003001330000
B2203123833315N12211343WA0014200136004003001330000
B2203133833315N12211343WA0014200136004003001330000
B2203143833315N12211343WA0014200136004003000330000
B2203153833315N12211343WA0014200136004003000330000
B2203163833315N12211343WA0014200136005003000330000
B2203173833315N12211342WA0014200136004003001053000
B2203183833316N12211342WA0014200136005003004046000
B2203193833317N12211342WA0014200136004003006027000
Gy4wEtFfzQALmXdPV8yNyuOqwoVsipvMBvX+iPjZ5UBPbA44+iT9H+CKY4XlA9YeA
GZ2MrboDdmXTWjrWtKMeL0Qo3I3gI7vi+WvhOUQurjXqBXuGctuJmJ6aCxD5wfidC
GxqerRu67P3AGj1fb5TwLx6cqcOSxwQfaYbogZRzuwMU=
