AXFH000
HFDTE180926
HFPLTPILOT:KaranS
HFGTYGLIDERTYPE:Niviuk Hiko P
HFDTM100GPSDATUM:WGS84
HFRFWFIRMWAREVERSION:9.7.2
HFRHWHARDWAREVERSION:iPhone 17 Pro
HFFTYFRTYPE:Flyskyhy,9.7.2
HFGPS:Internal
HFPRSVARIO:Internal Vario
HFCCLCOMPETITIONCLASS:Paraglider,EN-B
HFTZNTIMEZONE:-7
I053638FXA3941VXA4244GSP4547CCO4850HDT
C180926160209180926000106TASK
C0000000N00000000ETAKEOFF
C3646164N11906086W00000000000400000000360000STARTAREA DNLNCH
C3646886N11907285W00000000000400000000360000TURNAREA 49917
C3644816N11904600W00000000000400000000360000TURNAREA SONTAG
C3647347N11907139W00000000001000000000360000TURNAREA DELILA
C3644411N11907767W00000000001200000000360000TURNAREA TURKEY
C3646164N11906086W00000000000400000000360000TURNAREA DNLNCH
C3642989N11908259W00000000001200000000360000TURNAREA AIRSTR
C3644153N11906287W00000000000400000000360000FINISHAREA DNLPLZ
C0000000N00000000ELANDING
E160237PEVBackground
B1602373833328N12211336WA0013800138001003000122330
B1602383833328N12211336WA0013800138001003000122330
B1602393833328N12211336WA0013800138001003000122330
B1602403833328N12211336WA0013800138001003000122330
B1602413833328N12211336WA0013800138001003000122330
B1602423833328N12211336WA0013800138001003000122333
B1602433833328N12211336WA0013800138001003000122333
B1602443833328N12211336WA0013800138001003000122333
B1602453833328N12211336WA0013800139001003000122333
B1602463833328N12211336WA0013800139001003000122333
B1602473833328N12211336WA0013800139001003000122334
B1602483833328N12211336WA0013800139001003000122335
B1602493833328N12211336WA0013900139001003000122335
B1602503833328N12211336WA0013900139001003000122337
B1602513833328N12211336WA0013900139001003000122336
B1602523833328N12211336WA0013900139001003000122336
B1602533833328N12211336WA0013900139001003000122336
B1602543833328N12211336WA0013900139001003000122336
B1602553833328N12211336WA0013900139001003000122335
B1602563833328N12211336WA0013900139001003000122333
B1602573833328N12211336WA0013900139001003000122332
B1602583833328N12211336WA0013900139001003000122331
B1602593833328N12211336WA0013900139001003000122331
B1603003833328N12211336WA0013900139001003000122330
B1603013833328N12211336WA0013900139001003001270345
B1603023833328N12211337WA0013900139002003001233353
B1603033833327N12211338WA0013900138003003003247035
B1603043833327N12211341WA0013900138003003006263030
B1603053833327N12211343WA0013800137004003012276345
B1603063833328N12211349WA0013700137004003017276329
B1603073833329N12211356WA0013700136004003017272314
B1603083833330N12211362WA0013700136004004023277322
B1603093833332N12211368WA0013700141005004024295331
B1603103833334N12211374WA0014000141004004029292321
B1603113833337N12211381WA0014300141004004032294328
B1603123833340N12211389WA0014700142005004032302335
B1603133833345N12211396WA0015100147005004041312339
B1603143833349N12211402WA0015500151005004041319345
B1603153833354N12211406WA0015700154004004034321345
B1603163833358N12211411WA0016000156004004034314352
B1603173833362N12211416WA0016200158004003028300349
B1603183833363N12211421WA0016400158004003028285349
B1603193833364N12211429WA0016600159004003032276350
B1603203833364N12211438WA0016700162004003042265352
B1603213833363N12211447WA0016700165004003042263353
B1603223833361N12211455WA0016700169004003039264354
B1603233833361N12211461WA0016900175004003036265355
B1603243833360N12211468WA0017100176004003034262356
B1603253833359N12211474WA0017100180004003037261356
B1603263833358N12211482WA0017400181004003038269357
B1603273833358N12211490WA0017800186004003038270357
B1603283833358N12211497WA0018200187004003039269358
B1603293833358N12211505WA0018500189005003039270358
B1603303833358N12211512WA0018800191004003036276358
B1603313833359N12211519WA0019000193004003036281359
B1603323833360N12211524WA0019400196004003035270359
B1603333833358N12211530WA0019700198004003033247359
B1603343833354N12211535WA0019900201004003033231359
B1603353833351N12211541WA0019900203004003037230359
B1603363833347N12211546WA0020100204005003037237359
B1603373833344N12211552WA0020300207004003037237359
B1603383833342N12211558WA0020500208004003036233359
B1603393833338N12211562WA0020500210005003035219359
B1603403833333N12211565WA0020700212004003035207359
B1603413833328N12211567WA0020900214005003035201359
B1603423833324N12211569WA0021100216005003035195359
B1603433833318N12211570WA0021100218005003035187359
B1603443833312N12211570WA0021300220004003036183359
B1603453833307N12211571WA0021500223004003040185359
B1603463833300N12211572WA0021700226004003042183359
B1603473833294N12211572WA0021700229004003042177359
B1603483833287N12211571WA0022000232004003043175359
B1603493833281N12211570WA0022200235004003043175359
B1603503833275N12211570WA0022500238004003043173359
B1603513833269N12211568WA0022500241004003042171359
B1603523833262N12211567WA0022800243004003042171359
B1603533833256N12211566WA0023200244004003043169359
B1603543833249N12211564WA0023600247004003043166359
B1603553833243N12211562WA0023600250004003043165359
B1603563833237N12211560WA0023900251004003043164359
B1603573833231N12211557WA0024300252004003043164359
B1603583833225N12211555WA0024600255004003042165359
B1603593833219N12211553WA0024600258004003043167359
B1604003833212N12211551WA0024900260004003043166359
B1604013833206N12211549WA0025200262004003044166359
B1604023833199N12211548WA0025500264004003045169359
B1604033833192N12211547WA0025500266004003045171359
B1604043833186N12211545WA0025800268004003045167359
B1604053833179N12211542WA0026100270004003046164359
B1604063833172N12211540WA0026300270004003046167359
B1604073833166N12211539WA0026600273004003042171359
B1604083833160N12211538WA0026600274004003043169359
B1604093833153N12211536WA0026800276004003043167359
B1604103833146N12211534WA0027100278004003046165359
B1604113833140N12211531WA0027300281004003046164359
B1604123833133N12211529WA0027300283004003045163359
B1604133833127N12211527WA0027500285004003045164359
B1604143833120N12211525WA0027800288004003044166359
B1604153833114N12211523WA0028000290004003044166359
B1604163833108N12211521WA0028000292004003044164359
B1604173833101N12211518WA0028200294004003044162359
B1604183833095N12211516WA0028500295004003044163359
B1604193833089N12211514WA0028800297004003044167359
B1604203833082N12211512WA0028800299004003045167359
B1604213833075N12211510WA0029000301004003046169359
B1604223833068N12211509WA0029300303004003046175359
B1604233833061N12211509WA0029500303004003046177359
B1604243833054N12211509WA0029500306004003046177359
B1604253833047N12211509WA0029700308004003046181359
B1604263833041N12211510WA0030000311004003046186359
B1604273833034N12211511WA0030200313004003047184359
B1604283833026N12211511WA0030200316004003048181359
B1604293833019N12211511WA0030500318004003047179359
B1604303833012N12211511WA0030800320004003047177359
B1604313833005N12211510WA0031100322004003047174359
B1604323832998N12211509WA0031100322004003048170359
B1604333832991N12211507WA0031300324004003048167359
B1604343832984N12211504WA0031600325004003048164359
B1604353832977N12211501WA0031800326004003047162359
B1604363832971N12211499WA0031800327004003046166359
B1604373832965N12211497WA0032000328004003045176359
B1604383832958N12211497WA0032200329004003045179359
B1604393832951N12211498WA0032400331004003045181359
B1604403832944N12211498WA0032400333004003046181359
B1604413832937N12211498WA0032600335004003048178359
B1604423832929N12211497WA0032800337004003047175359
B1604433832923N12211497WA0033000339004003047173359
B1604443832916N12211495WA0033000340004003046170359
B1604453832909N12211493WA0033200342004003046166359
B1604463832902N12211491WA0033400343004003046165359
B1604473832896N12211489WA0033500345004003043172359
B1604483832889N12211490WA0033500347004003043183359
B1604493832883N12211491WA0033700348004003043188359
B1604503832876N12211493WA0034000349004003045191359
B1604513832870N12211495WA0034200351004003045194359
B1604523832864N12211497WA0034200354004003043196359
B1604533832858N12211500WA0034400356004003044199359
B1604543832852N12211503WA0034600357004003044197359
B1604553832845N12211505WA0034900360004003045191359
B1604563832838N12211506WA0034900362004003047187359
B1604573832831N12211507WA0035100365004003047183359
B1604583832824N12211507WA0035400366004003047179359
B1604593832816N12211506WA0035600368004003047176359
B1605003832809N12211505WA0035600369004003048175359
B1605013832801N12211504WA0035900370004003051174359
B1605023832793N12211503WA0036100372004003052174359
B1605033832786N12211503WA0036300374004003052174359
B1605043832778N12211502WA0036300375004003050175359
B1605053832771N12211502WA0036500377004003049182359
B1605063832764N12211504WA0036700379004003048191359
B1605073832757N12211506WA0037000380004003049193359
B1605083832750N12211508WA0037000383004003050191359
B1605093832743N12211510WA0037200385004003049191359
B1605103832735N12211512WA0037400387004003049191359
B1605113832728N12211513WA0037600389005003049191359
B1605123832721N12211515WA0037600391005003049193359
B1605133832714N12211518WA0037800393005003049196359
B1605143832707N12211520WA0038100395005003049193359
B1605153832700N12211522WA0038300397005003049188359
B1605163832692N12211523WA0038300399005003049185359
B1605173832685N12211524WA0038600401005003051186359
B1605183832677N12211525WA0038800402005003051185359
B1605193832669N12211525WA0039100404005003051183359
B1605203832662N12211526WA0039100406005003052183359
B1605213832654N12211527WA0039400408005003052183359
B1605223832646N12211527WA0039600410005003053182359
B1605233832638N12211528WA0039800411005003053183359
B1605243832630N12211528WA0039800413005003053184359
B1605253832622N12211529WA0040100415005003053184359
B1605263832614N12211530WA0040300417005003053183359
B1605273832606N12211531WA0040500418005003053184359
B1605283832598N12211532WA0040500420005003054185359
B1605293832590N12211533WA0040700422005003054185359
B1605303832582N12211534WA0040900424005003054186359
B1605313832575N12211535WA0041200426005003053188359
B1605323832567N12211537WA0041200427005003053189359
B1605333832559N12211539WA0041400429005003054190359
B1605343832551N12211540WA0041600432005003053188359
B1605353832543N12211541WA0041900434005003053186359
B1605363832536N12211543WA0041900435005003052186359
B1605373832527N12211544WA0042200436005003056186359
B1605383832519N12211545WA0042400437005003057185359
B1605393832510N12211546WA0042600440005003056184359
B1605403832502N12211546WA0042600442005003056183359
B1605413832494N12211547WA0042800443005003054183359
B1605423832486N12211548WA0043100444005003054183359
B1605433832478N12211548WA0043300445005003056183359
B1605443832469N12211549WA0043300446005003056181359
B1605453832461N12211549WA0043500448005003056181359
B1605463832453N12211549WA0043700450005003055181359
B1605473832445N12211549WA0043800451005003054179359
B1605483832437N12211549WA0043800451005003056175359
B1605493832428N12211547WA0044000451005003056171359
B1605503832419N12211545WA0044100451005003058169359
B1605513832410N12211543WA0044200450005003059169359
B1605523832402N12211541WA0044200450005003057169359
B1605533832394N12211540WA0044300451005003057172359
B1605543832387N12211540WA0044300452005003052181359
B1605553832380N12211541WA0044300452005003047191359
B1605563832374N12211544WA0044300453005003045201359
B1605573832368N12211548WA0044400455005003045211359
B1605583832364N12211553WA0044400458005003044221359
B1605593832360N12211559WA0044500460005003040225359
B1606003832355N12211564WA0044700462005003040224359
B1606013832351N12211569WA0044900465005003041223359
B1606023832347N12211575WA0045100467005003041226359
B1606033832343N12211581WA0045400470005003041228359
B1606043832338N12211586WA0045600473005003040225359
B1606053832334N12211592WA0045900475005003040224359
B1606063832330N12211597WA0045900477005003040228359
B1606073832326N12211603WA0046200480006003040229359
B1606083832322N12211609WA0046400482005003041227359
B1606093832318N12211615WA0046700485005003041226359
B1606103832314N12211620WA0047000488005003039228359
B1606113832310N12211626WA0047200490005003041227359
B1606123832305N12211632WA0047500492005003041226359
B1606133832301N12211638WA0047700494005003042225359
B1606143832296N12211643WA0048000496005003042225359
B1606153832292N12211649WA0048000498005003043223359
B1606163832287N12211655WA0048300499005003045221359
B1606173832281N12211660WA0048500501005003045219359
B1606183832276N12211666WA0048800503005003045219359
B1606193832272N12211671WA0048800505005003044224359
B1606203832268N12211677WA0049000506005003037235359
B1606213832266N12211683WA0049300508005003037240359
B1606223832263N12211689WA0049500510005003037242359
B1606233832261N12211696WA0049500512005003038245359
B1606243832259N12211703WA0049700514005003038247359
B1606253832256N12211709WA0050000516005003038248359
B1606263832254N12211716WA0050200518005003038248359
B1606273832252N12211723WA0050200520005003038250359
B1606283832250N12211730WA0050500522005003038248359
B1606293832248N12211737WA0050700524005003039245359
B1606303832245N12211744WA0051000526005003042242359
B1606313832242N12211751WA0051000528006003042241359
B1606323832239N12211758WA0051300529005003042240359
B1606333832235N12211765WA0051500530005003043238359
B1606343832232N12211773WA0051800532005003045237359
B1606353832229N12211780WA0051800534005003043239359
B1606363832226N12211787WA0052000535005003043243359
B1606373832224N12211794WA0052200537005003041250359
B1606383832223N12211801WA0052500539005003039260359
B1606393832222N12211808WA0052500541005003038264359
B1606403832221N12211815WA0052700543005003039261359
B1606413832220N12211822WA0052900544005003039258359
B1606423832219N12211830WA0053100546005003039258359
B1606433832218N12211838WA0053100547005003040257359
B1606443832216N12211845WA0053300549005003040255359
B1606453832215N12211853WA0053600550005003042255359
B1606463832213N12211861WA0053800551005003042255359
B1606473832211N12211869WA0053800553005003042253359
B1606483832209N12211877WA0054000553005003044250359
B1606493832207N12211885WA0054200555005003045249359
B1606503832205N12211892WA0054400557005003040254356
B1606513832204N12211899WA0054400559005003040265352
B1606523832205N12211906WA0054500561005003035274350
B1606533832206N12211912WA0054700562005003035278348
B1606543832207N12211919WA0054900564005003036280348
B1606553832208N12211926WA0055000566005003037282348
B1606563832209N12211933WA0055200568005003038283348
B1606573832210N12211940WA0055500570005003038283345
B1606583832211N12211947WA0055700572005003038280344
B1606593832212N12211955WA0055900574005003038278342
B1607003832213N12211963WA0055900575005003040278342
B1607013832214N12211970WA0056100578005003041277341
B1607023832215N12211978WA0056300580005003040274341
B1607033832215N12211986WA0056500581005003040274342
B1607043832215N12211993WA0056500582005003040272339
B1607053832215N12212002WA0056700583005003043269336
B1607063832215N12212010WA0056900584005003046265337
B1607073832214N12212019WA0057100585005003045262338
B1607083832213N12212027WA0057300586005003045261337
B1607093832212N12212035WA0057400587005003043263339
B1607103832212N12212042WA0057600589005003037271340
B1607113832213N12212049WA0057700590005003037288349
B1607123832215N12212055WA0057700590005003037295345
B1607133832218N12212061WA0057800592005003037288348
B1607143832219N12212069WA0058000593005003038283354
B1607153832221N12212076WA0058100594005003041285351
B1607163832222N12212084WA0058100596005003041284351
B1607173832224N12212091WA0058300597005003040283356
B1607183832226N12212098WA0058500598005003039291357
B1607193832228N12212104WA0058600599005003038300002
B1607203832231N12212111WA0058600600005003039301000
B1607213832234N12212117WA0058800602005003039298003
B1607223832237N12212124WA0058900604005003039298004
B1607233832240N12212130WA0059100606005003039299004
B1607243832243N12212137WA0059200608005003039299005
B1607253832246N12212143WA0059400609005003039299004
B1607263832249N12212150WA0059500611005003041297002
B1607273832251N12212157WA0059700612005003041294010
B1607283832254N12212164WA0059900614005003041298012
B1607293832257N12212170WA0060000616005003038305010
B1607303832261N12212176WA0060200617005003039303008
B1607313832264N12212183WA0060400617005003043298014
B1607323832267N12212191WA0060500619005003043297015
B1607333832270N12212197WA0060700620005003043298013
B1607343832272N12212204WA0060700621005003041295012
B1607353832275N12212212WA0060800621005003042293012
B1607363832277N12212220WA0060900621005003044291012
B1607373832279N12212227WA0061000621005003043290015
B1607383832281N12212235WA0061100622005003043292025
B1607393832284N12212240WA0061100623005003039305028
B1607403832288N12212244WA0061200623005003034321024
B1607413832293N12212247WA0061200625005003034335025
B1607423832298N12212248WA0061300626005003034353024
B1607433832303N12212248WA0061400628005003034002016
B1607443832308N12212248WA0061500630005003036358013
B1607453832314N12212248WA0061700633005003036358014
B1607463832319N12212248WA0061800635005003036008011
B1607473832324N12212246WA0062000637005003035014008
B1607483832329N12212244WA0062000638005003035018007
B1607493832334N12212241WA0062200640005003036021006
B1607503832339N12212239WA0062400642005003035023005
B1607513832343N12212236WA0062700644005003035020003
B1607523832348N12212235WA0062700646005003032009002
B1607533832353N12212235WA0062900648005003032358001
B1607543832358N12212236WA0063200649005003032353001
B1607553832363N12212237WA0063400651005003036350001
B1607563832369N12212238WA0063400653005003038352001
B1607573832374N12212239WA0063600655005003036351000
B1607583832380N12212240WA0063800657005003037348000
B1607593832385N12212242WA0064100658005003037350000
B1608003832391N12212242WA0064100660005003039354000
B1608013832397N12212243WA0064300663005003039353000
B1608023832402N12212244WA0064500664005003038350000
B1608033832408N12212246WA0064800666005003038351000
B1608043832414N12212247WA0064800668005003040352000
B1608053832420N12212247WA0065000670005003040352000
B1608063832426N12212248WA0065300672005003039352000
B1608073832431N12212249WA0065500673005003038353000
B1608083832437N12212250WA0065500675005003039352000
B1608093832443N12212251WA0065700677005003039352000
B1608103832449N12212252WA0066000679005003039352000
B1608113832454N12212253WA0066200681005003039351000
B1608123832460N12212254WA0066200683005003039351000
B1608133832466N12212256WA0066500684005003039350000
B1608143832472N12212257WA0066700686005003039350000
B1608153832477N12212258WA0066900688005003039349000
B1608163832483N12212260WA0066900690005003039347000
B1608173832489N12212261WA0067200691005003040346000
B1608183832495N12212263WA0067400693005003040345000
B1608193832501N12212265WA0067600695005003040344000
B1608203832506N12212268WA0067600696005003040342000
B1608213832512N12212270WA0067900697005003041340000
B1608223832518N12212273WA0068100699005003041340000
B1608233832524N12212275WA0068300701005003039343000
B1608243832529N12212277WA0068500703005003039347000
B1608253832534N12212278WA0068700704005003038350000
B1608263832540N12212279WA0068700706005003037352000
B1608273832545N12212279WA0068900708005003037354000
B1608283832551N12212280WA0069100710005003036356000
B1608293832556N12212280WA0069300711006003037356000
B1608303832562N12212281WA0069500711005003037355000
B1608313832567N12212282WA0069700714005003037354000
B1608323832573N12212282WA0069900716005003037354000
B1608333832578N12212283WA0070100719006003035354000
B1608343832583N12212283WA0070300721005003035356000
B1608353832588N12212283WA0070500723006003035358000
B1608363832594N12212284WA0070700725005003036357000
B1608373832599N12212284WA0071000727005003037357000
B1608383832605N12212284WA0071200729005003037358000
B1608393832610N12212284WA0071400731005003037358000
B1608403832616N12212285WA0071600733005003037358000
B1608413832622N12212285WA0071800735005003037358000
B1608423832627N12212285WA0072000737005003037358000
B1608433832633N12212285WA0072000739005003039358000
B1608443832639N12212286WA0072200741005003039356000
B1608453832645N12212286WA0072400742005003039355000
B1608463832651N12212287WA0072600744005003039353000
B1608473832657N12212288WA0072700745005003039350000
B1608483832663N12212290WA0072900746005003040347000
B1608493832669N12212292WA0073100747005003040346000
B1608503832674N12212293WA0073200749005003040348000
B1608513832680N12212294WA0073400750005003039354000
B1608523832686N12212295WA0073500752005003039357000
B1608533832691N12212295WA0073600753005003037358000
B1608543832697N12212295WA0073700755005003037358000
B1608553832702N12212295WA0073900757005003036359000
B1608563832707N12212295WA0074100758005003036359000
B1608573832713N12212295WA0074100759005003036358000
B1608583832718N12212296WA0074200761005003037356000
B1608593832724N12212296WA0074400762005003038354000
B1609003832730N12212297WA0074600764005003037352000
B1609013832735N12212298WA0074600766005003037353000
B1609023832740N12212298WA0074700767005003035000000
B1609033832745N12212297WA0074900768005003033006000
B1609043832750N12212296WA0075100769005003035007000
B1609053832756N12212296WA0075100771005003035005000
B1609063832761N12212295WA0075300772005003037003000
B1609073832767N12212295WA0075500774005003037002000
B1609083832772N12212295WA0075700776005003036003000
B1609093832777N12212294WA0075700777005003036006000
B1609103832783N12212293WA0075900778005003036005000
B1609113832788N12212293WA0076000780005003036003000
B1609123832794N12212292WA0076200781005003038003000
B1609133832800N12212292WA0076200783005003037002000
B1609143832805N12212292WA0076400784005003037357000
B1609153832811N12212293WA0076600785005003037354000
B1609163832817N12212293WA0076800785005003038353000
B1609173832822N12212294WA0076800786005003039351000
B1609183832828N12212296WA0077000788005003038349000
B1609193832833N12212297WA0077100790005003038355000
B1609203832838N12212296WA0077200792005003034006000
B1609213832842N12212295WA0077200794005003031011000
B1609223832847N12212293WA0077400795005003031016000
B1609233832851N12212291WA0077600796005003034018000
B1609243832856N12212289WA0077800798005003035018000
B1609253832861N12212287WA0078000800005003035015000
B1609263832866N12212286WA0078200802005003035014000
B1609273832871N12212284WA0078300804005003033014000
B1609283832875N12212283WA0078500806005003030013000
B1609293832879N12212281WA0078700807005003030015000
B1609303832884N12212280WA0078900809005003030016000
B1609313832888N12212278WA0079100811005003031014000
B1609323832893N12212277WA0079300812005003031013000
B1609333832898N12212275WA0079500814005003033017000
B1609343832902N12212273WA0079500816005003033019000
B1609353832907N12212271WA0079600818005003033017000
B1609363832911N12212269WA0079800820005003032016000
B1609373832916N12212267WA0080000822005003032018000
B1609383832921N12212265WA0080200824005003032020000
B1609393832925N12212263WA0080400826005003032019000
B1609403832929N12212261WA0080600828005003032020000
B1609413832934N12212259WA0080800830005003031021000
B1609423832938N12212256WA0081000831005003031023000
B1609433832942N12212254WA0081200833005003031023000
B1609443832946N12212251WA0081400835005003031025000
B1609453832950N12212249WA0081600837005003031026000
B1609463832955N12212246WA0081800839005003031026000
B1609473832959N12212244WA0082000841005003031026000
B1609483832963N12212241WA0082200842005003032028000
B1609493832967N12212238WA0082400844005003032028000
B1609503832971N12212235WA0082500847005003031026000
B1609513832975N12212233WA0082700848005003030023000
B1609523832980N12212231WA0082700850005003030021000
B1609533832984N12212229WA0082900852005003031019000
B1609543832988N12212227WA0083100854005003031016000
B1609553832993N12212225WA0083300855005003030015000
B1609563832997N12212224WA0083500857005003030015000
B1609573833002N12212222WA0083700858005003031015000
B1609583833006N12212221WA0083900860005003033016000
B1609593833011N12212219WA0084000861005003033019000
B1610003833016N12212216WA0084200863005003033021000
B1610013833021N12212214WA0084400865005003033021000
B1610023833025N12212211WA0084500868005003033023000
B1610033833029N12212209WA0084700870005003031025000
B1610043833033N12212206WA0084900871005003031026000
B1610053833037N12212203WA0085100873005003031028000
B1610063833041N12212200WA0085300875005003031027000
B1610073833046N12212198WA0085500877005003031026000
B1610083833050N12212195WA0085700879005003031024000
B1610093833054N12212193WA0085700881005003029022000
B1610103833058N12212191WA0085900882005003029022000
B1610113833062N12212189WA0086100884005003031023000
B1610123833066N12212186WA0086300886005003031022000
B1610133833070N12212184WA0086400888005003031019000
B1610143833075N12212182WA0086600889005003031020000
B1610153833079N12212180WA0086800891005003031023000
B1610163833084N12212177WA0087000893005003033022000
B1610173833088N12212175WA0087200895005003033021000
B1610183833093N12212173WA0087400898005003032020000
B1610193833096N12212172WA0087600900005003029018000
B1610203833100N12212170WA0087800902005003028019000
B1610213833105N12212168WA0088000903005003030019000
B1610223833109N12212166WA0088200905005003030019000
B1610233833113N12212164WA0088400907005003031020000
B1610243833117N12212162WA0088600910005003031020000
B1610253833122N12212160WA0088800912005003029019000
B1610263833126N12212158WA0089000913005003029018000
B1610273833130N12212157WA0089000915005003029013000
B1610283833134N12212156WA0089200917005003029009000
B1610293833139N12212155WA0089400918005003029010000
B1610303833143N12212154WA0089600920005003030012000
B1610313833148N12212153WA0089800922005003031009000
B1610323833152N12212152WA0090000923005003031009000
B1610333833157N12212151WA0090200925005003031011000
B1610343833161N12212149WA0090300927005003031012000
B1610353833166N12212148WA0090500928005003031011000
B1610363833170N12212147WA0090700930005003031009000
B1610373833175N12212146WA0090900932005003030007000
B1610383833179N12212146WA0091100933005003030007000
B1610393833184N12212145WA0091200933005003030008000
B1610403833189N12212144WA0091400935005003032008000
B1610413833193N12212143WA0091500936005003032007000
B1610423833198N12212142WA0091600938005003031008000
B1610433833203N12212141WA0091800939005003031009000
B1610443833207N12212140WA0091800940005003031010000
B1610453833212N12212139WA0091900941005003032011000
B1610463833217N12212138WA0092000943005003032012000
B1610473833221N12212136WA0092200945005003031012000
B1610483833226N12212135WA0092300945005003031011000
B1610493833230N12212134WA0092400946005003030012000
B1610503833235N12212133WA0092600947005003031015000
B1610513833239N12212131WA0092700949005003032015000
B1610523833244N12212130WA0092900951005003031012000
B1610533833248N12212129WA0093000952005003031006000
B1610543833253N12212129WA0093200954005003030002000
B1610553833258N12212129WA0093300955005003031000000
B1610563833262N12212129WA0093500957005003032356000
B1610573833267N12212130WA0093600958005003032354000
B1610583833272N12212130WA0093800959005003032355000
B1610593833277N12212131WA0093900961005003032354000
B1611003833282N12212131WA0094100962005003032354000
B1611013833286N12212132WA0094100964005003032354000
B1611023833291N12212132WA0094200965005003032355000
B1611033833295N12212133WA0094300967005003031358000
B1611043833300N12212132WA0094500968005003030002000
B1611053833304N12212132WA0094600969005003030005000
B1611063833309N12212131WA0094800971005003030008000
B1611073833313N12212130WA0094900973005003030013000
B1611083833317N12212128WA0095100975005003030018000
B1611093833321N12212126WA0095200977005003029021000
B1611103833325N12212123WA0095400978005003029027000
B1611113833329N12212120WA0095600980005003031033000
B1611123833333N12212117WA0095800982005003031036000
B1611133833336N12212113WA0096000984005003031039000
B1611143833340N12212109WA0096100986005003031039000
B1611153833343N12212106WA0096300988005003029034000
B1611163833347N12212103WA0096500989005003030029000
B1611173833351N12212101WA0096700991005003029024000
B1611183833356N12212099WA0096700993005003030016000
B1611193833360N12212098WA0096900995005003029012000
B1611203833364N12212096WA0097100996005003029013000
B1611213833368N12212095WA0097200998005003030013000
B1611223833373N12212094WA0097400999005003030014000
B1611233833377N12212092WA0097601001005003031013000
B1611243833382N12212091WA0097801004005003031013000
B1611253833386N12212090WA0097901005005003030013000
B1611263833391N12212088WA0098101007005003031015000
B1611273833395N12212086WA0098301008005003031018000
B1611283833400N12212084WA0098501010005003032020000
B1611293833404N12212082WA0098601012005003032021000
B1611303833409N12212080WA0098801014005003030019000
B1611313833413N12212078WA0099001015005003030018000
B1611323833417N12212076WA0099201017005003030021000
B1611333833422N12212073WA0099301018005003032025000
B1611343833426N12212070WA0099501020005003033026000
B1611353833430N12212067WA0099701022005003032030000
B1611363833434N12212064WA0099701024005003032029000
B1611373833438N12212062WA0099901025005003029023000
B1611383833442N12212061WA0100001026005003029015000
B1611393833447N12212059WA0100201028005003030010000
B1611403833452N12212058WA0100401029005003033011000
B1611413833456N12212056WA0100501031005003033017000
B1611423833461N12212055WA0100701033005003033017000
B1611433833466N12212053WA0100801034005003032017000
B1611443833470N12212050WA0101001036005003032021000
B1611453833475N12212048WA0101101037005003034027000
B1611463833479N12212045WA0101301037005003035030000
B1611473833484N12212041WA0101501039005003034033000
B1611483833487N12212037WA0101601041005003034033000
B1611493833491N12212034WA0101801043005003031030000
B1611503833495N12212032WA0102001045005003030026000
B1611513833500N12212030WA0102101046005003031018000
B1611523833504N12212028WA0102301048005003031013000
B1611533833509N12212027WA0102501049005003031011000
B1611543833512N12212026WA0102501050005003028007000
B1611553833515N12212026WA0102601051005003016001000
B1611563833516N12212026WA0102801051005003016001000
B1611573833518N12212026WA0103001050005003011006000
B1611583833520N12212025WA0103101047005003011008000
B1611593833523N12212025WA0103201045005003016007000
B1612003833526N12212024WA0103201043005003021009000
B1612013833529N12212024WA0103201043005003021017000
B1612023833531N12212022WA0103001042005003018027000
B1612033833533N12212021WA0102901041005003015028000
B1612043833535N12212020WA0102701039005003015020000
B1612053833537N12212019WA0102601037005003018017000
B1612063833540N12212018WA0102401036005003018023000
B1612073833542N12212016WA0102301035005003018031000
B1612083833544N12212014WA0102201034005003017028000
B1612093833546N12212013WA0102001033005003016014000
B1612103833549N12212013WA0101901031005003017004000
B1612113833551N12212013WA0101901030005003017007000
B1612123833554N12212012WA0101701028005003017019000
B1612133833556N12212010WA0101601027005003017029000
B1612143833558N12212009WA0101401027005003014028000
B1612153833560N12212008WA0101301026005003014022000
B1612163833561N12212007WA0101201025005003013024000
B1612173833563N12212005WA0101101023005003013040000
B1612183833565N12212003WA0101001021005003016052000
B1612193833566N12212001WA0100801021005003016049000
B1612203833567N12212000WA0100701020005003013000000
B1612213833568N12212001WA0100601019005003013303359
B1612223833570N12212007WA0100401016005003029288354
B1612233833570N12212014WA0100301014005003040269345
B1612243833568N12212023WA0100101012005003040247342
B1612253833564N12212031WA0100001012005003047235342
B1612263833558N12212037WA0099801011005003048217342
B1612273833552N12212041WA0099601011005003045210344
B1612283833546N12212045WA0099601009005003045206346
B1612293833540N12212049WA0099501007005003045205348
B1612303833533N12212053WA0099401005005003047203350
B1612313833526N12212056WA0099301004005003049202352
B1612323833519N12212060WA0099101003005003049203353
B1612333833512N12212064WA0099001001005003049203354
B1612343833506N12212067WA0098901000005003048202355
B1612353833499N12212071WA0098700998005003048201356
B1612363833492N12212074WA0098700997005003048199356
B1612373833485N12212077WA0098500995005003050196357
B1612383833478N12212079WA0098400994005003050194357
B1612393833471N12212081WA0098200993005003050192358
B1612403833463N12212083WA0098200991005003049190358
B1612413833456N12212084WA0098100990005003049187358
B1612423833449N12212085WA0097900988005003049185358
B1612433833441N12212086WA0097700988005003049182359
B1612443833434N12212086WA0097500987005003048178359
B1612453833428N12212084WA0097300985005003046170000
B1612463833421N12212082WA0097200983005003044161000
B1612473833415N12212079WA0097000983005003043160000
B1612483833409N12212076WA0096900982005003043162000
B1612493833403N12212074WA0096700980005003043164000
B1612503833396N12212072WA0096600978005003043165000
B1612513833389N12212070WA0096400976005003045165000
B1612523833382N12212067WA0096400975005003048165000
B1612533833375N12212065WA0096300974005003048167359
B1612543833368N12212064WA0096100972005003047171359
B1612553833362N12212063WA0096000971005003047170359
B1612563833356N12212061WA0095800970005003043175359
B1612573833349N12212061WA0095800968005003045194359
B1612583833343N12212065WA0095600967005003059230359
B1612593833338N12212073WA0095400969004003055241359
B1613003833332N12212087WA0095000964005003055225359
B1613013833325N12212091WA0095000962005003053202359
B1613023833317N12212095WA0094700961005003051199359
B1613033833310N12212098WA0094400959005003053209359
B1613043833304N12212103WA0094100958005003051220359
B1613053833299N12212110WA0094100956005003050223359
B1613063833293N12212116WA0093900954005003048217359
B1613073833287N12212121WA0093800951005003051209359
B1613083833280N12212125WA0093600948005003053205359
B1613093833272N12212130WA0093600945005003053207359
B1613103833265N12212136WA0093500943005003056210359
B1613113833258N12212140WA0093300942005003056205359
B1613123833250N12212143WA0093100940005003052194359
B1613133833243N12212144WA0093100939005003052183359
B1613143833235N12212144WA0092900938005003051178359
B1613153833228N12212144WA0092700937005003048180359
B1613163833222N12212144WA0092500936005003046183359
B1613173833214N12212144WA0092500933005003048180359
B1613183833207N12212144WA0092300932005003049178359
B1613193833200N12212144WA0092200929005003048178000
B1613203833193N12212144WA0092000928005003047170000
B1613213833189N12212142WA0091800927005003041151000
B1613223833185N12212138WA0091500928004003039128000
B1613233833181N12212131WA0091100928005003043146000
B1613243833175N12212126WA0091100928004004043180359
B1613253833167N12212127WA0090800926005003051190359
B1613263833159N12212129WA0090500925005003051190359
B1613273833152N12212129WA0090300922005003044180359
B1613283833146N12212128WA0090100920005003044168000
B1613293833139N12212125WA0090100917005003043163000
B1613303833133N12212123WA0090000916005003043163000
B1613313833126N12212120WA0089900914005003044166000
B1613323833119N12212118WA0089700911005003047169359
B1613333833112N12212116WA0089600910005003047167359
B1613343833106N12212115WA0089400908005003042178359
B1613353833099N12212115WA0089200907005003042195359
B1613363833092N12212118WA0089000907004003051200359
B1613373833083N12212122WA0088800909005004058191359
B1613383833074N12212123WA0088500909005003058180359
B1613393833067N12212122WA0088200909005003053171000
B1613403833062N12212121WA0088000907005003043167000
B1613413833056N12212119WA0088000905005003037165000
B1613423833050N12212117WA0087900901005003042166000
B1613433833044N12212115WA0087800898005003047164000
B1613443833037N12212112WA0087700895005003046157000
B1613453833031N12212108WA0087600894005003046151000
B1613463833026N12212104WA0087600892005003042147000
B1613473833021N12212101WA0087500891005003038151000
B1613483833016N12212098WA0087300890005003038162000
B1613493833012N12212095WA0087100885005003036152000
B1613503833008N12212092WA0087100884005003033122000
B1613513833007N12212086WA0086900883005003032076000
B1613523833008N12212080WA0086600886004004035089000
B1613533833008N12212074WA0086200887005004037133000
B1613543833005N12212068WA0086200886005005037155000
B1613553833001N12212067WA0085800885005005037151000
B1613563832996N12212063WA0085500872004004034133000
B1613573832995N12212059WA0085200868005003025110000
B1613583832995N12212055WA0085200864005003025095000
B1613593832996N12212051WA0085000862005003023090000
B1614003832996N12212048WA0084900860005003020084000
B1614013832997N12212045WA0084700857005003017074000
B1614023832998N12212043WA0084700855005003016064000
B1614033832999N12212040WA0084600852005003018055000
B1614043833001N12212037WA0084400850005003018056000
B1614053833002N12212033WA0084100849005003021065000
B1614063833003N12212029WA0084100848005003022076000
B1614073833004N12212025WA0084000847005003021078000
B1614083833005N12212021WA0083800845005003021074000
B1614093833005N12212018WA0083600842004003018083000
B1614103833005N12212019WA0083600835005003008174000
B1614113833003N12212018WA0083400835005003008163000
B1614123832999N12212014WA0083100826005003037139000
B1614133832995N12212009WA0082700827005003048133000
B1614143832989N12212002WA0082700830005003042131000
B1614153832985N12211996WA0082100830005003042138000
B1614163832982N12211993WA0081400828005003031151000
B1614173832979N12211991WA0080900826004004023159000
B1614183832975N12211990WA0080900823005004027150000
B1614193832972N12211987WA0080600820005004027137000
B1614203832968N12211982WA0080400820005004034123000
B1614213832966N12211976WA0080300821005004036115000
B1614223832964N12211968WA0080300820005004036110000
B1614233832964N12211965WA0080100819005004029085000
B1614243832965N12211962WA0079900817005004016074000
B1614253832966N12211961WA0079700814005004016037000
B1614263832969N12211959WA0079700809005004021035000
B1614273832972N12211956WA0079500805005003021038000
B1614283832976N12211953WA0079300804005003026037000
B1614293832979N12211950WA0079100802005003026032000
B1614303832982N12211949WA0079100801005003019026000
B1614313832984N12211947WA0079000799005003019031000
B1614323832987N12211945WA0078800796005003019041000
B1614333832989N12211941WA0078600794005003020047000
B1614343832991N12211938WA0078600792005003024047000
B1614353832994N12211935WA0078400791005003023043000
B1614363832996N12211932WA0078200789005003023042000
B1614373832999N12211929WA0078100788005003021045000
B1614383833001N12211926WA0078100786005003021046000
B1614393833004N12211923WA0077900784005003022042000
B1614403833007N12211920WA0077700782005003025039000
B1614413833009N12211917WA0077500781005003025038000
B1614423833011N12211915WA0077500778004003022042000
B1614433833012N12211915WA0077300777005003008167000
B1614443833011N12211914WA0077100777005003008098000
B1614453833010N12211910WA0076800779007004040094000
B1614463833008N12211896WA0076800773005004041096000
B1614473833007N12211889WA0076300774005004040106000
B1614483833005N12211883WA0075800773005004032114000
B1614493833003N12211880WA0075400770005004023117000
B1614503833002N12211876WA0075400769005004023109000
B1614513833000N12211871WA0075000764005004027104000
B1614523832999N12211865WA0074800759005003027104000
B1614533832998N12211859WA0074700758005003033108000
B1614543832996N12211853WA0074700757005003033107000
B1614553832996N12211849WA0074600755005003023094000
B1614563832996N12211846WA0074400753005003023068000
B1614573832999N12211843WA0074200749005003023036000
B1614583833003N12211841WA0074200747005003023019000
B1614593833007N12211840WA0074000746005003028015000
B1615003833011N12211838WA0073800745005003024018000
B1615013833013N12211837WA0073700745005003024022000
B1615023833015N12211836WA0073700744005003016019000
B1615033833017N12211835WA0073500742005003016019000
B1615043833021N12211834WA0073400737005003018021000
B1615053833025N12211832WA0073200738004003026022000
B1615063833027N12211830WA0073200738005003026028000
B1615073833029N12211828WA0073000736004003016035000
B1615083833031N12211827WA0072800734005003016038000
B1615093833034N12211824WA0072700730005003020033000
B1615103833038N12211821WA0072700731005003023034000
B1615113833039N12211819WA0072400730005003023041000
B1615123833041N12211817WA0072200728005003019045000
B1615133833044N12211813WA0072000724005003019041000
B1615143833048N12211810WA0072000724005003026038000
B1615153833050N12211807WA0071800724005003017039000
B1615163833052N12211806WA0071600723005003017043000
B1615173833053N12211803WA0071400721005003017045000
B1615183833057N12211800WA0071400717005003021042000
B1615193833059N12211796WA0071300717005003024044000
B1615203833062N12211793WA0071000716005003022049000
B1615213833064N12211789WA0070800714005003024052000
B1615223833066N12211785WA0070800711005003024052000
B1615233833069N12211781WA0070600709005003028051000
B1615243833072N12211776WA0070400708005003029049000
B1615253833075N12211772WA0070200708005003027050000
B1615263833077N12211769WA0070200707005003027051000
B1615273833079N12211766WA0070000707005003024045000
B1615283833082N12211764WA0069900705005003020028000
B1615293833085N12211763WA0069700702005003020016000
B1615303833089N12211761WA0069700701005003027015000
B1615313833093N12211760WA0069600700005003027017000
B1615323833096N12211758WA0069400699005003026015000
B1615333833099N12211758WA0069300698005003023012000
B1615343833103N12211757WA0069300696005003023011000
B1615353833107N12211756WA0069200694005003026013000
B1615363833110N12211754WA0069000694005003026016000
B1615373833112N12211753WA0068800694005003023019000
B1615383833114N12211753WA0068800692005003014021000
B1615393833116N12211752WA0068700690005003014021000
B1615403833120N12211750WA0068600691005003024020000
B1615413833123N12211748WA0068400692005003024016000
B1615423833126N12211747WA0068400691005003021021000
B1615433833129N12211745WA0068200687005003020021000
B1615443833133N12211744WA0068000684005003020021000
B1615453833137N12211741WA0067800684005003025023000
B1615463833139N12211740WA0067800684005003025030000
B1615473833141N12211738WA0067500682005003016031000
B1615483833143N12211737WA0067300680005003016029000
B1615493833146N12211734WA0067200680005003021027000
B1615503833150N12211732WA0067200680005003022028000
B1615513833153N12211730WA0067000678005003022034000
B1615523833155N12211728WA0066800676005003020034000
B1615533833159N12211726WA0066600672005003020030000
B1615543833162N12211723WA0066600672005003023030000
B1615553833164N12211721WA0066400671005003016037000
B1615563833166N12211720WA0066200670005003016039000
B1615573833167N12211718WA0066000667005003016039000
B1615583833171N12211715WA0066000663005003019035000
B1615593833174N12211712WA0065900663005003023041000
B1616003833175N12211710WA0065600662005003015051000
B1616013833176N12211708WA0065400660005003017051000
B1616023833178N12211705WA0065400659005003017046000
B1616033833181N12211701WA0065300660005003025045000
B1616043833184N12211697WA0065000659005003025051000
B1616053833185N12211694WA0064800657005003015060000
B1616063833186N12211692WA0064800655005003020056000
B1616073833188N12211688WA0064600653005003020053000
B1616083833192N12211683WA0064400654005003029051000
B1616093833194N12211679WA0064200653005003029056000
B1616103833195N12211676WA0064200650005003014060000
B1616113833196N12211674WA0063900649005003021056000
B1616123833199N12211670WA0063800648005003021054000
B1616133833202N12211665WA0063600649005004029055000
B1616143833204N12211661WA0063600648005004029064000
B1616153833205N12211658WA0063300645005004018067000
B1616163833206N12211654WA0063100643005004024061000
B1616173833208N12211649WA0062900639005004024058000
B1616183833210N12211644WA0062900638005003024064000
B1616193833211N12211641WA0062700636005003022072000
B1616203833212N12211637WA0062400634005003024070000
B1616213833213N12211632WA0062300630005003030063000
B1616223833216N12211627WA0062300630005003024058000
B1616233833217N12211624WA0062100630005003023064000
B1616243833218N12211621WA0061800628005003022065000
B1616253833220N12211616WA0061600623005003029061000
B1616263833223N12211611WA0061600624005003027057000
B1616273833225N12211608WA0061400622005003027055000
B1616283833226N12211606WA0061100620005003019047000
B1616293833229N12211604WA0060900616005003019032000
B1616303833233N12211603WA0060900612005003026015000
B1616313833237N12211602WA0060800609005003026008000
B1616323833242N12211601WA0060500608005003029007000
B1616333833246N12211601WA0060300607005003025010000
B1616343833249N12211600WA0060300606005003025012000
B1616353833252N12211599WA0060100604005003022009000
B1616363833256N12211598WA0059900602005003022006000
B1616373833260N12211598WA0059700600006003025005000
B1616383833264N12211597WA0059700599005003026007000
B1616393833267N12211597WA0059500598005003026012000
B1616403833268N12211596WA0059400598005003019030000
B1616413833269N12211595WA0059300596005003011035000
B1616423833271N12211593WA0059300595005003011034000
B1616433833273N12211591WA0059100595005003027035000
B1616443833277N12211587WA0058900596005003027047000
B1616453833278N12211585WA0058700594005003021070000
B1616463833278N12211583WA0058700592005003013066000
B1616473833280N12211580WA0058500590005003013058000
B1616483833282N12211575WA0058300591005003032061000
B1616493833284N12211570WA0058000592005003032075000
B1616503833285N12211565WA0058000592005004026093000
B1616513833284N12211561WA0057700589005004021097000
B1616523833284N12211557WA0057500587005004021081000
B1616533833286N12211549WA0057300583005004038076000
B1616543833287N12211542WA0057300584005004038082000
B1616553833287N12211537WA0057000583005004030087000
B1616563833287N12211533WA0056700582005004022080000
B1616573833288N12211530WA0056600580005004019058000
B1616583833291N12211530WA0056600574005004022010003
B1616593833294N12211530WA0056400574005004024345005
B1617003833298N12211532WA0056100574005004022339009
B1617013833301N12211534WA0055900572005004022340009
B1617023833304N12211535WA0055900570005003018346013
B1617033833306N12211536WA0055700567005003017346014
B1617043833309N12211537WA0055500562005003022343015
B1617053833313N12211539WA0055200558005003022339016
B1617063833316N12211540WA0055200558005003023340018
B1617073833319N12211542WA0055000557005003023344022
B1617083833320N12211542WA0054900555005003005001019
B1617093833321N12211542WA0054700553005003008000022
B1617103833323N12211542WA0054700551005003008349021
B1617113833326N12211543WA0054600553005003019350027
B1617123833331N12211544WA0054400555005003021348026
B1617133833332N12211544WA0054100555005003007004014
B1617143833333N12211543WA0054100553005003007349014
B1617153833334N12211544WA0053900550005003007348013
B1617163833338N12211545WA0053800543005003015350024
B1617173833343N12211546WA0053500544005003027358030
B1617183833347N12211546WA0053500544005003013017024
B1617193833348N12211545WA0053200541005004013049016
B1617203833348N12211544WA0053000538005004013025015
B1617213833350N12211543WA0052800537005004013018013
B1617223833354N12211541WA0052800538005004024020014
B1617233833358N12211538WA0052500539006004022030013
B1617243833361N12211535WA0052100530005004022067010
B1617253833361N12211533WA0051900526005003014067009
B1617263833362N12211531WA0051900524005003014048006
B1617273833365N12211527WA0051700524004004022033005
B1617283833369N12211524WA0051500526005004026033004
B1617293833372N12211522WA0051100527005004026028002
B1617303833374N12211521WA0051100525004004015023002
B1617313833377N12211520WA0050900523005005015021001
B1617323833382N12211518WA0050800511005004022022001
B1617333833387N12211515WA0050500511005004025027001
B1617343833390N12211513WA0050500510005004025044001
B1617353833390N12211512WA0050200507005004013053000
B1617363833391N12211511WA0050000503005003013039000
B1617373833394N12211509WA0049800502005004017026000
B1617383833398N12211505WA0049800504004004033030000
B1617393833402N12211502WA0049600505004004033054000
B1617403833402N12211499WA0049200504005004020083000
B1617413833403N12211497WA0049000502005004013071000
B1617423833404N12211494WA0049000499005004013052000
B1617433833408N12211489WA0048800493005004041045000
B1617443833413N12211482WA0048500493005004041051000
B1617453833415N12211476WA0048200491004004039071000
B1617463833415N12211472WA0048200489004004028096000
B1617473833413N12211473WA0047900481005004019097000
B1617483833413N12211468WA0047800475005004035078000
B1617493833414N12211461WA0047500478005004040073000
B1617503833416N12211453WA0047500479004004036071000
B1617513833418N12211447WA0047100477005005036078000
B1617523833418N12211444WA0046900477005005023083000
B1617533833417N12211442WA0046800466005004027079000
B1617543833418N12211436WA0046800467004004035074000
B1617553833419N12211429WA0046500470004005035069000
B1617563833421N12211423WA0046200469005005035064000
B1617573833423N12211421WA0046000467005004024028000
B1617583833425N12211421WA0046000465005004014320359
B1617593833427N12211425WA0045800461005004024302354
B1618003833429N12211429WA0045600459005004024289349
B1618013833430N12211434WA0045300457005003024274345
B1618023833429N12211439WA0045100455005003024260339
B1618033833428N12211443WA0045100454005003023248336
B1618043833426N12211447WA0045000451005003026238338
B1618053833424N12211452WA0044900449005003026235339
B1618063833421N12211458WA0044700446005003031235345
B1618073833418N12211464WA0044700445005003035236347
B1618083833415N12211469WA0044500444005003031234349
B1618093833413N12211473WA0044400444005003031228350
B1618103833409N12211477WA0044200442005003030223351
B1618113833406N12211481WA0044200440005003030221352
B1618123833402N12211486WA0044100438005003033221353
B1618133833397N12211491WA0043900437005003038223355
B1618143833393N12211495WA0043700437005003038222356
B1618153833391N12211498WA0043700437005003033216357
B1618163833388N12211500WA0043600436005003024214357
B1618173833385N12211503WA0043500434005003024223357
B1618183833382N12211508WA0043400428005003040230358
B1618193833378N12211514WA0043400429005003040230358
B1618203833375N12211519WA0043100429005003036219359
B1618213833373N12211520WA0042900428005003024214359
B1618223833371N12211522WA0042700426005003024224359
B1618233833368N12211526WA0042700424005003035235359
B1618243833365N12211532WA0042500425004003036233359
B1618253833361N12211537WA0042200425005003035220359
B1618263833358N12211539WA0041900424005003026196359
B1618273833355N12211540WA0041900422005003022206359
B1618283833352N12211542WA0041800419005004036224359
B1618293833347N12211549WA0041600420004004039228359
B1618303833343N12211554WA0041200421005004036220359
B1618313833340N12211556WA0041200422004004029197359
B1618323833337N12211557WA0041000419004004023201359
B1618333833333N12211560WA0040800416005004034218359
B1618343833329N12211566WA0040600410005004034227359
B1618353833325N12211572WA0040600410005004040228359
B1618363833322N12211576WA0040200407005004021218359
B1618373833321N12211577WA0039900406005004021193359
B1618383833319N12211578WA0039800403005004018215359
B1618393833317N12211580WA0039800400005004018237359
B1618403833313N12211588WA0039500391006004029246359
B1618413833311N12211595WA0039200393006004035244359
B1618423833309N12211599WA0038900392006004035242359
B1618433833308N12211598WA0038900389005003019209359
B1618443833307N12211599WA0038700387005004016236359
B1618453833305N12211602WA0038500387005004016247359
B1618463833303N12211607WA0038100388004004035251359
B1618473833301N12211615WA0038100387005004035251359
B1618483833299N12211619WA0037800386005005024235359
B1618493833298N12211621WA0037600386004005012242359
B1618503833298N12211622WA0037400381004005012261359
B1618513833297N12211629WA0037400369005004042269359
B1618523833296N12211637WA0037100371005004042264359
B1618533833297N12211641WA0036700367006004038274359
B1618543833297N12211643WA0036500366006004017268359
B1618553833297N12211645WA0036500363005004017274356
B1618563833297N12211651WA0036300357005004033271357
B1618573833297N12211656WA0036000359005004035269358
B1618583833297N12211662WA0035700358005004033271358
B1618593833295N12211661WA0035700356005004023228358
B1619003833294N12211662WA0035500354005004017246358
B1619013833293N12211665WA0035300351006004033258358
B1619023833292N12211671WA0035000353006004040263359
B1619033833291N12211680WA0035000352006004033254359
B1619043833289N12211682WA0034700352005003029237359
B1619053833287N12211684WA0034500350005003018237359
B1619063833285N12211688WA0034300346005003027253359
B1619073833285N12211694WA0034300344005003039263359
B1619083833284N12211702WA0034100344005003032262359
B1619093833284N12211705WA0033700343005003032252359
B1619103833283N12211708WA0033600341005003017248359
B1619113833282N12211712WA0033600338005003028258359
B1619123833281N12211717WA0033400337005003037265359
B1619133833281N12211724WA0033100337005003029273359
B1619143833281N12211728WA0032800335005003029265359
B1619153833281N12211731WA0032800330005003020267359
B1619163833281N12211736WA0032700329005003030272359
B1619173833281N12211743WA0032500329005003034275359
B1619183833281N12211748WA0032200327005003030275359
B1619193833281N12211751WA0032200325005003026269355
B1619203833281N12211753WA0031900323005003018264355
B1619213833281N12211758WA0031700320005003031277356
B1619223833282N12211765WA0031500319005003032277357
B1619233833283N12211771WA0031500317005003031277356
B1619243833283N12211774WA0031200314005003024271356
B1619253833284N12211777WA0031000312005003022276357
B1619263833284N12211783WA0030800307005003031278356
B1619273833285N12211789WA0030800305005003031270352
B1619283833284N12211795WA0030500303004003031256350
B1619293833282N12211800WA0030300301006003030256008
B1619303833277N12211801WA0030100295006003030156007
B1619313833271N12211795WA0030100296006003027130004
B1619323833265N12211786WA0029800298007003027130004
B1619333833261N12211780WA0029400297007003027142003
B1619343833257N12211776WA0029200296006003028144003
B1619353833252N12211771WA0029200294006003033139002
B1619363833247N12211764WA0029000293005003033133001
B1619373833244N12211760WA0028800293005003033130001
B1619383833242N12211757WA0028700290005003025134001
B1619393833239N12211753WA0028700288005003025134001
B1619403833235N12211748WA0028700287005003032135000
B1619413833230N12211742WA0028600286005003034136000
B1619423833227N12211738WA0028300286005003034138000
B1619433833226N12211737WA0028300283005003025142000
B1619443833223N12211734WA0028200280005003025138000
B1619453833220N12211731WA0028100279004003025133000
B1619463833215N12211724WA0027800280005003033126000
B1619473833212N12211719WA0027800281005003033131000
B1619483833210N12211717WA0027600278005003021136000
B1619493833208N12211713WA0027400276006003021133000
B1619503833204N12211709WA0027300274005003025128000
B1619513833200N12211702WA0027300273005003038123000
B1619523833197N12211696WA0027000273005003038125000
B1619533833195N12211693WA0026800271005003026131000
B1619543833193N12211690WA0026600267005003026129000
B1619553833190N12211686WA0026600265005003026127000
B1619563833186N12211680WA0026500264005003032126000
B1619573833184N12211675WA0026200263004003032125000
B1619583833182N12211671WA0026000260005003025117000
B1619593833180N12211666WA0026000257005003025117000
B1620003833177N12211660WA0025900253005003028123000
B1620013833174N12211654WA0025700254005003027131000
B1620023833172N12211652WA0025400253005003027138000
B1620033833169N12211649WA0025400250005003023134000
B1620043833167N12211645WA0025200249005003023127000
B1620053833164N12211639WA0025100248005003033117000
B1620063833162N12211633WA0024800247005003034105000
B1620073833161N12211627WA0024800246005003034095000
B1620083833161N12211622WA0024600245005003029090000
B1620093833161N12211617WA0024400243005003026092000
B1620103833161N12211612WA0024200241005003026094000
B1620113833161N12211606WA0024200239005003032096000
B1620123833160N12211599WA0024000238005003033097000
B1620133833160N12211593WA0023900236005003033097000
B1620143833159N12211586WA0023700235005003034098000
B1620153833158N12211580WA0023700232005003034100000
B1620163833157N12211574WA0023500231005003035101000
B1620173833156N12211567WA0023300229005003035101000
B1620183833155N12211560WA0023000228005003035098000
B1620193833154N12211554WA0023000226005003034095000
B1620203833154N12211548WA0022800225005003033094000
B1620213833153N12211543WA0022600223005003029099000
B1620223833153N12211537WA0022400222005003030101000
B1620233833152N12211531WA0022400220005003030101000
B1620243833151N12211525WA0022200219005003031101000
B1620253833150N12211519WA0022000218005003031100000
B1620263833149N12211514WA0021800215005003030100000
B1620273833148N12211509WA0021800214005003030102000
B1620283833147N12211504WA0021600212005003026099000
B1620293833147N12211500WA0021400210005003025092000
B1620303833147N12211495WA0021200207005003025087000
B1620313833148N12211488WA0021200205005003032087000
B1620323833148N12211482WA0021000204005003032090000
B1620333833147N12211476WA0020800202005003032092000
B1620343833147N12211470WA0020700200005003032092000
B1620353833147N12211464WA0020700199005003034092000
B1620363833147N12211457WA0020400198005003034093000
B1620373833147N12211451WA0020200197005003034095000
B1620383833146N12211445WA0020000196005003032098000
B1620393833145N12211440WA0020000195005003030099000
B1620403833145N12211435WA0019800193005003028097000
B1620413833144N12211429WA0019700193005003030092000
B1620423833144N12211423WA0019500190005003030090000
B1620433833144N12211417WA0019500189005003032087000
B1620443833145N12211411WA0019400189005003029084000
B1620453833145N12211405WA0019200187005003029080000
B1620463833146N12211400WA0019000186005003028079000
B1620473833147N12211395WA0019000185005003028080000
B1620483833148N12211389WA0018800184005003029080000
B1620493833149N12211383WA0018600183005003030079000
B1620503833150N12211377WA0018400182005003030077000
B1620513833151N12211372WA0018400181005003029075000
B1620523833152N12211368WA0018300180005003028066000
B1620533833154N12211363WA0018100178005003027060000
B1620543833158N12211361WA0017900175005003028029000
B1620553833162N12211358WA0017900174006003029022000
B1620563833166N12211357WA0017700174005003029012000
B1620573833171N12211356WA0017500173005003029010000
B1620583833174N12211355WA0017300171005003026008000
B1620593833178N12211355WA0017300170005003024002000
B1621003833182N12211355WA0017200168005003026358000
B1621013833186N12211356WA0017000167006003026352000
B1621023833190N12211357WA0016900166005003026345003
B1621033833194N12211358WA0016900166005003026333003
B1621043833197N12211361WA0016800165005003025323002
B1621053833200N12211365WA0016700163005003026317000
B1621063833202N12211368WA0016600162005003025317359
B1621073833205N12211371WA0016600162005003025322005
B1621083833208N12211373WA0016500160005003023335015
B1621093833212N12211374WA0016400158005003023354027
B1621103833215N12211373WA0016300156005003028009034
B1621113833220N12211371WA0016300154005003028020034
B1621123833224N12211369WA0016100154005003031023026
B1621133833228N12211367WA0015900152005003031024022
B1621143833233N12211364WA0015800151005003030022015
B1621153833237N12211362WA0015800149005003030022011
B1621163833241N12211359WA0015500149005003030023009
B1621173833245N12211357WA0015300148005003029024008
B1621183833249N12211355WA0015100146005003028022006
B1621193833253N12211354WA0015100145005003028016004
B1621203833257N12211352WA0015000143005003030011003
B1621213833262N12211351WA0014800142005003030011002
B1621223833266N12211350WA0014700141005003030012002
B1621233833270N12211349WA0014700141005003029011001
B1621243833274N12211348WA0014500141005003027006001
B1621253833278N12211348WA0014400141005003027005000
B1621263833281N12211347WA0014200140005003023009001
B1621273833283N12211347WA0014200139005003020014000
B1621283833285N12211346WA0014100139005003016013000
B1621293833287N12211346WA0014000139005003011007000
B1621303833288N12211345WA0014000139005003012004000
B1621313833290N12211345WA0014000139005003012358000
B1621323833292N12211346WA0014000139005003012000000
B1621333833293N12211346WA0014000139005003011005000
B1621343833295N12211345WA0014000138005003009005000
B1621353833296N12211345WA0014000138005003010008000
B1621363833298N12211345WA0014000138005003010010000
B1621373833299N12211345WA0014000138005003010001000
B1621383833300N12211345WA0014000138005003009000000
B1621393833301N12211345WA0014000138005003006007000
B1621403833302N12211345WA0014000138005003006349000
B1621413833302N12211345WA0014000138005003006349000
B1621423833302N12211345WA0014000138005003000349000
B1621433833303N12211345WA0014000138005003002349000
B1621443833303N12211345WA0014000138005003002349000
B1621453833303N12211345WA0014000138005003000349000
B1621463833303N12211345WA0014000138005003000349000
B1621473833303N12211345WA0014000138005003000349000
B1621483833303N12211345WA0014000138005003001349000
B1621493833303N12211345WA0014000138005003000349000
B1621503833303N12211345WA0014000138005003000349000
B1621513833303N12211345WA0014000137005003000349000
B1621523833303N12211345WA0014000137005003000349000
B1621533833302N12211345WA0014000137005003000349000
B1621543833302N12211345WA0014000137005003000349000
B1621553833302N12211345WA0014000137005003000349000
B1621563833302N12211345WA0014000137005003000349000
B1621573833302N12211345WA0014000137005003000349000
B1621583833302N12211345WA0014000137005003000349000
B1621593833302N12211345WA0014000137005003000349000
B1622003833303N12211345WA0014000137005003000349000
B1622013833303N12211344WA0014000137005003000349000
B1622023833302N12211344WA0014000137005003000349000
B1622033833302N12211344WA0014000137005003000349000
B1622043833303N12211344WA0014000137005003001349000
B1622053833303N12211344WA0014000137005003000349000
B1622063833303N12211344WA0014000137005003000349000
B1622073833303N12211344WA0014000137005003000349000
B1622083833303N12211344WA0014000137005003002349000
B1622093833303N12211344WA0014000137005003002349000
B1622103833303N12211343WA0014000137005003002349000
GHpNuSjBCbCQ/L1Ip54A4I4plBcRyN4Hryu8X4yXctFHwafu6K2U2jBIpHfRmqGoO
Guc1c5lUYhRsVETx0HcMYUbgk/YCt9UEuh9RyqAXYhIuT/l1ZwfMEA8T4E+lv+mKT
GIbfxmTzzlZrhbhcxwcFPT8JP7BXoNWv8RZ9WhHvpNEw=
