AXFH000
HFDTE290726
HFPLTPILOT:KaranS
HFGTYGLIDERTYPE:Phi Symphonia 2
HFDTM100GPSDATUM:WGS84
HFRFWFIRMWAREVERSION:9.7
HFRHWHARDWAREVERSION:iPhone 17 Pro
HFFTYFRTYPE:Flyskyhy,9.7
HFGPS:Internal
HFPRSVARIO:XC Tracer
HFCCLCOMPETITIONCLASS:Paraglider
HFTZNTIMEZONE:-7
HFSITSITE:Mission Ridge (Fremont- San Jose),US
I053638FXA3941VXA4244GSP4547CCO4850HDT
C290726000127280726000104TASK
C0000000N00000000ETAKEOFF
C3700930N11922401W00004009999999000000360000STARTAREA TOLLLN
C3701998N11923196W00000000000400000000360000TURNAREA ROCK
C3702346N11924055W00000000000400000000360000TURNAREA Waypoint
C3701330N11924626W00000000000400000000360000TURNAREA KNOB
C3700122N11924745W00000000000400000000360000TURNAREA LODGE
C3700840N11924023W00000000000400000000360000FINISHAREA TOLLLZ
C0000000N00000000ELANDING
E000156PEVBackground
B0001563731050N12153513WA0058400584001003000026130
B0001573731050N12153513WA0058400584001003000026131
B0001583731050N12153513WA0058400584001003000026126
B0001593731050N12153513WA0058400584002003000026098
B0002003731050N12153513WA0058400584002003000026123
B0002013731050N12153513WA0058400584002003000026105
B0002023731050N12153513WA0058400584002003000026090
B0002033731050N12153513WA0058400584002003000026094
B0002043731050N12153513WA0058400584002003000026098
B0002053731050N12153513WA0058400584002003000026104
B0002063731050N12153513WA0058400584002003000026104
B0002073731050N12153513WA0058400584001003000026108
B0002083731050N12153513WA0058400584001003001300156
B0002093731050N12153514WA0058400584001003001250157
B0002103731050N12153514WA0058400584002003002250170
B0002113731050N12153514WA0058400584003003003074202
B0002123731050N12153513WA0058500584003003003074060
B0002133731050N12153514WA0058400584003003002254333
B0002143731050N12153514WA0058400584003003002288340
B0002153731050N12153515WA0058300584003003004280310
B0002163731051N12153517WA0058300584003003006271334
B0002173731050N12153519WA0058200585003003006253322
B0002183731049N12153520WA0058300585004003007241332
B0002193731049N12153522WA0058300584004003008268331
B0002203731049N12153524WA0058200584004003008286321
B0002213731049N12153525WA0058100583004003008256303
B0002223731048N12153527WA0057900583003003008219307
B0002233731046N12153529WA0057700581003003012218306
B0002243731044N12153532WA0057500581003003014232303
B0002253731042N12153535WA0057400581003003014241317
B0002263731040N12153539WA0057400581003003015238305
B0002273731039N12153542WA0057600581003003016237325
B0002283731038N12153545WA0057500579003003016238348
B0002293731036N12153548WA0057500578003003016239348
B0002303731035N12153552WA0057300576003003017243348
B0002313731033N12153557WA0057200574002003020248354
B0002323731032N12153562WA0057100573003003020253354
B0002333731031N12153567WA0057200574003003020255357
B0002343731030N12153570WA0057300574002003020263018
B0002353731031N12153573WA0057200573002003018284025
B0002363731032N12153576WA0057100572002003020294027
B0002373731034N12153580WA0057200572002003020295019
B0002383731036N12153585WA0057400573002003021294035
B0002393731037N12153589WA0057600574004003018304029
B0002403731038N12153590WA0057800575004003018321029
B0002413731040N12153591WA0057900576004003015331027
B0002423731043N12153592WA0057900576004003015329023
B0002433731046N12153595WA0057900576004003024325017
B0002443731049N12153597WA0058000577004003024326015
B0002453731051N12153599WA0058100578004003023340015
B0002463731054N12153599WA0058200578004003019001012
B0002473731056N12153599WA0058100578004003016353009
B0002483731059N12153600WA0058000577004003018329004
B0002493731061N12153603WA0058000577004003018313005
B0002503731063N12153606WA0058000577004003018302009
B0002513731064N12153608WA0057900577004003010281010
B0002523731064N12153610WA0057900576004003010281002
B0002533731064N12153612WA0057700575004003010287002
B0002543731065N12153615WA0057600574004003013287009
B0002553731066N12153618WA0057500573004003020284007
B0002563731067N12153622WA0057400571004003023283006
B0002573731067N12153627WA0057300572004003023277011
B0002583731068N12153631WA0057300572004003023274011
B0002593731068N12153635WA0057300571004003022279017
B0003013731069N12153640WA0057300571004003023291023
B0003023731071N12153644WA0057200570004003023297025
B0003033731072N12153649WA0057200571004003026290020
B0003043731073N12153655WA0057300571004003032282016
B0003053731075N12153660WA0057300571004003032286016
B0003063731076N12153665WA0057500572004003030296028
B0003073731078N12153668WA0057600573004003025317028
B0003083731081N12153669WA0057600573005003019332024
B0003093731083N12153671WA0057600573004003019336023
B0003103731086N12153672WA0057500571004003019334020
B0003113731089N12153674WA0057300570004003021334015
B0003123731093N12153676WA0057200569004003028337013
B0003133731097N12153678WA0057000568004003028341012
B0003143731101N12153680WA0056900567004003027343010
B0003153731105N12153681WA0056800565004003026345009
B0003163731109N12153682WA0056600563004003028349007
B0003173731113N12153683WA0056500561004003028351006
B0003183731117N12153683WA0056400560004003028349005
B0003193731121N12153684WA0056200559004003027349004
B0003203731125N12153685WA0056100557004003027350003
B0003213731129N12153686WA0055900555004003029351003
B0003223731134N12153687WA0055800553004003029353002
B0003233731139N12153687WA0055600553004003031354001
B0003243731143N12153688WA0055500552004003031350001
B0003253731148N12153690WA0055400551004003031343001
B0003263731152N12153692WA0055400551004003031341000
B0003273731156N12153693WA0055500551004003029345000
B0003283731160N12153694WA0055500551004003025351000
B0003293731163N12153694WA0055400550004003026350000
B0003303731167N12153696WA0055300549004003026345000
B0003313731172N12153697WA0055300549004003028341000
B0003323731176N12153699WA0055400550004003027342000
B0003333731179N12153700WA0055500552004003027347000
B0003343731182N12153701WA0055600552004003023350000
B0003353731184N12153701WA0055700552004003017348000
B0003363731186N12153702WA0055600551004003018345000
B0003373731190N12153703WA0055500550004003023346000
B0003383731194N12153704WA0055400549004003023346000
B0003393731198N12153705WA0055300548004003027343000
B0003403731201N12153707WA0055200548004003023339000
B0003413731204N12153708WA0055200547004003023344000
B0003423731207N12153709WA0055100546004003020346000
B0003433731210N12153710WA0055000545004003020343000
B0003443731213N12153712WA0054900543004003022336000
B0003453731216N12153714WA0054700542004003025327000
B0003463731220N12153717WA0054600541004003025319000
B0003473731223N12153721WA0054600541004003030317000
B0003483731226N12153725WA0054700542004003029318000
B0003493731229N12153729WA0054800544004003029319000
B0003503731232N12153731WA0055000546004003025326000
B0003513731235N12153733WA0055200548004003022337000
B0003523731239N12153734WA0055400550005003026342000
B0003533731243N12153735WA0055600552004003028349000
B0003543731247N12153736WA0055700553004003026357000
B0003553731250N12153736WA0055800554004003026001000
B0003563731254N12153735WA0055900554004003022000000
B0003573731257N12153736WA0055900554004003025357000
B0003583731262N12153736WA0055800553004003025356000
B0003593731266N12153736WA0055800553004003030001000
B0004003731271N12153735WA0055800553004003032004000
B0004013731276N12153735WA0055800553004003033001000
B0004023731281N12153736WA0055800553004003032351000
B0004033731285N12153737WA0055800554004003032344000
B0004043731289N12153739WA0055900554004003029344000
B0004053731294N12153740WA0055900554004003029348000
B0004063731297N12153741WA0055900554004003028350000
B0004073731301N12153742WA0055900554004003028348000
B0004083731306N12153743WA0055900554004003030342000
B0004093731310N12153745WA0055900553004003032337000
B0004103731314N12153748WA0055900554004003030337000
B0004113731318N12153749WA0055900554004003028340000
B0004123731321N12153751WA0055900554004003024340000
B0004133731325N12153752WA0055900553004003026339000
B0004143731329N12153754WA0055800553004003026340000
B0004153731333N12153756WA0055800553004003028339000
B0004163731336N12153758WA0055800553004003027338000
B0004173731340N12153760WA0055900554004003027337000
B0004183731347N12153764WA0056000554004003026336000
B0004193731351N12153766WA0056000554004003026335000
B0004203731354N12153768WA0056000554004003025331000
B0004213731357N12153770WA0056000553004003025331000
B0004223731360N12153772WA0055900552004003023335000
B0004233731363N12153773WA0055700551004003022336000
B0004243731366N12153776WA0055600550004003023326000
B0004253731368N12153778WA0055500549004003023311000
B0004263731370N12153781WA0055500550004003021291001
B0004273731371N12153784WA0055500550004003019268002
B0004283731370N12153787WA0055400549004003013255003
B0004293731369N12153789WA0055300548004003013235002
B0004303731368N12153790WA0055200546004003013211358
B0004313731365N12153791WA0055000545004003013192347
B0004323731362N12153791WA0054800543004003023177341
B0004333731358N12153789WA0054700542004003027156338
B0004343731354N12153786WA0054600541004003027146339
B0004353731350N12153783WA0054600541004003030143341
B0004363731347N12153780WA0054600541004003028145346
B0004373731343N12153777WA0054600541004003028149349
B0004383731340N12153775WA0054500540004003026152351
B0004393731336N12153772WA0054500540004003026151351
B0004403731332N12153770WA0054500540004003031147351
B0004413731328N12153766WA0054500541004003031144352
B0004423731325N12153763WA0054600541004003031140353
B0004433731321N12153759WA0054700541004003030140354
B0004443731317N12153756WA0054700541004003031142356
B0004453731314N12153752WA0054800543004003031146357
B0004463731310N12153750WA0055000545004003031152358
B0004473731306N12153748WA0055200547005003028163358
B0004483731303N12153748WA0055400549004003021172358
B0004493731300N12153747WA0055600551005003021175359
B0004503731298N12153747WA0055700552004003019178359
B0004513731295N12153747WA0055700552004003018179357
B0004533731292N12153747WA0055700552004003019180353
B0004543731289N12153747WA0055600551004003022173348
B0004553731285N12153746WA0055600551004003022162351
B0004563731281N12153743WA0055600551005003026153350
B0004573731277N12153741WA0055600552005003029151351
B0004583731274N12153738WA0055700553004003029152352
B0004593731270N12153736WA0055900554004003028148353
B0005003731267N12153732WA0056000556004003028140354
B0005013731264N12153729WA0056100556004003028131354
B0005023731261N12153725WA0056200557004003028133355
B0005033731258N12153722WA0056100556004003027144356
B0005043731254N12153719WA0056100556004003027155357
B0005053731250N12153717WA0056100557004003031162358
B0005063731246N12153716WA0056200557004003031167358
B0005073731242N12153715WA0056300557004003028168359
B0005083731238N12153714WA0056300557005003026167359
B0005093731234N12153713WA0056300557004003028167359
B0005103731230N12153712WA0056300558004003031163359
B0005113731225N12153709WA0056400559004003031155359
B0005123731221N12153706WA0056500561004003033145359
B0005133731217N12153702WA0056700561005003033135359
B0005143731214N12153698WA0056800562004003033131359
B0005153731211N12153693WA0056900563004003031132359
B0005163731207N12153689WA0056900562004003031137359
B0005173731204N12153685WA0056900562004003034140359
B0005183731199N12153681WA0056800561004003035142359
B0005193731195N12153677WA0056800562004003034142359
B0005203731191N12153673WA0056800561004003035142359
B0005213731187N12153669WA0056800561004003034143359
B0005223731183N12153666WA0056800562004003034149359
B0005233731179N12153664WA0056800562004003033156359
B0005243731175N12153662WA0056800563004003029162359
B0005253731172N12153661WA0056800562004003024161359
B0005263731168N12153659WA0056800561005003027159359
B0005273731163N12153657WA0056700560004003027160359
B0005283731158N12153655WA0056600560004003034162359
B0005293731152N12153653WA0056600560004003037165359
B0005303731148N12153652WA0056700562004003037169359
B0005313731144N12153652WA0056700562004003030173359
B0005323731141N12153651WA0056600561004003024177358
B0005333731137N12153651WA0056600560006003026181355
B0005343731133N12153652WA0056500560006003028180355
B0005353731129N12153651WA0056500561004003027177356
B0005363731125N12153651WA0056600561004003027174356
B0005373731122N12153651WA0056500561004003022180357
B0005383731119N12153652WA0056400559004003022199356
B0005393731116N12153655WA0056300557004003022224004
B0005403731115N12153659WA0056200556004003022248017
B0005413731115N12153663WA0056100554004003026275019
B0005423731117N12153668WA0055900553004003028308022
B0005433731121N12153671WA0055700551004003028333022
B0005443731126N12153673WA0055700551004003032343017
B0005453731131N12153674WA0055600551004003030347015
B0005463731134N12153675WA0055600551004003030346011
B0005473731138N12153676WA0055600550004003026345009
B0005483731142N12153677WA0055500549004003025345007
B0005493731146N12153679WA0055400548004003027347006
B0005503731150N12153679WA0055400548004003027351005
B0005513731154N12153680WA0055300548004003027354004
B0005523731157N12153681WA0055300548004003025349003
B0005533731160N12153682WA0055300548004003021341002
B0005543731163N12153683WA0055300547004003026343002
B0005553731168N12153684WA0055300547004003026346001
B0005563731172N12153686WA0055400549004003030343001
B0005573731176N12153688WA0055500550004003027339001
B0005583731179N12153689WA0055600551004003027342000
B0005593731182N12153690WA0055700552004003022344000
B0006003731186N12153691WA0055700552004003022338000
B0006013731189N12153693WA0055800552004003026336000
B0006023731193N12153695WA0055700552005003026342000
B0006033731196N12153696WA0055800552004003024349000
B0006043731199N12153697WA0055900552004003021347000
B0006053731202N12153698WA0055900553004003019341000
B0006063731205N12153699WA0055900553004003021338000
B0006073731207N12153700WA0056000553004003020333000
B0006083731210N12153703WA0056000554004003020317000
B0006093731211N12153706WA0056100556004003019288000
B0006103731211N12153709WA0056200556004003020270000
B0006113731210N12153713WA0056300557004003019249002
B0006123731209N12153716WA0056400558004003019228004
B0006133731206N12153718WA0056400557004003017207352
B0006143731204N12153719WA0056200556004003020190343
B0006153731200N12153718WA0056000553004003020174337
B0006163731195N12153717WA0055800551004003026159336
B0006173731191N12153713WA0055500549004003038148335
B0006183731186N12153709WA0055400548004003040142336
B0006193731181N12153704WA0055400549004003038138338
B0006203731178N12153700WA0055500549004003037135339
B0006213731175N12153696WA0055500550004003030135342
B0006223731172N12153692WA0055500550004003030134346
B0006233731169N12153687WA0055500549004003030133348
B0006243731160N12153680WA0055500549004003033150353
B0006253731156N12153677WA0055500550004003031154354
B0006263731152N12153675WA0055500550004003031154355
B0006273731148N12153673WA0055500550004003029156356
B0006283731144N12153671WA0055600549004003029164357
B0006293731140N12153671WA0055500548004003028181358
B0006303731136N12153673WA0055400547004003028207358
B0006313731134N12153677WA0055200546004003026235007
B0006323731134N12153681WA0055100545004003024271011
B0006333731136N12153684WA0055100545004003023307012
B0006343731139N12153687WA0055000545004003026332012
B0006353731143N12153688WA0055000545004003025345011
B0006363731146N12153689WA0055000545004003025347008
B0006373731150N12153690WA0054900544004003024347007
B0006383731154N12153691WA0054800542004003027346006
B0006393731158N12153692WA0054800542004003027349005
B0006403731162N12153693WA0054700541004003027354004
B0006413731166N12153693WA0054700541004003025357003
B0006423731169N12153693WA0054600541004003025355002
B0006433731172N12153694WA0054600540004003023348002
B0006443731176N12153695WA0054600540004003023340001
B0006453731179N12153697WA0054600540004003026333001
B0006463731182N12153700WA0054700541004003026328000
B0006473731185N12153702WA0054800542004003024325000
B0006483731187N12153704WA0054800543004003021331000
B0006493731190N12153705WA0054800543004003018338000
B0006503731192N12153706WA0054700541004003021338000
B0006523731196N12153708WA0054600541004003021335000
B0006533731199N12153710WA0054500541004003025334000
B0006543731203N12153712WA0054400540004003026335000
B0006553731206N12153715WA0054300540004003026333000
B0006563731209N12153717WA0054300539004003024330000
B0006573731212N12153719WA0054300539004003024331000
B0006583731216N12153721WA0054300538004003028335000
B0006593731220N12153723WA0054300539004003029336000
B0007003731224N12153725WA0054500540004003028336000
B0007013731227N12153727WA0054700542004003027339000
B0007023731230N12153728WA0054800543004003019343000
B0007033731233N12153729WA0054900544004003022344000
B0007043731237N12153730WA0054900543004003022345000
B0007053731241N12153731WA0055000544004003025354000
B0007063731246N12153731WA0055200546004003031004000
B0007073731250N12153729WA0055300548006003031013000
B0007083731255N12153728WA0055500548005003030013000
B0007093731259N12153727WA0055600549004003028005000
B0007103731262N12153728WA0055700550004003025355000
B0007113731266N12153728WA0055700550004003027352000
B0007123731270N12153729WA0055800550005003027357000
B0007133731275N12153729WA0055800551005003029002000
B0007143731279N12153729WA0055900552004003027000000
B0007153731283N12153729WA0056100554004003027355000
B0007163731287N12153729WA0056200555004003026356000
B0007173731291N12153729WA0056300557004003026359000
B0007183731294N12153729WA0056500559004003023359000
B0007193731298N12153730WA0056700560004003023355000
B0007203731301N12153730WA0056700560004003023349000
B0007213731304N12153731WA0056800561004003023349000
B0007223731308N12153732WA0056800561004003022351000
B0007233731311N12153733WA0056700561004003022345000
B0007243731314N12153734WA0056700560004003022337000
B0007253731318N12153736WA0056600560004003024339000
B0007263731322N12153737WA0056500559004003028346000
B0007273731326N12153738WA0056500559004003028344000
B0007283731329N12153741WA0056400558004003028333000
B0007293731333N12153744WA0056400557004003027319000
B0007303731335N12153747WA0056300557004003026317000
B0007313731338N12153750WA0056300557004003026321000
B0007323731341N12153753WA0056400558004003025321000
B0007333731344N12153756WA0056400557004003023317000
B0007343731346N12153758WA0056300557004003022311000
B0007353731348N12153762WA0056300557004003023307000
B0007363731350N12153765WA0056200556004003023310000
B0007373731353N12153768WA0056200556004003023317000
B0007383731355N12153771WA0056200556005003023323000
B0007393731358N12153773WA0056200556004003024323000
B0007403731361N12153776WA0056200556004003024325000
B0007413731365N12153779WA0056100555004003025331000
B0007423731368N12153781WA0056200555004003026333000
B0007433731372N12153783WA0056200556004003026331000
B0007443731375N12153786WA0056200556004003025325000
B0007453731377N12153788WA0056200556004003023319000
B0007463731379N12153791WA0056200556004003021318000
B0007473731382N12153793WA0056200556004003022325000
B0007483731385N12153795WA0056200555004003021337000
B0007493731387N12153796WA0056000553004003021349000
B0007503731391N12153797WA0055800551004003022340000
B0007513731394N12153800WA0055600549004003025321000
B0007523731396N12153803WA0055500550004003025303000
B0007533731398N12153807WA0055500550004003025302000
B0007543731400N12153811WA0055600552004003020311000
B0007553731402N12153813WA0055700552004003020318000
B0007563731403N12153815WA0055700552004003017309000
B0007573731405N12153818WA0055700550004003017302000
B0007583731406N12153821WA0055500549004003023304000
B0007593731409N12153825WA0055500549004003026310000
B0008003731412N12153829WA0055500549004003026313000
B0008013731414N12153832WA0055500550004003026316000
B0008023731417N12153835WA0055600550004003024321000
B0008033731420N12153838WA0055600550004003024321000
B0008043731423N12153841WA0055600550004003024320000
B0008053731425N12153843WA0055500549004003023320000
B0008063731428N12153846WA0055500548004003022321000
B0008073731430N12153849WA0055300548004003024323000
B0008083731433N12153852WA0055100546004003024321000
B0008093731437N12153855WA0055000545004003027314000
B0008103731439N12153859WA0055000545004003027309000
B0008113731441N12153863WA0055000545004003027297000
B0008123731442N12153867WA0055000545004003023298000
B0008133731444N12153870WA0055000545004003021300000
B0008143731445N12153873WA0055000545004003020300000
B0008153731447N12153877WA0054900544004003021298000
B0008163731448N12153881WA0054800542004003021299000
B0008173731450N12153885WA0054700541004003024302000
B0008183731453N12153889WA0054600540004003028306000
B0008193731455N12153893WA0054600541004003028311000
B0008203731458N12153897WA0054500540004003027312000
B0008213731460N12153900WA0054500540004003024306000
B0008223731461N12153903WA0054400539004003018288001
B0008233731461N12153906WA0054300537004003018257359
B0008243731459N12153909WA0054200535004003018228349
B0008253731456N12153911WA0054000534004003020196343
B0008263731452N12153910WA0053900534004003024170342
B0008273731449N12153908WA0053900534004003025153339
B0008283731446N12153906WA0053800533005003025144342
B0008293731443N12153903WA0053800532004003025138345
B0008303731437N12153896WA0053600531005003027140349
B0008313731434N12153893WA0053600530005003028140351
B0008323731431N12153889WA0053500529005003028138352
B0008333731427N12153885WA0053400528005003029134354
B0008343731424N12153881WA0053300527004003033131355
B0008353731421N12153876WA0053300527005003034131355
B0008363731417N12153871WA0053300527004003033133356
B0008373731414N12153867WA0053300527004003033137357
B0008383731410N12153863WA0053300527006003032137358
B0008393731407N12153859WA0053300527004003033137358
B0008403731403N12153855WA0053200526004003033136358
B0008413731399N12153850WA0053200526004003035136358
B0008423731395N12153845WA0053200526005003038136359
B0008433731391N12153840WA0053200526006003038135359
B0008443731387N12153835WA0053300527004003038135359
B0008453731382N12153830WA0053500529004003038136359
B0008463731379N12153825WA0053700531004003034134359
B0008473731375N12153820WA0053900533004003034129359
B0008483731373N12153816WA0054100535004003033127359
B0008493731369N12153810WA0054300536004003033128359
B0008503731366N12153805WA0054400538004003037127359
B0008523731363N12153799WA0054600540004003037125359
B0008533731359N12153794WA0054800542004003037128359
B0008543731356N12153789WA0054900542004003035136359
B0008553731353N12153785WA0055000542004003033141359
B0008563731348N12153781WA0055000542005003034141359
B0008573731345N12153777WA0055000542005003033142359
B0008583731341N12153773WA0054900542004003033142359
B0008593731337N12153770WA0054900541004003033145359
B0009003731332N12153766WA0054900542004003033147359
B0009013731328N12153763WA0055000543004003032146359
B0009023731325N12153760WA0055000543005003031142359
B0009033731321N12153756WA0055000543006003032141359
B0009043731317N12153752WA0055000543004003034142359
B0009053731313N12153749WA0055100544004003034151359
B0009063731308N12153746WA0055200546004003034156359
B0009073731304N12153744WA0055300547004003028161359
B0009083731300N12153743WA0055500549004003028163359
B0009093731296N12153741WA0055700549004003028162359
B0009103731292N12153740WA0055800551004003028160359
B0009113731288N12153737WA0056000553004003029157359
B0009123731284N12153735WA0056100554004003029156359
B0009133731280N12153734WA0056200556005003028165359
B0009143731277N12153734WA0056300556004003026187359
B0009153731275N12153736WA0056300556004003019223003
B0009163731274N12153740WA0056200555004003020263012
B0009173731275N12153744WA0056200554004003020296017
B0009183731278N12153747WA0056200554005003025326015
B0009193731282N12153749WA0056200555005003027353014
B0009203731286N12153749WA0056400557005003027002015
B0009213731290N12153748WA0056600557005003027012012
B0009223731294N12153746WA0056900560005003028015010
B0009233731299N12153745WA0057100563004003029009007
B0009243731303N12153745WA0057300565004003029001005
B0009253731306N12153745WA0057500567004003026003004
B0009263731309N12153744WA0057500567004003023012004
B0009273731313N12153742WA0057500566004003025017003
B0009283731317N12153741WA0057400567004003027011002
B0009293731321N12153740WA0057400566004003027356001
B0009303731324N12153742WA0057300566004003027330000
B0009313731326N12153745WA0057200564004003017287000
B0009323731325N12153748WA0057100564004003018229002
B0009333731322N12153750WA0057100564004003018203354
B0009343731318N12153751WA0057100565004003023188347
B0009353731315N12153751WA0057200566004003023175343
B0009363731312N12153749WA0057300567004003023164341
B0009373731308N12153748WA0057300567004003023156341
B0009383731304N12153745WA0057300566004003026146341
B0009393731300N12153741WA0057300567005003033145344
B0009403731296N12153737WA0057400568006003036147346
B0009413731291N12153733WA0057600571005003036145349
B0009423731287N12153729WA0057800573005003036138349
B0009433731284N12153724WA0058000575004003032126349
B0009443731281N12153720WA0058100575004003032121351
B0009453731279N12153715WA0058000574004003028131353
B0009463731275N12153712WA0057900572004003028145355
B0009473731271N12153709WA0057900573004003030153356
B0009483731268N12153707WA0057900573005003030154357
B0009493731266N12153706WA0057900573004003023166359
B0009503731264N12153707WA0057900572006003013204356
B0009513731263N12153709WA0057800571004003015237357
B0009523731262N12153712WA0057700570004003018260003
B0009533731262N12153716WA0057700570004003018283016
B0009543731265N12153719WA0057600570004003020316020
B0009553731269N12153722WA0057600569004003028333025
B0009563731273N12153724WA0057500569004003029337016
B0009573731277N12153726WA0057500569004003029336016
B0009583731281N12153728WA0057500568004003029336014
B0009593731285N12153730WA0057500569004003030342011
B0010003731290N12153731WA0057700570004003032354010
B0010013731295N12153731WA0057900572004003031001009
B0010023731299N12153730WA0058200575004003031005007
B0010033731303N12153730WA0058200574004003025007006
B0010043731306N12153729WA0058200573004003025001004
B0010053731310N12153730WA0058000572005003024342002
B0010063731313N12153733WA0057800570004003024328002
B0010073731317N12153736WA0057600567004003028324001
B0010083731320N12153739WA0057500568004003028327001
B0010093731324N12153741WA0057300567004003028328001
B0010103731327N12153744WA0057300567004003026317000
B0010113731327N12153747WA0057200566005003017279000
B0010123731326N12153750WA0057000564004003022239354
B0010133731323N12153754WA0056900563004003022212348
B0010143731319N12153754WA0056900563004003028187342
B0010153731315N12153753WA0056800563004003025163341
B0010163731312N12153752WA0056800563005003025154339
B0010173731309N12153750WA0056800562005003021157343
B0010183731306N12153749WA0056600560005003021165346
B0010193731302N12153748WA0056500559004003028167348
B0010203731297N12153746WA0056400558004003033164351
B0010213731293N12153744WA0056500560004003031162352
B0010223731289N12153743WA0056700562005003031164354
B0010233731286N12153742WA0056800561005003019172354
B0010243731283N12153742WA0056800560004003019172356
B0010253731280N12153741WA0056600558004003019168356
B0010263731277N12153740WA0056400556004003020169357
B0010273731272N12153740WA0056200554005003029172357
B0010283731268N12153739WA0056100554004003030173358
B0010293731263N12153738WA0056000553004003030173358
B0010303731258N12153738WA0055900553005003031175359
B0010313731254N12153738WA0056000553005003030176359
B0010323731249N12153737WA0056000554004003030172359
B0010333731245N12153736WA0056000554004003030169359
B0010343731240N12153735WA0056100555005003030174359
B0010353731236N12153735WA0056100555004003029179359
B0010363731227N12153735WA0056200556004003029176359
B0010373731222N12153734WA0056200556006003030172359
B0010383731218N12153733WA0056400558005003033166359
B0010393731213N12153731WA0056600560004003031159359
B0010403731209N12153728WA0056800562004003031148359
B0010413731206N12153725WA0056900563005003029140359
B0010423731203N12153721WA0057000563004003029140359
B0010433731199N12153718WA0056900563004003029144359
B0010443731195N12153715WA0056900562004003029151359
B0010453731191N12153713WA0056800562004003029162359
B0010463731187N12153712WA0056700560004003029170359
B0010473731182N12153712WA0056600560004003033173359
B0010483731177N12153711WA0056500560004003033173359
B0010493731172N12153710WA0056500560004003032172359
B0010503731168N12153710WA0056500559005003030172359
B0010513731163N12153709WA0056400559005003029172359
B0010533731159N12153708WA0056400558005003029172359
B0010543731155N12153708WA0056300557005003029173359
B0010553731151N12153707WA0056200556004003029175359
B0010563731147N12153707WA0056200556005003026184359
B0010573731143N12153708WA0056100555004003026209358
B0010583731141N12153712WA0056000553004003026237359
B0010593731140N12153718WA0055800551004003027268014
B0011003731140N12153725WA0055700551005003037298017
B0011013731144N12153730WA0055500552004003037327017
B0011023731149N12153733WA0055400551004003037354017
B0011033731154N12153732WA0055300550006003036005015
B0011043731160N12153731WA0055200548006003032004012
B0011053731165N12153730WA0055100547005003032358009
B0011063731170N12153731WA0054900544004003032355007
B0011073731176N12153731WA0054800543004003034355006
B0011083731182N12153731WA0054700543006003035356005
B0011093731187N12153731WA0054800544005003035000003
B0011103731191N12153731WA0054900544004003030005003
B0011113731194N12153731WA0054900544004003024000002
B0011123731197N12153731WA0054900543004003021345001
B0011133731200N12153733WA0054900543004003026338001
B0011143731204N12153735WA0055000545004003026343001
B0011153731208N12153736WA0055200547004003027349001
B0011163731212N12153737WA0055400549005003023347000
B0011173731215N12153738WA0055500549004003023333000
B0011183731218N12153740WA0055600549004003022318000
B0011193731220N12153744WA0055600549004003022304000
B0011203731221N12153748WA0055600549004003024286000
B0011213731221N12153753WA0055700550004003024269002
B0011223731221N12153757WA0055700550004003024255004
B0011233731219N12153761WA0055700551004003024244000
B0011243731217N12153764WA0055700551004003021228351
B0011253731215N12153766WA0055700550004003021206340
B0011263731211N12153767WA0055500549004003021185336
B0011273731207N12153766WA0055500548005003023170333
B0011283731203N12153765WA0055400547004003027157333
B0011293731200N12153762WA0055400547004003027141333
B0011303731198N12153757WA0055300547004003027124332
B0011313731196N12153752WA0055300546004003028111336
B0011323731194N12153747WA0055200545004003031111341
B0011333731192N12153742WA0055300546004003031123345
B0011343731189N12153737WA0055300546004003030138350
B0011353731186N12153734WA0055300547004003029148352
B0011363731182N12153732WA0055400546004003024168355
B0011373731179N12153732WA0055300546004003024187356
B0011383731175N12153733WA0055200546004003024194357
B0011393731171N12153735WA0055100544004003024187357
B0011403731167N12153735WA0055000543004003029174358
B0011413731163N12153733WA0054800541004003030163358
B0011423731159N12153731WA0054700541004003029158358
B0011433731155N12153729WA0054700540004003029161358
B0011443731151N12153728WA0054600539004003027166358
B0011453731147N12153727WA0054600539004003027167359
B0011463731143N12153726WA0054500538004003027161359
B0011473731140N12153724WA0054400537004003025150359
B0011483731137N12153721WA0054300536004003025140359
B0011493731134N12153718WA0054200535004003027130359
B0011503731132N12153713WA0054100534004003027124359
B0011513731129N12153709WA0054000533004003028122359
B0011523731127N12153705WA0053900533005003026124359
B0011533731125N12153701WA0053700531004003026133359
B0011543731121N12153699WA0053600529004003025155359
B0011553731117N12153699WA0053300525004003025180359
B0011563731113N12153701WA0053100522004003031204359
B0011573731109N12153704WA0052900523004003032218359
B0011583731105N12153708WA0052800522004003031216356
B0011593731101N12153711WA0052700522004003030209351
B0012003731098N12153713WA0052600521004003028204350
B0012013731094N12153715WA0052500520004003028204345
B0012023731091N12153717WA0052500519004003027204343
B0012033731087N12153719WA0052400518004003025199345
B0012043731084N12153720WA0052200516004003024199347
B0012053731080N12153722WA0052000514004003025206342
B0012063731077N12153725WA0051800511004003025216346
B0012073731074N12153729WA0051600509004003027218349
B0012083731070N12153732WA0051400508004003029213348
B0012093731066N12153734WA0051300506004003029208346
B0012103731063N12153737WA0051100504004003028207344
B0012113731059N12153739WA0051000503004003028206352
B0012123731055N12153742WA0051000503004003031205345
B0012133731050N12153744WA0050900503004003031203340
B0012143731046N12153746WA0050900502004003031198342
B0012153731042N12153748WA0050800501004003031193332
B0012163731037N12153749WA0050700500004003031189331
B0012173731033N12153750WA0050600499004003031188336
B0012183731028N12153750WA0050400497005003029186337
B0012193731024N12153751WA0050300495005003029185340
B0012203731019N12153751WA0050100493006003032184344
B0012213731014N12153752WA0049900491005003033187348
B0012223731009N12153753WA0049700489005003033192350
B0012233731004N12153755WA0049600488004003034194353
B0012243730999N12153756WA0049500487004003034197351
B0012253730994N12153759WA0049300486004003034206348
B0012263730991N12153762WA0049200485004003032214358
B0012273730987N12153766WA0049100484004003031218003
B0012283730984N12153769WA0049000483004003029225011
B0012293730981N12153774WA0049000482004003030238023
B0012303730980N12153780WA0048900482004003030249026
B0012313730979N12153785WA0049000482004003030261027
B0012323730979N12153789WA0049000483004003021275028
B0012333730980N12153792WA0049000483004003021292028
B0012343730982N12153795WA0049000482004003018307023
B0012353730984N12153797WA0049000482004003017320022
B0012363730986N12153799WA0049000481004003017327020
B0012373730988N12153800WA0048900480005003017334015
B0012383730991N12153801WA0048800480004003016334013
B0012393730993N12153803WA0048700479004003016329010
B0012403730995N12153805WA0048600477004003016322007
B0012413730996N12153807WA0048400476004003016312005
B0012423731000N12153811WA0047900470004003016308003
B0012433731002N12153815WA0047600467004003018309002
B0012443731004N12153818WA0047300464004003026303001
B0012453731006N12153823WA0047100462004003027292001
B0012473731007N12153828WA0047000461004003026281001
B0012483731007N12153833WA0047000461004003026274000
B0012493731007N12153838WA0047000461004003027273000
B0012503731008N12153843WA0047000461004003028274000
B0012513731008N12153848WA0047100463004003027275000
B0012523731008N12153853WA0047200463004003026276000
B0012533731009N12153856WA0047300463004003021281000
B0012543731010N12153860WA0047300462004003021287000
B0012553731011N12153864WA0047100461004003021287000
B0012563731012N12153868WA0047000460004003022283000
B0012573731012N12153873WA0046800459004003028276000
B0012583731012N12153879WA0046800459004003029267000
B0012593731011N12153884WA0046700459004003028258000
B0013003731010N12153889WA0046600458004003028250003
B0013013731008N12153893WA0046500456004003027244007
B0013023731007N12153898WA0046300456004003028244012
B0013033731005N12153903WA0046200454004003028244016
B0013043731003N12153908WA0046000453004003029243015
B0013053731001N12153912WA0045900451004003028244012
B0013063730999N12153917WA0045800450004003028247011
B0013073730998N12153922WA0045700449004003027253008
B0013083730997N12153926WA0045600448004003025255005
B0013093730996N12153930WA0045400446005003023249007
B0013103730994N12153934WA0045200444004003027242006
B0013113730992N12153939WA0045000442004003027240009
B0013123730990N12153944WA0044800440004003030240009
B0013133730987N12153949WA0044800441004003031235010
B0013143730984N12153954WA0044800440005003031229003
B0013153730981N12153958WA0044700440005003030224006
B0013163730978N12153961WA0044600438004003029224003
B0013173730975N12153966WA0044500437004003031227004
B0013183730972N12153971WA0044300435004003034230013
B0013193730969N12153976WA0044200435004003034232011
B0013203730965N12153981WA0044200435004003034235020
B0013213730963N12153986WA0044300436004003030237022
B0013223730961N12153991WA0044400436004003030240021
B0013233730959N12153995WA0044500436004003030238013
B0013243730956N12153999WA0044600436004003028232021
B0013253730954N12154003WA0044600436004003021234030
B0013263730953N12154006WA0044500435004003021247035
B0013273730952N12154010WA0044300432004003021263041
B0013283730953N12154014WA0044100429004003021285044
B0013293730955N12154016WA0043800427004003018329049
B0013303730959N12154016WA0043700424005003022010044
B0013313730962N12154013WA0043600424005003022043040
B0013323730964N12154008WA0043600424005003025071325
B0013333730963N12154002WA0043500424005003032095334
B0013343730962N12153996WA0043600424005003033103338
B0013353730960N12153990WA0043700425004003033116342
B0013363730957N12153985WA0043700426004003033121345
B0013373730954N12153980WA0043700425004003033133350
B0013383730950N12153976WA0043600424004003039151353
B0013393730943N12153974WA0043400422004003039166355
B0013403730936N12153972WA0043400422004003044178357
B0013413730930N12153973WA0043300423004003039189357
B0013423730925N12153976WA0043400423004003039200359
B0013433730921N12153979WA0043400423004003035210356
B0013443730917N12153982WA0043400422004003031215000
B0013453730914N12153986WA0043300421004003026226009
B0013463730912N12153990WA0043100421004003026245018
B0013473730910N12153994WA0043000420004003023261017
B0013483730911N12153998WA0042800419005003021291019
B0013493730913N12154001WA0042700418004003018306016
B0013503730915N12154004WA0042500416004003019320015
B0013513730918N12154006WA0042400414004003019327012
B0013523730921N12154008WA0042300414004003021329010
B0013533730924N12154010WA0042100413004003021325007
B0013543730927N12154013WA0042100412004003021311004
B0013553730928N12154016WA0042000411004003021292003
B0013563730929N12154021WA0042000410004003023279002
B0013573730930N12154026WA0042000410004003026277002
B0013583730930N12154031WA0042000410004003026278001
B0013593730931N12154035WA0042000409004003024278001
B0014003730931N12154039WA0041900408004003023276001
B0014013730931N12154044WA0041700407004003025272000
B0014023730931N12154049WA0041600406004003026267000
B0014033730931N12154054WA0041500405004003026264000
B0014043730930N12154059WA0041500404004003027260000
B0014053730929N12154064WA0041400404004003028251001
B0014063730927N12154069WA0041400403004003030244005
B0014073730925N12154074WA0041300402004003030241006
B0014083730923N12154079WA0041200402004003030241008
B0014093730921N12154084WA0041100401004003030241010
B0014103730918N12154089WA0041100400004003031238009
B0014113730916N12154094WA0041000399004003031233005
B0014123730912N12154098WA0041000399004003032229358
B0014133730909N12154103WA0040800397004003033224000
B0014143730905N12154107WA0040700396004003035220358
B0014153730901N12154111WA0040600394004003035218353
B0014163730896N12154116WA0040500395004003038216352
B0014173730891N12154120WA0040500394004003040214354
B0014183730886N12154124WA0040500394004003041211349
B0014193730881N12154128WA0040500394004003040208350
B0014203730876N12154131WA0040400393004003039207344
B0014213730871N12154135WA0040300392005003035209345
B0014223730867N12154138WA0040200390004003035211342
B0014233730862N12154141WA0040000389005003034214346
B0014243730858N12154145WA0039800387004003034216349
B0014253730854N12154149WA0039600385004003035218348
B0014263730850N12154153WA0039400383004003036215338
B0014273730845N12154157WA0039300381004003036210337
B0014283730839N12154161WA0039200381004003039208339
B0014293730834N12154164WA0039100380004003038208334
B0014303730830N12154167WA0039100380004003038209348
B0014313730825N12154170WA0039100379004003035207344
B0014323730821N12154173WA0039000378004003033204343
B0014333730817N12154175WA0038800376004003030204346
B0014343730813N12154178WA0038700376004003030211350
B0014353730809N12154181WA0038500373004003030215348
B0014363730804N12154185WA0038300371004003032214355
B0014373730799N12154189WA0038100370004003038210345
B0014383730794N12154192WA0038000369004003039206343
B0014393730789N12154195WA0037900368004003038205349
B0014403730784N12154198WA0037900367004003037206345
B0014413730780N12154201WA0037800366004003032207352
B0014423730776N12154204WA0037600365004003033208349
B0014433730771N12154207WA0037500364004003033207347
B0014443730767N12154210WA0037400362004003035209342
B0014453730762N12154213WA0037300361004003033208335
B0014463730758N12154216WA0037200360004003033204339
B0014473730753N12154218WA0037000358005003033199331
B0014483730747N12154221WA0036800356004003036197327
B0014493730742N12154223WA0036700356004003039198336
B0014503730737N12154225WA0036800357004003038199338
B0014513730731N12154228WA0036800357004003038199345
B0014523730726N12154230WA0036800356004003037193345
B0014533730721N12154230WA0036700355004003034189345
B0014543730716N12154231WA0036500354004003035184346
B0014553730711N12154231WA0036400353004003037182349
B0014563730705N12154231WA0036300352004003037183351
B0014573730699N12154231WA0036200351005003037180351
B0014583730694N12154230WA0036100350004003036173352
B0014593730689N12154229WA0036000348005003037162351
B0015003730684N12154226WA0035900347004003037155352
B0015013730679N12154222WA0035800345004003038148353
B0015023730674N12154217WA0035600343004003043139353
B0015033730669N12154211WA0035500342004003043129354
B0015043730666N12154204WA0035400341004003043121354
B0015053730663N12154198WA0035400341004003041112355
B0015063730662N12154191WA0035300340004003036103003
B0015073730661N12154185WA0035200339004003036093002
B0015083730662N12154179WA0035100338004003033078002
B0015093730664N12154174WA0035000337004003030063001
B0015103730666N12154170WA0034900336004003024047001
B0015113730669N12154168WA0034800334004003024030000
B0015123730672N12154167WA0034600333004003023002000
B0015133730675N12154169WA0034400331004003022324000
B0015143730676N12154174WA0034200328004003028286002
B0015153730677N12154179WA0034100328004003030258003
B0015163730675N12154184WA0034000329004003028236356
B0015173730672N12154188WA0034000328004003027229352
B0015183730669N12154191WA0033900327004003023224354
B0015193730667N12154194WA0033800325004003024223355
B0015203730663N12154198WA0033600323004003024224349
B0015213730660N12154202WA0033400321004003027226359
B0015223730657N12154207WA0033300320004003035229002
B0015233730653N12154212WA0033200320004003035233003
B0015243730650N12154217WA0033200320004003033234006
B0015253730648N12154220WA0033200320004003030227357
B0015263730645N12154223WA0033100319004003024216003
B0015273730642N12154226WA0032900316004003026217009
B0015283730639N12154230WA0032700313004003026226012
B0015293730636N12154234WA0032500311004003030232005
B0015303730633N12154239WA0032400310004003033234018
B0015313730630N12154245WA0032300309004003033234008
B0015323730627N12154250WA0032400310004003033234019
B0015333730625N12154254WA0032500312004003032233005
B0015343730622N12154258WA0032600313004003027224001
B0015353730618N12154260WA0032700313004003027212008
B0015363730615N12154263WA0032700313004003026211023
B0015373730613N12154266WA0032600312004003024230033
B0015383730611N12154269WA0032500311005003021262038
B0015393730612N12154273WA0032400311004003021291040
B0015403730614N12154275WA0032300311004003019324045
B0015413730617N12154276WA0032300310004003016010047
B0015423730619N12154274WA0032300310004003019044040
B0015433730621N12154271WA0032200308004003022062037
B0015443730622N12154266WA0032200307004003022072029
B0015453730623N12154262WA0032100307004003024079025
B0015463730624N12154257WA0032000305004003024077020
B0015473730625N12154253WA0031800303004003024061013
B0015483730626N12154250WA0031600303004003019030009
B0015493730629N12154250WA0031400303004003018348006
B0015503730632N12154252WA0031300302004003018314003
B0015513730633N12154255WA0031300301004003018285001
B0015523730633N12154259WA0031200300004003018257004
B0015533730632N12154263WA0031200300004003019250005
B0015543730630N12154267WA0031000298004003022246010
B0015553730628N12154271WA0030900297004003025242010
B0015563730626N12154276WA0030800295004003025236006
B0015573730623N12154280WA0030700294004003029230359
B0015583730619N12154285WA0030600293004003034226356
B0015593730615N12154290WA0030500292004003035221354
B0016003730611N12154294WA0030400290004003034219352
B0016013730607N12154297WA0030300289004003034215351
B0016023730604N12154300WA0030100287004003028209351
B0016033730600N12154303WA0029900284004003030206346
B0016043730595N12154305WA0029700281004003030204348
B0016053730591N12154308WA0029400279004003033205345
B0016063730586N12154311WA0029100276004003036205346
B0016073730581N12154314WA0028900274004003036203348
B0016083730576N12154316WA0028700272004003036204344
B0016093730571N12154319WA0028600270004003036207349
B0016103730566N12154322WA0028300268004003035206346
B0016113730562N12154325WA0028100266004003035204349
B0016123730557N12154328WA0027900263004003035203350
B0016133730552N12154331WA0027600260005003035205353
B0016143730547N12154334WA0027200257004003038208350
B0016153730542N12154338WA0027000254004003040208352
B0016163730536N12154341WA0026800253004003040206359
B0016173730531N12154345WA0026700252004003040207353
B0016183730527N12154348WA0026600251004003032212001
B0016193730523N12154351WA0026600251004003032214356
B0016203730520N12154354WA0026500249004003027210354
B0016213730517N12154356WA0026300248004003027203343
B0016223730511N12154359WA0026000246004003037201348
B0016233730505N12154361WA0025800244004003041197332
B0016243730499N12154363WA0025800244004003041195339
B0016253730494N12154365WA0025800244004003041196330
B0016263730488N12154368WA0025800244004003038199339
B0016273730483N12154370WA0025800244004003038200338
B0016283730478N12154372WA0025800244004003036200335
B0016293730473N12154375WA0025900245004003036201344
B0016303730468N12154378WA0025900245005003037203335
B0016313730463N12154380WA0026000245004003037204352
B0016323730458N12154383WA0026000245005003034206355
B0016333730455N12154385WA0026000244004003032206347
B0016343730452N12154387WA0026000244004003025201337
B0016353730448N12154389WA0025800242004003033195335
B0016363730442N12154390WA0025700240004003033191333
B0016373730435N12154392WA0025600240004003040190343
B0016383730430N12154393WA0025500240004003037193335
B0016393730425N12154395WA0025500239004003037199352
B0016403730421N12154397WA0025300238004003032199000
B0016413730416N12154399WA0025100236004003031199356
B0016423730412N12154401WA0025000234004003033202348
B0016433730407N12154404WA0024800233004003034204353
B0016443730402N12154407WA0024700232004003034206359
B0016453730398N12154410WA0024600231004003034209347
B0016463730393N12154414WA0024500230004003033210002
B0016473730389N12154416WA0024400230004003034207346
B0016483730384N12154419WA0024400229004003034202345
B0016493730379N12154421WA0024300228004003036195339
B0016503730372N12154423WA0024300228004003041190340
B0016513730366N12154424WA0024200227004003041189337
B0016523730361N12154425WA0024200226004003040189335
B0016533730355N12154426WA0024000225004003038190341
B0016543730350N12154428WA0023900223004003038188333
B0016553730344N12154428WA0023700221004003036185332
B0016563730339N12154428WA0023500219004003038180322
B0016573730333N12154428WA0023400217004003038173323
B0016583730327N12154426WA0023200217004003041165324
B0016593730320N12154424WA0023100216004003043159325
B0017003730315N12154420WA0023000214004003043152324
B0017013730310N12154416WA0022800213004003042145326
B0017023730305N12154410WA0022700211004003042139329
B0017033730300N12154405WA0022500209004003045135333
B0017043730295N12154399WA0022400208004003045135337
B0017053730290N12154393WA0022300207004003045135341
B0017063730286N12154387WA0022200206004003044134344
B0017073730282N12154381WA0022100205004003043129345
B0017083730278N12154374WA0022000204004003043123348
B0017093730275N12154368WA0021900203004003041117349
B0017103730273N12154361WA0021800202004003041113350
B0017113730271N12154354WA0021800201004003040107007
B0017123730269N12154346WA0021700200004003040103005
B0017133730268N12154339WA0021600199004003039099004
B0017143730268N12154332WA0021600199005003039094003
B0017153730268N12154326WA0021500198004003031083002
B0017163730269N12154322WA0021400198005003031065001
B0017173730271N12154318WA0021300197004003026047001
B0017183730274N12154315WA0021200197004003023031000
B0017193730277N12154314WA0021200196005003017015000
B0017203730279N12154314WA0021100195004003017343000
B0017213730281N12154315WA0021000194004003015291000
B0017223730281N12154319WA0020800193004003015266000
B0017233730280N12154324WA0020700193004003023259000
B0017243730279N12154329WA0020700192004003023254000
B0017253730278N12154333WA0020700191004003023264000
B0017263730279N12154335WA0020600190004003017302000
B0017273730280N12154335WA0020500188004003008005000
B0017283730281N12154334WA0020400186004003011030000
B0017293730283N12154333WA0020200185004003011031000
B0017303730285N12154331WA0020000183004003015033000
B0017313730287N12154329WA0019800181004003020035000
B0017323730290N12154327WA0019600179004003021040000
B0017333730292N12154324WA0019500178004003021040000
B0017343730295N12154321WA0019400178004003021038000
B0017353730298N12154319WA0019300177004003022037000
B0017363730300N12154316WA0019300176004003022034000
B0017373730302N12154315WA0019200175004003019026000
B0017383730305N12154314WA0019100174004003018029000
B0017393730307N12154312WA0019100174004003019041000
B0017403730309N12154309WA0019100174004003020048000
B0017413730311N12154306WA0019100174004003020047000
B0017423730313N12154303WA0019100173004003020044000
B0017433730315N12154301WA0019100173004003018042000
B0017443730317N12154299WA0019100173004003018027000
B0017453730318N12154299WA0019000172004003014356000
B0017463730320N12154300WA0018900171004003011333000
B0017473730321N12154301WA0018800169004003010335000
B0017483730323N12154301WA0018700169004003012355000
B0017493730325N12154301WA0018600168004003012013000
B0017503730328N12154299WA0018500167004003016026000
B0017513730330N12154297WA0018500167004003019034000
B0017523730332N12154295WA0018400167004003019039000
B0017533730334N12154293WA0018500167004003018040000
B0017543730337N12154290WA0018500167004003018045000
B0017553730339N12154288WA0018500167004003020047000
B0017563730341N12154285WA0018600168004003020046000
B0017573730343N12154282WA0018600169004003020047000
B0017583730344N12154279WA0018700169004003020055000
B0017593730346N12154276WA0018700169004003019066000
B0018003730347N12154272WA0018700169004003019067000
B0018013730348N12154270WA0018700168004003019062000
B0018023730349N12154267WA0018600167004003017060000
B0018033730350N12154264WA0018400166004003017064000
B0018043730351N12154261WA0018200164004003018066000
B0018053730352N12154257WA0018000162004003018062000
B0018063730354N12154254WA0017800160004003020055000
B0018073730356N12154251WA0017600159004003020051000
B0018083730358N12154249WA0017500158004003020045000
B0018093730359N12154247WA0017400156004003017034000
B0018103730361N12154246WA0017300156004003014005000
B0018113730363N12154246WA0017100155004003015338000
B0018123730366N12154248WA0016900153004003019322000
B0018133730368N12154251WA0016700150004003019312000
B0018143730369N12154254WA0016500149004003019303000
B0018153730370N12154256WA0016500149004003005275000
B0018163730370N12154256WA0016600149004003005275004
B0018173730370N12154256WA0016600148004003003275007
B0018183730370N12154256WA0016600148004003002275357
B0018193730370N12154256WA0016600148004003001275354
B0018203730369N12154256WA0016600147004003000275356
B0018213730370N12154256WA0016600147004003000275359
B0018223730370N12154256WA0016600147004003000275000
B0018233730370N12154256WA0016600147004003000275358
B0018243730370N12154256WA0016600146004003000275353
B0018253730370N12154256WA0016600147004003000275350
B0018263730369N12154256WA0016600146004003000275355
B0018273730370N12154256WA0016600146004003000275353
B0018283730369N12154256WA0016600146004003000275341
B0018293730369N12154256WA0016600146004003000275345
B0018303730370N12154256WA0016600146004003001275351
B0018313730370N12154256WA0016600146004003000275359
B0018323730370N12154256WA0016600146004003000275347
B0018333730370N12154256WA0016600146004003001275337
B0018343730370N12154256WA0016600146004003000275323
B0018353730370N12154256WA0016600146004003001275359
B0018363730370N12154256WA0016600146004003000275346
B0018373730370N12154256WA0016600146004003000275338
B0018383730370N12154256WA0016600146004003000275329
B0018393730370N12154256WA0016600146004003000275339
B0018403730370N12154256WA0016600146004003000275341
B0018413730370N12154256WA0016600146004003000275340
B0018423730370N12154256WA0016600146004003000275340
B0018433730370N12154256WA0016600146004003000275341
B0018443730370N12154256WA0016600146004003000275334
B0018453730370N12154256WA0016600146004003000275334
B0018463730370N12154256WA0016600146004003001275354
Grpx+rLqFWeSPoWGu1XpCvRQGghb7IhPhZKPUrwytDKBi9cjI2L3nALK1feT3l2t1
GXTdoOoCfdQI1438uIGNp6SB+CpLuTEttKAzQHRnJo+gvGGYEzCF8Vt+Ne1cvCdZC
G4xKIzB2CTJtu5t40TCKbu2fo2CcTyRJ1reCgv6+Pfeo=
