AXFH000
HFDTE290826
HFPLTPILOT:KaranS
HFGTYGLIDERTYPE:Niviuk Hiko P
HFDTM100GPSDATUM:WGS84
HFRFWFIRMWAREVERSION:9.7.1
HFRHWHARDWAREVERSION:iPhone 17 Pro
HFFTYFRTYPE:Flyskyhy,9.7.1
HFGPS:Internal
HFPRSVARIO:XC Tracer
HFCCLCOMPETITIONCLASS:Paraglider,EN-B
HFTZNTIMEZONE:-7
HFSITSITE:Dunlap,US
I053638FXA3941VXA4244GSP4547CCO4850HDT
B0037483645906N11905883WA0142001420001003000171054
B0037493645906N11905884WA0142001420002003002193063
B0037503645905N11905884WA0142001420002003003174091
B0037513645905N11905884WA0141901420003003003205093
B0037523645904N11905884WA0141901420003003003238098
B0037533645904N11905884WA0141901420002003003167122
B0037543645904N11905884WA0141901420002003002147096
B0037553645904N11905884WA0141901420002003001147106
B0037563645904N11905884WA0141901420002003000147081
B0037573645904N11905884WA0141901420002003000147071
B0037583645904N11905884WA0141901420002003000147070
B0037593645904N11905884WA0141901419003003000147107
B0038003645904N11905884WA0141901419002003001147065
B0038013645904N11905884WA0141901419002003000147079
B0038023645904N11905884WA0141901419003003000147069
B0038033645904N11905884WA0141901419003003000147106
B0038043645904N11905884WA0141901419002003001021096
B0038053645904N11905884WA0141901419002003001050101
B0038063645904N11905883WA0142001420003003003050337
B0038073645904N11905883WA0142001420002003003126251
B0038093645904N11905883WA0141901420002003003126193
B0038103645904N11905883WA0141901420002003002271145
B0038113645904N11905884WA0141801419002003002240136
B0038123645903N11905885WA0141701419003003005250207
B0038133645901N11905887WA0141601419003003010212205
B0038143645899N11905889WA0141601420003003010216225
B0038153645897N11905891WA0141601420002003013234222
B0038163645896N11905893WA0141801420002003013246269
B0038173645894N11905895WA0142001420002003014218246
B0038183645892N11905896WA0142001419002003014197256
B0038193645889N11905897WA0142001419002003015191260
B0038203645886N11905898WA0142101421002003016190258
B0038213645883N11905898WA0142201421002003016188190
B0038223645881N11905898WA0142201422002003016178204
B0038233645878N11905897WA0142201422002003016168181
B0038243645875N11905896WA0142201422001003018163185
B0038253645872N11905895WA0142201422001003018160190
B0038263645870N11905894WA0142301422001003018158181
B0038273645867N11905893WA0142201422001003018161192
B0038283645863N11905892WA0142201421001003019166198
B0038293645860N11905891WA0142201421004003025166201
B0038303645856N11905890WA0142201422004003025166194
B0038313645852N11905888WA0142201423004003025166196
B0038323645849N11905888WA0142301423004003023168192
B0038333645846N11905887WA0142301423004003023172186
B0038343645842N11905887WA0142301423004003023176191
B0038353645838N11905887WA0142301423004003023180190
B0038363645834N11905887WA0142301423004003026182192
B0038373645830N11905887WA0142401424004003026180190
B0038383645827N11905887WA0142501426004003026179198
B0038393645823N11905887WA0142701428004003025176192
B0038403645820N11905886WA0142901430004003024171190
B0038413645816N11905885WA0143201433004003024166192
B0038423645813N11905884WA0143401435004003022161177
B0038433645810N11905883WA0143501436004003022159175
B0038443645807N11905881WA0143601437004003022150159
B0038453645804N11905878WA0143701437004003023135146
B0038463645801N11905873WA0143701438004003026122133
B0038473645799N11905867WA0143901439004003038112104
B0038483645798N11905860WA0144001441004003039100103
B0038493645798N11905852WA0144201443004003039088086
B0038503645798N11905845WA0144401445004003039085080
B0038513645799N11905838WA0144601447004003039082069
B0038523645800N11905832WA0144701449004003034074082
B0038533645801N11905826WA0144701448004003035065065
B0038543645803N11905820WA0144801448004003035069105
B0038553645805N11905813WA0144701447004003039084121
B0038563645803N11905806WA0144701447004003040104133
B0038573645800N11905800WA0144801449004003034130154
B0038583645796N11905798WA0144901450004003034164174
B0038593645794N11905799WA0145001452004003026205194
B0039003645792N11905802WA0145201453004003019235215
B0039013645790N11905805WA0145301455004003019236236
B0039023645789N11905808WA0145501457004003021234236
B0039033645787N11905811WA0145601458004003021238239
B0039043645786N11905814WA0145801460004003019249245
B0039053645785N11905817WA0145901461004003016262250
B0039063645785N11905820WA0145901461004003016260238
B0039073645784N11905823WA0145901461004003019256237
B0039083645784N11905827WA0145901461004003020252234
B0039093645783N11905831WA0146001462004003019257264
B0039103645783N11905833WA0146201464004003018276272
B0039113645784N11905836WA0146301465004003017310299
B0039123645787N11905838WA0146301464004003024334321
B0039133645792N11905839WA0146201463004003034351336
B0039143645798N11905839WA0146201463004003034003336
B0039153645804N11905839WA0146301464004003042001320
B0039163645809N11905840WA0146401466004003042344312
B0039173645813N11905842WA0146501466004003027331298
B0039183645812N11905847WA0146401465004003027264286
B0039193645810N11905851WA0146401466004003023229249
B0039203645808N11905853WA0146501468004003022207221
B0039213645805N11905854WA0146701470004003021187204
B0039223645803N11905854WA0146801471004003014165194
B0039233645798N11905852WA0146801470004003015169206
B0039243645795N11905852WA0146601468004003018187223
B0039253645792N11905853WA0146501468004003022198218
B0039263645788N11905855WA0146501469004003026200235
B0039273645784N11905857WA0146601470004003026199230
B0039283645782N11905858WA0146701470004003020206225
B0039293645780N11905859WA0146701470004003015218228
B0039303645779N11905861WA0146701469004003014231232
B0039313645778N11905864WA0146601469004003017235242
B0039323645776N11905867WA0146601468004003019238244
B0039333645775N11905870WA0146501468004003019240228
B0039343645773N11905873WA0146501468004003019228219
B0039353645770N11905875WA0146601468004003020204216
B0039363645767N11905876WA0146601468004003020190223
B0039373645765N11905877WA0146701468004003020210242
B0039383645763N11905879WA0146601468004003020247256
B0039393645763N11905884WA0146501466004003021280277
B0039403645766N11905890WA0146301466004003028308294
B0039413645771N11905893WA0146401466004003036336312
B0039423645776N11905894WA0146501468004003036358335
B0039433645781N11905893WA0146501469004003036007350
B0039443645786N11905892WA0146601469004003033011356
B0039453645791N11905890WA0146601469004003033015358
B0039463645796N11905888WA0146501468004003039018003
B0039473645802N11905886WA0146501468004003040020006
B0039483645808N11905883WA0146501468004003040019004
B0039493645814N11905881WA0146501468004003040016357
B0039503645819N11905879WA0146501468004003040014347
B0039513645825N11905877WA0146601469004003039011343
B0039523645831N11905876WA0146601470004003039009343
B0039533645836N11905875WA0146701470004003038007331
B0039543645841N11905875WA0146801470004003037003325
B0039553645846N11905875WA0146801470004003035356310
B0039563645850N11905876WA0146801470004003028341302
B0039573645853N11905879WA0146701470004003028318293
B0039583645855N11905882WA0146701470004003024298291
B0039593645856N11905885WA0146801471004003020291290
B0040003645857N11905888WA0146901472004003018309293
B0040013645860N11905890WA0146901472004003022327301
B0040023645863N11905892WA0146901471004003027335310
B0040033645867N11905895WA0146801470004003027335314
B0040043645871N11905897WA0146701470004003030332306
B0040053645875N11905900WA0146801471004003029330307
B0040063645879N11905902WA0146901472004003029333314
B0040073645882N11905904WA0147001473004003027342320
B0040083645886N11905905WA0147001473004003027349321
B0040093645891N11905906WA0147001473004003030350319
B0040103645895N11905907WA0147001473004003031347312
B0040113645900N11905909WA0147001473004003030340296
B0040123645903N11905911WA0147001473004003030326288
B0040133645905N11905914WA0147101473004003021305274
B0040143645906N11905917WA0147101473004003021272257
B0040153645905N11905920WA0147001473004003016224239
B0040163645902N11905921WA0147001473004003016188210
B0040173645898N11905920WA0147001473004003026162191
B0040183645895N11905917WA0147001473004003030144168
B0040193645891N11905913WA0147001473004003030134161
B0040203645887N11905908WA0147001473004003034133169
B0040213645884N11905903WA0147001473004003036135164
B0040223645880N11905898WA0147101473004003037135162
B0040233645876N11905893WA0147101474004003037131149
B0040243645872N11905888WA0147101474004003037127149
B0040253645869N11905882WA0147101474004003037126151
B0040263645866N11905877WA0147101474004003037127154
B0040273645862N11905871WA0147101475004003037128156
B0040283645859N11905865WA0147101475004003038127149
B0040293645855N11905860WA0147201475004003038122145
B0040303645853N11905854WA0147301476004003038115127
B0040313645851N11905848WA0147401477004003036113140
B0040323645848N11905842WA0147501478004003035121158
B0040333645845N11905837WA0147501477004003035137174
B0040343645840N11905835WA0147401476004003035163197
B0040353645836N11905835WA0147301475004003031194215
B0040363645834N11905839WA0147301475004003027239238
B0040383645835N11905843WA0147201475004003022290266
B0040393645838N11905846WA0147201476004003024326287
B0040403645841N11905847WA0147201476004003024345302
B0040413645845N11905848WA0147201476004003024345299
B0040423645848N11905850WA0147201476004003022332299
B0040433645851N11905852WA0147201475004003022322297
B0040443645853N11905855WA0147201475004003022319290
B0040453645856N11905858WA0147201475004003022318286
B0040463645859N11905860WA0147201476004003024321288
B0040473645862N11905863WA0147301477004003024326291
B0040483645864N11905865WA0147301477004003023328289
B0040493645867N11905867WA0147401477004003022328283
B0040503645870N11905869WA0147401477004003022328275
B0040513645873N11905872WA0147401477004003023324289
B0040523645876N11905875WA0147401477004003023318287
B0040533645878N11905878WA0147401477004003024319303
B0040543645881N11905880WA0147501478004003023325288
B0040553645884N11905882WA0147601479004003023330291
B0040563645887N11905884WA0147601479004003022332278
B0040573645890N11905886WA0147501479004003022327283
B0040583645893N11905889WA0147501477004003023318277
B0040593645896N11905892WA0147501478004003024308281
B0041003645898N11905896WA0147501479004003024303273
B0041013645899N11905899WA0147601480004003022303272
B0041023645900N11905901WA0147701481004003017303273
B0041033645901N11905904WA0147701481004003015298270
B0041043645902N11905907WA0147601480004003017286265
B0041053645902N11905910WA0147501479004003018268261
B0041063645902N11905913WA0147501479004003018244251
B0041073645900N11905916WA0147501479004003018219237
B0041083645897N11905917WA0147501479004003018193222
B0041093645894N11905917WA0147501478004003023173206
B0041103645890N11905915WA0147401477004003030157189
B0041113645886N11905912WA0147201476004003030142174
B0041123645882N11905906WA0147201475004003037127156
B0041133645879N11905900WA0147201476004003039119143
B0041143645876N11905894WA0147301477004003037118140
B0041153645873N11905888WA0147301477004003037117148
B0041163645871N11905882WA0147301476004003035119148
B0041173645868N11905876WA0147201476004003035123158
B0041183645865N11905871WA0147101474004003036128155
B0041193645861N11905866WA0147101474004003038135157
B0041203645853N11905856WA0147001474004003037134159
B0041213645849N11905852WA0147001473004003034130166
B0041223645846N11905847WA0147001472004003033133174
B0041233645842N11905843WA0146901471004003037146188
B0041243645837N11905841WA0146801471004003037163198
B0041253645831N11905841WA0146801472004003037185211
B0041263645827N11905843WA0147001473004003034200220
B0041273645824N11905845WA0147101475004003028213228
B0041283645822N11905847WA0147301477004003016223233
B0041293645821N11905849WA0147401478004003016243239
B0041303645821N11905853WA0147501478004003016267253
B0041313645821N11905857WA0147501478004003019272252
B0041323645821N11905861WA0147501479004003022263250
B0041333645820N11905865WA0147601480004003022239233
B0041343645817N11905867WA0147701481004003024212215
B0041353645813N11905868WA0147801481004003024182198
B0041363645808N11905867WA0147801481004003030158182
B0041373645803N11905862WA0147801481004003036138159
B0041383645799N11905855WA0147901482004003042119139
B0041393645798N11905848WA0147901482004003043100119
B0041403645798N11905840WA0147901482004003043082099
B0041413645801N11905832WA0147901482004003043061077
B0041423645805N11905827WA0147701480004003041034051
B0041433645810N11905826WA0147601479004003036004018
B0041443645815N11905828WA0147501478004003036334343
B0041453645819N11905831WA0147601479004003033321317
B0041463645821N11905835WA0147701481004003031301303
B0041473645822N11905839WA0147901484004003024307296
B0041483645824N11905841WA0148001483004003016310299
B0041493645825N11905844WA0148101483004003017310295
B0041503645827N11905846WA0148101483004003017309289
B0041513645829N11905850WA0148101484004003019309296
B0041523645831N11905853WA0148101485004003022304279
B0041533645832N11905857WA0148201486004003019286261
B0041543645832N11905860WA0148301486004003019252243
B0041553645830N11905863WA0148301486004003019219224
B0041563645826N11905864WA0148201484004003022192203
B0041573645820N11905864WA0148101484004003029168184
B0041583645815N11905860WA0148101484004003041144165
B0041593645811N11905854WA0148101484004003043128145
B0042003645808N11905847WA0148201486004003041114128
B0042013645807N11905840WA0148301488004003041102117
B0042023645806N11905833WA0148401488004003040087106
B0042033645808N11905825WA0148501488004003043075087
B0042053645810N11905817WA0148601489004003043069071
B0042063645812N11905810WA0148601489004003043065073
B0042073645815N11905804WA0148801491004003042066076
B0042083645817N11905796WA0148901491004003043078094
B0042093645818N11905788WA0149001491004003046091104
B0042103645816N11905779WA0148901490004003046104121
B0042113645813N11905772WA0148901490004003046121134
B0042123645809N11905767WA0148801490004003038140152
B0042133645804N11905764WA0148701489004003038167174
B0042143645799N11905765WA0148601488004003033194195
B0042153645796N11905768WA0148601488004003028226217
B0042163645795N11905771WA0148501488004003019261239
B0042173645795N11905775WA0148501488004003019283260
B0042183645797N11905778WA0148501488004003019298274
B0042193645798N11905781WA0148401488004003018303287
B0042203645800N11905783WA0148401488004003018306290
B0042213645802N11905786WA0148401487004003018310296
B0042223645804N11905789WA0148401487004003018312300
B0042233645806N11905792WA0148301487004003020316306
B0042243645809N11905795WA0148401487004003022321308
B0042253645811N11905797WA0148401488004003023323318
B0042263645814N11905799WA0148501489004003023327314
B0042273645817N11905801WA0148601490004003021329301
B0042283645819N11905803WA0148601490004003021325294
B0042293645822N11905805WA0148601490004003021313278
B0042303645824N11905809WA0148601490004003024295267
B0042313645824N11905814WA0148601490004003024274265
B0042323645825N11905818WA0148701491004003022265292
B0042333645824N11905821WA0148701491004003021273304
B0042343645825N11905825WA0148701490004003020298298
B0042353645828N11905828WA0148601490004003022316306
B0042363645830N11905830WA0148601490004003023326312
B0042373645833N11905832WA0148601490004003023333315
B0042383645837N11905834WA0148501489004003024339318
B0042393645841N11905835WA0148501488004003024344319
B0042403645844N11905836WA0148401488004003027343320
B0042413645848N11905838WA0148301487004003027340314
B0042423645852N11905840WA0148201486004003027334309
B0042433645855N11905843WA0148101485004003027325304
B0042443645858N11905846WA0148001484004003026319308
B0042453645861N11905849WA0147901484004003025314304
B0042463645863N11905852WA0147801483004003025311305
B0042473645866N11905856WA0147701482004003023310300
B0042483645868N11905859WA0147601480004003023309308
B0042493645871N11905863WA0147501479004003025308313
B0042503645873N11905866WA0147401478004003026310301
B0042513645876N11905870WA0147401478004003026314317
B0042523645878N11905873WA0147301477004003026316322
B0042533645882N11905877WA0147301477004003026318319
B0042543645885N11905880WA0147201477004003028321324
B0042553645888N11905883WA0147201477004003028323308
B0042563645891N11905886WA0147301478004003028325303
B0042573645894N11905889WA0147301478004003026323284
B0042583645896N11905891WA0147201477004003023311270
B0042593645898N11905895WA0147101475004003021287264
B0043003645898N11905899WA0146901473004003022267249
B0043013645896N11905903WA0146801472004003023246231
B0043023645894N11905906WA0146601470004003023221217
B0043033645890N11905908WA0146501469004003024195206
B0043043645886N11905908WA0146401467004003025176195
B0043053645882N11905907WA0146301466004003030163181
B0043063645877N11905904WA0146101464004003032151170
B0043073645873N11905900WA0145901463004003032139161
B0043083645869N11905895WA0145801462004003035132152
B0043093645865N11905889WA0145801461004003040129144
B0043103645862N11905884WA0145801462004003040125148
B0043113645860N11905878WA0145801462004003036118138
B0043123645858N11905873WA0145801461004003032116137
B0043133645855N11905868WA0145601460004003032119139
B0043143645853N11905863WA0145501459004003036125143
B0043153645849N11905857WA0145401458004003037130145
B0043163645846N11905852WA0145301457004003037128137
B0043173645843N11905846WA0145301457004003037121125
B0043183645840N11905840WA0145201457004003037115108
B0043193645838N11905834WA0145201456004003035107106
B0043203645837N11905827WA0145101455004003038101114
B0043213645836N11905820WA0145101455004003038101134
B0043223645834N11905814WA0145101455004003038113151
B0043233645831N11905808WA0145101454004003036128163
B0043243645827N11905804WA0145001453004003031154182
B0043253645823N11905804WA0144901452004003031188195
B0043263645818N11905807WA0144801452004003031227226
B0043273645815N11905813WA0144901453004003031243254
B0043283645813N11905819WA0145101455004003031245256
B0043293645812N11905822WA0145201456004003020240250
B0043303645811N11905825WA0145201456004003020239247
B0043313645810N11905828WA0145101454004003020245247
B0043323645808N11905832WA0144901452004003021249254
B0043333645807N11905838WA0144801450004003028257278
B0043343645807N11905844WA0144701450004003028274286
B0043353645809N11905848WA0144701450004003028297304
B0043363645811N11905852WA0144701450004003026316313
B0043373645814N11905854WA0144601449004003024329313
B0043383645818N11905856WA0144501448004003024332314
B0043393645821N11905859WA0144401446004003030329313
B0043403645825N11905862WA0144301445004003032323314
B0043413645829N11905866WA0144301445004003032321315
B0043423645833N11905870WA0144301446004003032323317
B0043433645836N11905873WA0144301446004003031324313
B0043443645840N11905876WA0144301446004003030323322
B0043453645843N11905879WA0144301446004003030322311
B0043463645846N11905882WA0144401447004003027319318
B0043473645849N11905886WA0144401446004003026316294
B0043483645852N11905889WA0144301446004003026316306
B0043493645855N11905893WA0144301446004003028313297
B0043503645858N11905897WA0144301445004003029310307
B0043513645860N11905901WA0144201444004003029307307
B0043523645863N11905905WA0144101443004003029306311
B0043533645865N11905910WA0144001442004003029306315
B0043543645868N11905914WA0144001442004003030309315
B0043553645871N11905918WA0143901441004003031313323
B0043563645875N11905923WA0143801440004003031312320
B0043573645878N11905927WA0143801440004003031311326
B0043583645881N11905931WA0143701440004003030316307
B0043593645884N11905934WA0143701439004003028322313
B0044003645887N11905937WA0143701438004003028326299
B0044013645891N11905940WA0143501437004003028323291
B0044023645894N11905943WA0143501436004003028313289
B0044033645896N11905947WA0143401435004003027304292
B0044043645898N11905952WA0143301434004003025298317
B0044053645900N11905956WA0143201433004003026298301
B0044063645902N11905960WA0143101431004003026300298
B0044073645904N11905965WA0142901430004003028299294
B0044083645906N11905970WA0142801428004003029295297
B0044093645908N11905975WA0142701427004003028293295
B0044103645909N11905979WA0142601426004003028294294
B0044113645911N11905984WA0142401425004003028295297
B0044123645913N11905989WA0142301423004003028296282
B0044133645915N11905993WA0142001420004003029296288
B0044143645917N11905999WA0141801418004003031293272
B0044153645918N11906004WA0141701417004003029282246
B0044163645918N11906009WA0141601416004003029260233
B0044173645916N11906014WA0141501414004003027236226
B0044183645913N11906017WA0141201412004003028213210
B0044193645909N11906019WA0141001409004003030193198
B0044203645904N11906019WA0140801406004003030175188
B0044213645899N11906017WA0140501404004003033159181
B0044223645894N11906014WA0140301402004003037152166
B0044233645889N11906010WA0140201401004003037148158
B0044243645885N11906007WA0140101400004003035146160
B0044253645881N11906003WA0140001399004003034148157
B0044263645876N11906000WA0139901398004003033150162
B0044273645872N11905997WA0139801397004003033151160
B0044283645868N11905994WA0139701396004003032152157
B0044293645864N11905991WA0139601394004003032149156
B0044303645859N11905988WA0139501393004003033145148
B0044313645855N11905984WA0139301392004003033143151
B0044323645851N11905980WA0139201391004003033142140
B0044333645848N11905977WA0139101390004003033140148
B0044343645844N11905972WA0139101389004003033138151
B0044353645840N11905968WA0138901388004003034138154
B0044363645835N11905964WA0138801387004003036141150
B0044373645831N11905960WA0138701386004003036141144
B0044383645827N11905955WA0138701385004003036136145
B0044393645824N11905951WA0138701385004003035131150
B0044403645821N11905946WA0138601384004003033129159
B0044413645818N11905942WA0138501383004003030132144
B0044423645815N11905938WA0138401382004003031135153
B0044433645811N11905934WA0138201380004003031139156
B0044443645807N11905930WA0138101378004003033142161
B0044453645803N11905926WA0138001377004003033144165
B0044463645799N11905923WA0137901376004003032146171
B0044473645795N11905920WA0137801376004003032150175
B0044483645791N11905917WA0137701374004003030153173
B0044493645787N11905915WA0137601373004003029156163
B0044503645783N11905913WA0137501372004003029158169
B0044513645779N11905911WA0137301370004003030161189
B0044523645774N11905910WA0137201369004003030166196
B0044533645770N11905909WA0137101368004003030176204
B0044543645765N11905910WA0136901366004003029187208
B0044553645761N11905911WA0136801365004003029194217
B0044563645756N11905913WA0136701364004003033198226
B0044573645751N11905915WA0136601363004003034202234
B0044583645747N11905918WA0136601362004003033208238
B0044593645743N11905921WA0136501362004003033215244
B0045003645739N11905925WA0136501361004003032220250
B0045013645736N11905929WA0136401360004003033224246
B0045023645732N11905934WA0136301360004003033228247
B0045033645729N11905938WA0136301360004003033230253
B0045043645726N11905943WA0136301359004003033232247
B0045053645723N11905948WA0136201358004003033233247
B0045063645720N11905954WA0136101357004003034234249
B0045073645717N11905959WA0136001356004003034233246
B0045083645714N11905964WA0135901355004003034233241
B0045093645711N11905969WA0135801354004003034234229
B0045103645709N11905974WA0135701354004003033232219
B0045113645705N11905978WA0135701352004003031223220
B0045123645701N11905981WA0135501351004003032211219
B0045133645697N11905984WA0135401350004003032204218
B0045143645692N11905986WA0135301349004003033204224
B0045153645688N11905989WA0135201348004003034206235
B0045163645684N11905992WA0135101347004003033212245
B0045173645680N11905996WA0135001346004003033222251
B0045183645677N11906000WA0134901344004003032232252
B0045193645674N11906005WA0134801343004003032238257
B0045203645672N11906011WA0134601341004003032240252
B0045213645669N11906016WA0134501340004003033240256
B0045223645667N11906021WA0134401340004003033241258
B0045233645665N11906027WA0134401339004003032244252
B0045243645663N11906032WA0134301338004003031245232
B0045253645661N11906037WA0134101337004003031239214
B0045263645658N11906042WA0134001335004003032223200
B0045273645653N11906045WA0133901334004003034204194
B0045283645648N11906046WA0133801332004003034186189
B0045293645642N11906045WA0133701331004003036172181
B0045303645637N11906044WA0133601330004003036162175
B0045313645632N11906041WA0133501330004003035160177
B0045323645627N11906039WA0133401328004003036162177
B0045333645622N11906037WA0133301327004003036164179
B0045343645616N11906036WA0133101325004003038165178
B0045353645611N11906034WA0133001324004003038164181
B0045363645605N11906032WA0133001324004003037165182
B0045373645600N11906030WA0132801322004003038167187
B0045383645594N11906029WA0132701321004003038170181
B0045393645588N11906028WA0132601320004003039168167
B0045403645582N11906026WA0132501319004003040161156
B0045413645577N11906023WA0132401318004003040155161
B0045423645571N11906020WA0132201316004003041155173
B0045433645565N11906017WA0132101314004003041160176
B0045443645559N11906015WA0132001313004003043165179
B0045453645553N11906013WA0131901312004003043165171
B0045463645547N11906011WA0131801311004003041164176
B0045473645541N11906009WA0131601309004003041166180
B0045483645535N11906007WA0131501308004003041171187
B0045493645529N11906006WA0131401306004003041173182
B0045503645522N11906006WA0131201304004003042172178
B0045513645516N11906004WA0131101303004003043170177
B0045523645510N11906003WA0131001303004003043170187
B0045533645504N11906002WA0130901302004003042173185
B0045543645498N11906001WA0130801300004003040175181
B0045553645492N11906001WA0130601298004003040172173
B0045563645486N11905999WA0130401296004003042170174
B0045573645479N11905998WA0130301295004003043170179
B0045583645473N11905997WA0130101293004003043172182
B0045593645467N11905996WA0130001292004003043174181
B0046003645460N11905995WA0129901291004003042173179
B0046013645454N11905994WA0129901290004003040171183
B0046023645448N11905993WA0129701289004003041172184
B0046033645442N11905992WA0129601287004003041174188
B0046043645436N11905992WA0129501286004003042176183
B0046053645430N11905991WA0129401285004003042175181
B0046063645423N11905991WA0129301285004003041174177
B0046073645417N11905990WA0129201284004003041173180
B0046083645411N11905989WA0129101283004003040175186
B0046093645405N11905988WA0129001281004003040174181
B0046103645399N11905988WA0128901280004003041173183
B0046113645393N11905987WA0128801279004003041173183
B0046123645387N11905986WA0128701278004003041174185
B0046133645381N11905985WA0128601277004003041175184
B0046143645374N11905985WA0128501276004003041174178
B0046153645368N11905984WA0128401275004003041172186
B0046163645362N11905982WA0128301274004003041171178
B0046173645356N11905981WA0128201273004003041170179
B0046183645350N11905980WA0128101271004003041169178
B0046193645344N11905978WA0128001270004003041166170
B0046203645338N11905976WA0127901269004003042164172
B0046213645332N11905974WA0127701267004003043164173
B0046223645326N11905972WA0127501266004003043165178
B0046233645319N11905970WA0127501265004003043167178
B0046243645313N11905968WA0127301264004003043165170
B0046253645307N11905966WA0127201262004003043164174
B0046263645301N11905964WA0127101261004003043164177
B0046273645294N11905962WA0126901259004003043166184
B0046283645288N11905961WA0126801257004003043169181
B0046293645282N11905959WA0126601256004003043169182
B0046303645275N11905957WA0126501254004003042167178
B0046313645269N11905956WA0126401253004003042166186
B0046323645263N11905954WA0126201252004003042168191
B0046333645257N11905953WA0126101250004003042171189
B0046343645251N11905952WA0125901248004003042172188
B0046353645244N11905951WA0125801247004003043171182
B0046363645238N11905949WA0125601245004003043170183
B0046373645232N11905948WA0125501244004003043171187
B0046383645225N11905947WA0125301242004003042173186
B0046393645219N11905947WA0125201241004003042174190
B0046403645213N11905946WA0125101239004003043173185
B0046413645206N11905945WA0124901238004003043173187
B0046423645200N11905944WA0124801236004003043173185
B0046433645193N11905943WA0124601235004003043172187
B0046443645187N11905942WA0124501233004003043170183
B0046453645180N11905940WA0124401232004003044170183
B0046463645174N11905939WA0124201230004003044170186
B0046473645167N11905938WA0124101229004003044171186
B0046483645161N11905937WA0124001228004003044171186
B0046493645154N11905935WA0123901226004003044171183
B0046503645148N11905934WA0123701225004003043170186
B0046513645141N11905933WA0123601224004003043171185
B0046523645135N11905932WA0123501222004003043171186
B0046533645128N11905930WA0123401221004003044171184
B0046543645122N11905929WA0123201220004003044170182
B0046553645115N11905928WA0123101218004003044170182
B0046563645109N11905926WA0123001217004003044169184
B0046573645103N11905925WA0122801215004003044170185
B0046583645096N11905924WA0122701214004003044170183
B0046593645090N11905922WA0122601213004003044170183
B0047003645083N11905921WA0122501211004003043169185
B0047013645077N11905919WA0122401210004003043169184
B0047023645070N11905918WA0122301209004003043167181
B0047033645064N11905916WA0122201208004003043165181
B0047043645058N11905914WA0122001206004003043165183
B0047053645051N11905912WA0121901205004003044167187
B0047063645045N11905910WA0121701203004003044168185
B0047073645038N11905909WA0121601203004003044168183
B0047083645032N11905907WA0121601203004003044167182
B0047093645026N11905905WA0121501202004003043167185
B0047103645020N11905903WA0121401202004003042166182
B0047113645014N11905902WA0121301200004003042167183
B0047123645008N11905900WA0121101199004003042168188
B0047133645001N11905899WA0121001198004003043170187
B0047143644995N11905897WA0120901196004003043170186
B0047153644988N11905896WA0120801195004003043170187
B0047163644982N11905895WA0120701194004003043170183
B0047173644976N11905893WA0120601192004003043169181
B0047183644969N11905892WA0120401191004003044168180
B0047193644963N11905890WA0120301189004003044167180
B0047203644956N11905888WA0120201188004003045167183
B0047213644949N11905886WA0120001186004003045167178
B0047223644943N11905885WA0119901185004003045167178
B0047233644936N11905883WA0119801184004003045166177
B0047243644930N11905881WA0119701182004003044166179
B0047253644924N11905879WA0119501180004003044166180
B0047263644917N11905877WA0119401179004003045165178
B0047273644911N11905875WA0119201177004003045165177
B0047283644904N11905872WA0119101176004003045163175
B0047293644897N11905870WA0118901174004003045162174
B0047303644891N11905867WA0118801173004003045161176
B0047313644885N11905865WA0118701172004003045161177
B0047323644878N11905862WA0118601171004003044161177
B0047333644872N11905860WA0118501169004003044161174
B0047343644866N11905857WA0118301168004003044160171
B0047353644859N11905854WA0118201167004003045159163
B0047363644853N11905851WA0118201166004003045156156
B0047373644848N11905847WA0118101166004003043152148
B0047383644843N11905844WA0118101165004003041148150
B0047393644838N11905840WA0118001164004003040147165
B0047403644832N11905836WA0117801162004003041148164
B0047413644827N11905832WA0117701162004003041148164
B0047423644822N11905828WA0117701161004003041150155
B0047433644817N11905824WA0117601160004003039151170
B0047443644813N11905821WA0117501159004003036150174
B0047453644808N11905818WA0117401157004003037151189
B0047463644802N11905815WA0117201155004003039157193
B0047473644797N11905813WA0117001153004003039166198
B0047483644791N11905812WA0116901152004003039172200
B0047493644785N11905811WA0116801151004003039177202
B0047503644780N11905811WA0116701151004003035181201
B0047513644774N11905812WA0116601150004003035185204
B0047523644769N11905813WA0116501149004003035186201
B0047533644763N11905814WA0116401147004003036186197
B0047543644757N11905814WA0116201146004003038183195
B0047553644752N11905814WA0116201145004003038180190
B0047563644746N11905814WA0116101144004003038176190
B0047573644741N11905813WA0116001143004003038174185
B0047583644735N11905812WA0115901142004003037172187
B0047593644729N11905811WA0115801141004003037170186
B0048003644724N11905810WA0115701140004003038169191
B0048013644718N11905809WA0115601139004003038168190
B0048023644713N11905807WA0115501138004003038168189
B0048033644708N11905806WA0115401137004003037168191
B0048043644702N11905805WA0115301135004003037170184
B0048053644696N11905804WA0115201134004003040170185
B0048063644690N11905802WA0115001132004003042169184
B0048073644684N11905801WA0114901131004003042168184
B0048083644678N11905799WA0114801130004003042167189
B0048093644672N11905797WA0114801129004003042167180
B0048103644666N11905796WA0114601128004003042166188
B0048113644660N11905793WA0114601127004003042163172
B0048123644654N11905791WA0114401126004003042162180
B0048133644648N11905789WA0114301125004003043162177
B0048143644642N11905786WA0114201124004003043162167
B0048153644636N11905784WA0114101123004003041159159
B0048163644630N11905781WA0114001122004003041155162
B0048173644625N11905778WA0114001121004003040154166
B0048183644619N11905775WA0113901120004003040155174
B0048193644614N11905772WA0113801119004003040157174
B0048203644608N11905769WA0113701118004003039158172
B0048213644603N11905766WA0113601117004003039159180
B0048223644597N11905764WA0113501116004003039159181
B0048233644592N11905761WA0113401115004003039160183
B0048243644586N11905759WA0113301114004003039161187
B0048253644581N11905757WA0113201113004003039161182
B0048263644575N11905754WA0113101112004003038161180
B0048273644570N11905752WA0113001111004003038160177
B0048283644565N11905750WA0112901109004003038159173
B0048293644559N11905747WA0112801108004003039158173
B0048303644554N11905744WA0112601107004003039156173
B0048313644548N11905741WA0112601106004003039154171
B0048323644543N11905738WA0112501105004003039153179
B0048333644538N11905734WA0112401104004003039152166
B0048343644533N11905731WA0112201103004003039153172
B0048353644528N11905728WA0112201102004003039153167
B0048363644522N11905724WA0112101101004003039153170
B0048373644517N11905721WA0111901100004003040153169
B0048383644512N11905718WA0111901099004003040152171
B0048393644507N11905714WA0111801099004003036151178
B0048403644502N11905711WA0111801098004003036153176
B0048413644498N11905709WA0111701096004003036155182
B0048423644492N11905706WA0111501095004003035158194
B0048433644488N11905704WA0111501095004003035161189
B0048443644483N11905702WA0111301094004003036164188
B0048453644477N11905700WA0111201092004003037165197
B0048463644472N11905699WA0111101092004003036166205
B0048473644467N11905698WA0111101091004003035170209
B0048483644462N11905697WA0111001090004003035174203
B0048493644456N11905696WA0110901089004003035175209
B0048503644452N11905696WA0110901089004003035177209
B0048513644447N11905696WA0110801088004003032180205
B0048523644442N11905696WA0110601086004003032182200
B0048533644436N11905697WA0110601086004003034180207
B0048543644432N11905697WA0110501086004003031181211
B0048553644427N11905697WA0110501085004003031184206
B0048563644423N11905698WA0110401084004003030186207
B0048573644418N11905698WA0110301083004003030184199
B0048583644414N11905698WA0110201081004003030182200
B0048593644409N11905699WA0110001079004003036183203
B0049003644403N11905699WA0109901079004003036184222
B0049013644398N11905700WA0109901080004003034185224
B0049023644394N11905700WA0109801078004003030186217
B0049033644389N11905701WA0109701077004003030187207
B0049043644384N11905702WA0109501075004003037186195
B0049053644378N11905702WA0109401074004003038180184
B0049063644373N11905702WA0109401074004003037171171
B0049073644367N11905700WA0109301073004003037160166
B0049083644362N11905697WA0109301073004003037154164
B0049093644357N11905694WA0109301072004003038150170
B0049103644353N11905690WA0109201071004003038148176
B0049113644348N11905686WA0109101070004003038148169
B0049123644343N11905683WA0109001070004003037149174
B0049133644338N11905680WA0108901068004003036149167
B0049143644334N11905676WA0108801067004003037148162
B0049153644329N11905672WA0108701066004003039145154
B0049163644324N11905667WA0108601065004003039142151
B0049173644320N11905663WA0108501064004003040138149
B0049183644316N11905657WA0108401063004003040134146
B0049193644312N11905652WA0108401062004003040131142
B0049203644308N11905646WA0108301061004003040129140
B0049213644304N11905640WA0108201060004003040127138
B0049223644301N11905634WA0108101059004003040124146
B0049233644298N11905628WA0108001058004003040125156
B0049243644294N11905623WA0107901057004003039130166
B0049253644290N11905618WA0107801056004003039137170
B0049263644285N11905613WA0107701055004003038144173
B0049273644280N11905610WA0107601054004003038150178
B0049283644275N11905607WA0107601053004003038156183
B0049293644269N11905604WA0107501052004003037164181
B0049303644264N11905603WA0107401052004003037170183
B0049313644259N11905602WA0107301051004003036170181
B0049323644253N11905601WA0107301051004003036165171
B0049333644248N11905598WA0107301051004003037158165
B0049343644243N11905595WA0107301050004003040151162
B0049353644238N11905591WA0107201050004003042145169
B0049363644232N11905586WA0107301050004003041145182
B0049373644227N11905583WA0107301051004003041154196
B0049383644222N11905581WA0107201050004003037169199
B0049393644217N11905581WA0107201049004003036184209
B0049403644211N11905582WA0107101049004003036196213
B0049413644207N11905584WA0107101049004003035202223
B0049423644203N11905587WA0107101049004003033208227
B0049433644200N11905590WA0107101049004003028220231
B0049443644198N11905593WA0107001048004003023239240
B0049453644197N11905598WA0107001047004003023260253
B0049463644197N11905602WA0106901046004003022283266
B0049473644199N11905605WA0106801045004003021303280
B0049483644201N11905608WA0106701045004003020319294
B0049493644203N11905610WA0106601044004003019327307
B0049503644206N11905612WA0106501043004003021331313
B0049513644209N11905613WA0106401042004003021331314
B0049523644211N11905616WA0106301041004003022326308
B0049533644214N11905618WA0106301040004003022320308
B0049543644216N11905621WA0106201039004003021316309
B0049553644219N11905624WA0106201039004003021312303
B0049563644221N11905627WA0106101038004003021311302
B0049573644223N11905630WA0106001037004003020308288
B0049583644224N11905633WA0106001036004003020302291
B0049593644226N11905637WA0105901035004003023293286
B0050003644227N11905641WA0105801034004003024285285
B0050013644228N11905645WA0105701034004003023282285
B0050023644228N11905649WA0105701034004003022280284
B0050033644228N11905652WA0105701034004003018273269
B0050043644228N11905655WA0105601033004003019264274
B0050053644228N11905659WA0105501031004003021257266
B0050063644227N11905663WA0105501031004003021253264
B0050073644226N11905667WA0105401030004003021251267
B0050083644225N11905670WA0105301029004003021250264
B0050093644224N11905674WA0105201028004003023249256
B0050103644222N11905678WA0105101027004003023240238
B0050113644220N11905681WA0105001026004003023226225
B0050123644217N11905684WA0104901025004003024211214
B0050133644213N11905687WA0104901024004003028202216
B0050143644208N11905688WA0104701023004003033195219
B0050153644203N11905690WA0104701023004003033191229
B0050163644199N11905691WA0104701023004003032191240
B0050173644194N11905692WA0104701022004003031195244
B0050183644191N11905694WA0104601021004003029205243
B0050193644188N11905697WA0104501020004003025215244
B0050203644185N11905700WA0104401019004003025227249
B0050213644183N11905703WA0104301019004003024238257
B0050223644182N11905707WA0104301018004003023250269
B0050233644181N11905711WA0104201018004003021263279
B0050243644182N11905714WA0104201017004003017277289
B0050253644182N11905717WA0104101016004003017292301
B0050263644184N11905720WA0104101016004003017306305
B0050273644186N11905722WA0104001014004003018315310
B0050283644188N11905725WA0103901014004003021318308
B0050293644191N11905727WA0103801013004003021320309
B0050303644193N11905730WA0103701012004003021324312
B0050313644196N11905732WA0103701012004003020327312
B0050323644198N11905733WA0103601011004003020331320
B0050333644201N11905735WA0103601010004003020336332
B0050343644204N11905736WA0103501010004003020344340
B0050353644207N11905737WA0103401009004003020357351
B0050363644211N11905736WA0103301008004003022006349
B0050373644214N11905735WA0103201007004003025007336
B0050383644218N11905735WA0103101006004003025005321
B0050393644222N11905735WA0103001005004003025359324
B0050403644225N11905735WA0103001004004003024355320
B0050413644229N11905736WA0102901004004003024356336
B0050423644233N11905736WA0102901003004003024000331
B0050433644236N11905735WA0102801003004003024359327
B0050443644240N11905736WA0102701002004003024358326
B0050453644244N11905736WA0102701001004003024358333
B0050463644248N11905736WA0102601000004003025358328
B0050473644251N11905736WA0102500999004003025357322
B0050483644255N11905736WA0102400998004003025353314
B0050493644258N11905737WA0102300997004003024345313
B0050503644261N11905739WA0102300996004003023336301
B0050513644264N11905741WA0102200996004003022325295
B0050523644266N11905743WA0102100995004003019306280
B0050533644267N11905747WA0102000994004003019284268
B0050543644267N11905750WA0101900992004003019261260
B0050553644265N11905754WA0101700991004003021238249
B0050563644262N11905758WA0101600990004003024219235
B0050573644258N11905760WA0101500989004003030202221
B0050583644254N11905761WA0101400987004003033185201
B0050593644248N11905761WA0101300986004003033169184
B0051003644243N11905758WA0101100985004003036152167
B0051013644238N11905753WA0101000983004003040135147
B0051023644235N11905746WA0101000982004003043117126
B0051033644233N11905738WA0100800982004003043095105
B0051043644234N11905731WA0100700980004003042074080
B0051053644237N11905725WA0100600979004003040052056
B0051063644241N11905722WA0100500978004003034028031
B0051073644245N11905721WA0100300976004003025000005
B0051083644249N11905723WA0100200975004003025327338
B0051093644250N11905727WA0100000973004003023292313
B0051103644249N11905731WA0099900971004003023251288
B0051113644246N11905735WA0099800970004003025222261
B0051123644243N11905738WA0099700970004003030206235
B0051133644238N11905740WA0099600969004003030197220
B0051143644234N11905741WA0099600968004003029191214
B0051153644230N11905742WA0099500967004003029187212
B0051163644224N11905743WA0099400966004003032184208
B0051173644219N11905743WA0099300965004003035183206
B0051183644214N11905743WA0099200965004003035182203
B0051193644209N11905744WA0099200964004003034182201
B0051203644204N11905744WA0099100964004003033180202
B0051213644199N11905744WA0099000963004003033180199
B0051223644194N11905744WA0099000962004003035181202
B0051233644189N11905744WA0098900961004003035182202
B0051243644183N11905744WA0098900961004003035181203
B0051253644178N11905744WA0098800960004003034181206
B0051263644173N11905745WA0098700959004003034183217
B0051273644168N11905745WA0098600958004003035186217
B0051283644163N11905746WA0098500957004003035188218
B0051293644158N11905747WA0098400956004003035190223
B0051303644153N11905749WA0098400955004003034193225
B0051313644148N11905750WA0098300954004003033197238
B0051323644144N11905752WA0098200953004003031203238
B0051333644140N11905755WA0098100952004003031210243
B0051343644136N11905759WA0098000951004003031217262
B0051353644133N11905762WA0097900950004003030225267
B0051363644131N11905766WA0097900949004003028236276
B0051373644129N11905770WA0097700948004003023253281
B0051383644129N11905774WA0097600947004003023272291
B0051393644130N11905778WA0097500945004003021296295
B0051403644133N11905780WA0097400944004003020319304
B0051413644135N11905782WA0097300943004003020336317
B0051423644138N11905783WA0097200942004003020342323
B0051433644141N11905784WA0097100941004003020346329
B0051443644144N11905785WA0097000940004003019348324
B0051453644147N11905786WA0096800939004003019346325
B0051463644150N11905787WA0096700937004003021341317
B0051473644153N11905788WA0096600936004003020334314
B0051483644155N11905790WA0096500935004003020323313
B0051493644157N11905793WA0096500935004003020315301
B0051503644159N11905795WA0096400935004003019308305
B0051513644160N11905798WA0096400934004003017303298
B0051523644161N11905801WA0096300933004003017295293
B0051533644162N11905804WA0096200932004003019288284
B0051543644163N11905808WA0096100931004003019279276
B0051553644163N11905812WA0096100931004003021266261
B0051563644162N11905816WA0096000930004003022251259
B0051573644160N11905820WA0096000930004003024240253
B0051583644158N11905823WA0095900929004003025233254
B0051593644156N11905827WA0095900929004003025228251
B0052003644153N11905831WA0095800928004003027223248
B0052013644149N11905834WA0095800927004003028218245
B0052023644146N11905838WA0095700927004003030214250
B0052033644142N11905840WA0095700927004003030211245
B0052043644138N11905843WA0095600926004003030209250
B0052053644134N11905846WA0095600925004003030208247
B0052063644130N11905849WA0095500925004003030208255
B0052073644126N11905851WA0095400924004003030210257
B0052083644122N11905854WA0095400924004003030213258
B0052093644119N11905857WA0095300923004003029218259
B0052103644116N11905861WA0095300922004003028225261
B0052113644114N11905864WA0095200922004003026231263
B0052123644112N11905868WA0095200921004003024233257
B0052133644109N11905872WA0095100920004003025230259
B0052143644107N11905875WA0095000920004003025229275
B0052153644105N11905879WA0095000919004003025235283
B0052163644103N11905883WA0094900918004003025254296
B0052173644104N11905886WA0094700916004003019286304
B0052183644106N11905889WA0094600915004003019318319
B0052193644109N11905890WA0094600915004003019351333
B0052203644112N11905889WA0094500915004003020021346
B0052213644114N11905887WA0094500915004003021037000
B0052223644117N11905884WA0094500914004003024044017
B0052233644120N11905880WA0094400913004003026046022
B0052243644123N11905876WA0094300912004003026046019
B0052253644126N11905873WA0094200912004003028042005
B0052263644129N11905870WA0094200911004003028033358
B0052273644132N11905868WA0094200911004003022020350
B0052283644135N11905867WA0094100910004003022011343
B0052293644138N11905867WA0094000909004003021004337
B0052303644141N11905867WA0093900908004003020358330
B0052313644144N11905867WA0093900908004003020348326
B0052323644146N11905868WA0093800907004003019340323
B0052333644149N11905870WA0093800907004003019330319
B0052343644151N11905872WA0093700906004003018320313
B0052353644153N11905874WA0093600905004003018309296
B0052363644154N11905877WA0093500904004003018291283
B0052373644154N11905881WA0093500904004003019271270
B0052383644154N11905885WA0093400903004003019252254
B0052393644152N11905889WA0093300902004003022236240
B0052403644149N11905892WA0093300901004003026222230
B0052413644145N11905896WA0093200900004003032210214
B0052423644140N11905898WA0093100900004003034198203
B0052433644135N11905899WA0093100899004003034187191
B0052443644130N11905899WA0093000899004003036177186
B0052453644124N11905898WA0093000898004003038169178
B0052463644118N11905896WA0092900897004003040163187
B0052473644112N11905894WA0092900897004003040159191
B0052483644107N11905891WA0092900897004003040159206
B0052493644101N11905889WA0092800896004003039165203
B0052503644096N11905888WA0092800895004003038176212
B0052513644091N11905889WA0092700895004003035187217
B0052523644085N11905890WA0092700895004003035197225
B0052533644081N11905892WA0092600894004003034202232
B0052543644077N11905895WA0092500894004003032212238
B0052553644074N11905898WA0092500893004003028227246
B0052563644073N11905902WA0092500892004003021246260
B0052573644072N11905905WA0092400892004003021274277
B0052583644073N11905908WA0092300891004003017315294
B0052593644076N11905909WA0092200890004003017348317
B0053003644079N11905908WA0092200890004003018009336
B0053013644082N11905907WA0092200889004003021026348
B0053023644084N11905905WA0092100889004003023038006
B0053033644087N11905902WA0092000888004003023044011
B0053043644090N11905898WA0091900887004003025044013
B0053053644093N11905895WA0091800886004003027041012
B0053063644096N11905892WA0091800885004003025035008
B0053073644099N11905889WA0091700884004003025031005
B0053083644102N11905887WA0091600884004003023029005
B0053093644105N11905885WA0091600883004003022029011
B0053103644108N11905883WA0091500882004003022030007
B0053113644111N11905881WA0091300881004003024030001
B0053123644114N11905879WA0091200880004003024027355
B0053133644117N11905877WA0091200879004003023023354
B0053143644120N11905875WA0091100878004003023022000
B0053153644123N11905874WA0091100877004003022024001
B0053163644126N11905872WA0091000877004003021023352
B0053173644129N11905871WA0090900876004003021017339
B0053183644132N11905870WA0090800874004003021005323
B0053193644135N11905871WA0090700873004003020347311
B0053203644137N11905872WA0090500872004003019320305
B0053213644138N11905875WA0090400871004003021295295
B0053223644139N11905879WA0090300870004003022281291
B0053233644140N11905883WA0090300869004003022270281
B0053243644139N11905887WA0090200869004003022259274
B0053253644138N11905891WA0090200868004003022249267
B0053263644137N11905895WA0090100867004003024241262
B0053273644135N11905899WA0089900865004003026235260
B0053283644132N11905903WA0089800864004003026229252
B0053293644129N11905907WA0089700863004003027223249
B0053303644126N11905910WA0089600862004003028218252
B0053313644122N11905913WA0089500861004003029216257
B0053323644119N11905917WA0089500860004003029218255
B0053333644116N11905920WA0089400860004003028222258
B0053343644113N11905924WA0089400859004003028224250
B0053353644110N11905927WA0089400859004003027224252
B0053363644107N11905930WA0089300859004003026224253
B0053373644104N11905934WA0089300858004003028228253
B0053383644102N11905938WA0089200858004003028231260
B0053393644099N11905943WA0089300859004003028231263
B0053403644096N11905946WA0089400860004003028228266
B0053413644094N11905950WA0089400861004003024223265
B0053423644091N11905952WA0089500861004003024222264
B0053433644089N11905956WA0089500860004003024228258
B0053443644087N11905959WA0089400860004003024241283
B0053453644086N11905963WA0089400860004003024256294
B0053463644086N11905967WA0089400860004003018277293
B0053473644087N11905970WA0089400860004003018298308
B0053483644088N11905972WA0089400859004003017312315
B0053493644090N11905975WA0089300858004003017317325
B0053503644093N11905977WA0089200857004003019329332
B0053513644095N11905978WA0089100857004003020344333
B0053523644098N11905979WA0089100857004003020355335
B0053533644101N11905979WA0089100857004003019358327
B0053543644104N11905979WA0089100856004003019355312
B0053553644107N11905980WA0089000855004003019346309
B0053563644109N11905981WA0088900854004003019327302
B0053573644111N11905984WA0088800853004003019298291
B0053583644112N11905987WA0088700853004003019267279
B0053593644111N11905991WA0088600852004003020239265
B0054003644108N11905994WA0088600851004003022216249
B0054013644104N11905997WA0088500851004003032196230
B0054023644098N11905997WA0088400850004003036179207
B0054033644093N11905995WA0088300848004003036157184
B0054043644087N11905990WA0088100846004003040133158
B0054053644085N11905981WA0087900843004003045110128
B0054063644084N11905972WA0087800842004003047086098
B0054073644086N11905965WA0087800843004003047071071
B0054083644088N11905959WA0087800844004003041065056
B0054093644090N11905953WA0087900844004003035067045
B0054103644092N11905948WA0087800844004003032066038
B0054113644094N11905943WA0087700842004003031052035
B0054123644098N11905939WA0087600840004003031035021
B0054133644102N11905937WA0087500840004003031018008
B0054143644106N11905936WA0087500840004003029004355
B0054153644109N11905937WA0087500840004003025350344
B0054163644112N11905938WA0087400839004003021336330
B0054173644115N11905940WA0087400838004003022327318
B0054183644118N11905942WA0087400838004003022321319
B0054193644120N11905945WA0087300838004003022315319
B0054203644122N11905948WA0087400838004003021313309
B0054213644124N11905950WA0087400838004003018319318
B0054223644126N11905952WA0087400838004003018326317
B0054233644129N11905954WA0087400838004003018332328
B0054243644131N11905955WA0087400838004003018334328
B0054253644134N11905957WA0087400838004003019339346
B0054263644137N11905958WA0087300838004003021351349
B0054273644140N11905958WA0087300837004003023004356
B0054283644144N11905957WA0087200837004003023010352
B0054293644148N11905956WA0087200837004003026006335
B0054303644152N11905956WA0087300837004003026357329
B0054313644155N11905957WA0087300838004003022346315
B0054323644158N11905958WA0087400839004003022340320
B0054333644161N11905959WA0087500839004003020344330
B0054343644163N11905960WA0087500840004003020353328
B0054353644167N11905960WA0087600840004003020354316
B0054363644170N11905961WA0087600840004003021337292
B0054373644172N11905963WA0087600840004003021303278
B0054383644172N11905968WA0087600840004003021268267
B0054393644171N11905972WA0087600840004003023239251
B0054403644168N11905976WA0087600840004003029215233
B0054413644163N11905978WA0087600840004003032191214
B0054423644158N11905977WA0087600840004003032169192
B0054433644153N11905974WA0087500838004003036145172
B0054443644149N11905968WA0087300836004003040124143
B0054453644147N11905959WA0087100834004003046098116
B0054463644149N11905951WA0087100834004003046071082
B0054473644153N11905945WA0087100835004003044046051
B0054483644157N11905942WA0087200836004003037021024
B0054493644160N11905942WA0087200837004003029358359
B0054503644163N11905943WA0087300838004003020341338
B0054513644166N11905945WA0087400838004003020332320
B0054523644168N11905946WA0087400838004003019332319
B0054533644171N11905948WA0087500838004003019337323
B0054543644174N11905949WA0087500838004003021338315
B0054553644177N11905951WA0087500839004003022323298
B0054563644179N11905954WA0087500839004003022296290
B0054573644179N11905959WA0087500839004003022270276
B0054583644178N11905963WA0087500839004003024247263
B0054593644176N11905967WA0087500839004003025225248
B0055003644173N11905970WA0087500838004003027205234
B0055013644168N11905971WA0087400838004003031188219
B0055023644163N11905971WA0087300836004003031170201
B0055033644158N11905968WA0087200835004003034149184
B0055043644154N11905962WA0087000833004003039129159
B0055053644151N11905954WA0086900831004003043109131
B0055063644151N11905946WA0086800831004003043088103
B0055073644153N11905940WA0086700830004003041067076
B0055083644156N11905935WA0086700830004003037049050
B0055093644160N11905931WA0086700831004003034040023
B0055103644163N11905927WA0086800832004003030036015
B0055113644167N11905924WA0086800832004003030035009
B0055123644170N11905921WA0086900833004003029031359
B0055133644174N11905918WA0086900833004003029025352
B0055143644178N11905917WA0086900833004003028014336
B0055153644181N11905916WA0087000833004003022359331
B0055163644184N11905917WA0087000833004003022339314
B0055173644186N11905919WA0086900833004003018316301
B0055183644188N11905922WA0086900832004003017292283
B0055193644188N11905925WA0086800831004003017266270
B0055203644187N11905929WA0086700830004003021240255
B0055213644184N11905932WA0086600828004003025220240
B0055223644181N11905935WA0086400827004003025207227
B0055233644177N11905937WA0086300826004003029200221
B0055243644172N11905938WA0086200825004003030194221
B0055253644168N11905940WA0086200824004003032190225
B0055263644163N11905941WA0086100824004003032190230
B0055273644158N11905942WA0086000823004003032194235
B0055283644154N11905944WA0086000822004003030200241
B0055293644151N11905946WA0085900821004003028210252
B0055303644148N11905949WA0085800820004003023227258
B0055313644146N11905952WA0085600820004003023249267
B0055323644146N11905956WA0085500818004003022265280
B0055333644146N11905960WA0085400818004003021288286
B0055343644148N11905963WA0085300817004003020309297
B0055353644150N11905965WA0085200816004003017324309
B0055363644152N11905967WA0085100815004003018335320
B0055373644155N11905968WA0085000813004003018341329
B0055383644158N11905969WA0084900812004003020348334
B0055393644162N11905969WA0084800811004003022000346
B0055403644165N11905969WA0084700810004003024013348
B0055413644169N11905967WA0084600810004003025021348
B0055423644173N11905965WA0084400809004003025018339
B0055433644176N11905964WA0084300807004003026008327
B0055443644180N11905965WA0084100805004003026353314
B0055453644184N11905966WA0084000804004003023337302
B0055463644187N11905968WA0083900803004003023313296
B0055473644188N11905971WA0083800802004003020297291
B0055483644188N11905975WA0083600801004003019278279
B0055493644188N11905979WA0083500800004003019268272
B0055503644188N11905983WA0083400799004003022254272
B0055513644186N11905987WA0083300797004003022247264
B0055523644185N11905991WA0083200796004003022250275
B0055533644184N11905995WA0083100795004003022251263
B0055543644182N11906000WA0083000794004003022250262
B0055553644181N11906004WA0083000794004003023247250
B0055563644180N11906007WA0083000793004003023246254
B0055573644179N11906011WA0083100794004003021242250
B0055583644177N11906014WA0083100794004003019235283
B0055593644176N11906016WA0083100793004003017217242
B0056003644173N11906018WA0083000792004003019213253
B0056013644171N11906020WA0082800790004003022221271
B0056023644169N11906023WA0082700789004003022232271
B0056033644167N11906027WA0082700788004003023244276
B0056043644166N11906031WA0082700788004003023250263
B0056053644165N11906035WA0082700789004003022246271
B0056063644163N11906039WA0082700789004003022237261
B0056073644161N11906042WA0082700789004003021233274
B0056083644159N11906045WA0082800789004003020233264
B0056093644157N11906048WA0082800789004003020231268
B0056103644155N11906051WA0082700788004003023229262
B0056113644153N11906054WA0082700788004003023227256
B0056123644151N11906057WA0082700788004003023226262
B0056133644146N11906063WA0082700788004003022214262
B0056143644143N11906064WA0082700788004003021208263
B0056153644140N11906066WA0082600787004003021212267
B0056163644138N11906069WA0082500785004003021224261
B0056173644135N11906072WA0082400785004003022229266
B0056183644133N11906075WA0082400785004003022223264
B0056193644131N11906078WA0082400785004003020215259
B0056203644128N11906080WA0082400784004003020213256
B0056213644126N11906082WA0082300784004003020214259
B0056223644124N11906084WA0082200783004003020216261
B0056233644121N11906086WA0082200782004003020221266
B0056243644119N11906089WA0082100781004003021223268
B0056253644117N11906091WA0082000780004003021223272
B0056263644114N11906094WA0082000780004003020224271
B0056273644113N11906097WA0082000779004003020231272
B0056283644111N11906099WA0081900779004003018246276
B0056293644111N11906102WA0081800778004003014266278
B0056303644111N11906104WA0081700777004003014277285
B0056313644111N11906107WA0081600776004003014271270
B0056323644111N11906110WA0081400774004003015253259
B0056333644109N11906113WA0081400773004003017231245
B0056343644107N11906116WA0081200772004003023214238
B0056353644103N11906118WA0081100771004003025206240
B0056363644100N11906120WA0081000770004003025203241
B0056373644097N11906121WA0081000770004003025203253
B0056383644093N11906123WA0080900769004003024202250
B0056393644090N11906125WA0080800768004003025201252
B0056403644086N11906126WA0080800767004003025203262
B0056413644083N11906128WA0080700767004003024219271
B0056423644082N11906131WA0080500766004003021254284
B0056433644083N11906134WA0080400765004003017302304
B0056443644085N11906136WA0080300763004003020339321
B0056463644089N11906136WA0080300763004003023005340
B0056473644092N11906135WA0080200762004003023024354
B0056483644096N11906132WA0080100761004003025037004
B0056493644099N11906128WA0080000760004003031046016
B0056503644102N11906123WA0079900759004003033051026
B0056513644105N11906119WA0079800758004003033050032
B0056523644109N11906114WA0079700757004003034045019
B0056533644112N11906109WA0079700756004003035044020
B0056543644116N11906105WA0079600756004003034044022
B0056553644120N11906101WA0079600755004003034042024
B0056563644123N11906096WA0079500755004003033042018
B0056573644127N11906092WA0079500754004003033043023
B0056583644130N11906088WA0079400753004003032043017
B0056593644134N11906084WA0079300752004003032042014
B0057003644137N11906081WA0079200751004003031040009
B0057013644141N11906077WA0079100750004003030035002
B0057023644144N11906074WA0079000750004003030029359
B0057033644148N11906072WA0078900749004003029025355
B0057043644152N11906070WA0078800749004003029023356
B0057053644156N11906068WA0078800748004003027020006
B0057063644159N11906066WA0078800748004003026017339
B0057073644162N11906065WA0078700747004003024012321
B0057083644165N11906065WA0078600746004003019353313
B0057093644168N11906067WA0078500744004003019325301
B0057103644170N11906069WA0078300744004003018302290
B0057113644170N11906072WA0078200742004003017272277
B0057123644169N11906076WA0078200742004003017245261
B0057133644168N11906078WA0078100741004003018223249
B0057143644165N11906080WA0078000740004003021211242
B0057153644161N11906082WA0078000739004003021202244
B0057163644158N11906084WA0077900739004003023197234
B0057173644154N11906085WA0077800738004003026197239
B0057183644150N11906087WA0077800738004003026198254
B0057193644146N11906088WA0077800738004003026201255
B0057203644143N11906090WA0077800737004003024212261
B0057213644141N11906093WA0077800737004003021234266
B0057223644141N11906095WA0077700736004003018265281
B0057233644142N11906098WA0077700735004003015311295
B0057243644144N11906099WA0077600735004003018345317
B0057253644148N11906099WA0077500733004003018006335
B0057263644152N11906097WA0077400732004003024021346
B0057273644157N11906095WA0077400733004003031033002
B0057283644161N11906090WA0077400733004003036045018
B0057293644164N11906085WA0077400733004003036050028
B0057303644168N11906081WA0077400733004003034048027
B0057313644171N11906077WA0077400732004003032039015
B0057323644174N11906074WA0077300731004003030021003
B0057333644177N11906073WA0077200731004003025000342
B0057343644181N11906074WA0077000729004003025337323
B0057353644184N11906076WA0076900729004003024306309
B0057363644185N11906080WA0076900728004003021275291
B0057373644184N11906084WA0076800728004003021250277
B0057383644182N11906088WA0076800727004003021240266
B0057393644180N11906092WA0076700727004003021233260
B0057403644178N11906095WA0076700726004003021229255
B0057413644175N11906098WA0076700725004003021227262
B0057423644173N11906102WA0076600725004003022225263
B0057433644170N11906105WA0076600724004003023223257
B0057443644168N11906108WA0076600724004003024223245
B0057453644165N11906110WA0076500724004003024218244
B0057463644162N11906113WA0076500723004003024215258
B0057473644159N11906116WA0076500723004003024210262
B0057483644156N11906117WA0076500723004003019209251
B0057493644152N11906121WA0076500722004003018218256
B0057503644150N11906123WA0076400721004003018217256
B0057513644147N11906125WA0076300721004003019215257
B0057523644145N11906127WA0076200721004003019214258
B0057533644143N11906129WA0076200720004003019210254
B0057543644141N11906131WA0076100720004003017209257
B0057553644138N11906132WA0076100719004003017213247
B0057563644136N11906135WA0076000719004003018219255
B0057573644134N11906137WA0076000719004003022217258
B0057583644131N11906139WA0076100719004003022214266
B0057593644128N11906141WA0076100719004003022210264
B0058003644126N11906143WA0076200719004003018219260
B0058013644125N11906145WA0076100718004003013252264
B0058023644126N11906147WA0076000716004003015283282
B0058033644127N11906150WA0075900714004003018311298
B0058043644130N11906151WA0075800714004003018339312
B0058053644133N11906151WA0075700714004003019004325
B0058063644136N11906151WA0075700714004003021025342
B0058073644140N11906149WA0075600713004003023029351
B0058083644143N11906146WA0075500712004003025029354
B0058093644146N11906144WA0075400712004003025028355
B0058103644150N11906141WA0075300710004003026023353
B0058113644154N11906140WA0075300710004003027014335
B0058123644158N11906139WA0075200709004003027008330
B0058133644162N11906139WA0075100708004003027000325
B0058143644165N11906139WA0075000707004003026354322
B0058153644169N11906140WA0075000707004003024349322
B0058163644171N11906141WA0075000707004003021344321
B0058173644173N11906141WA0075000707004003015344315
B0058183644176N11906142WA0074900705004003016345315
B0058193644178N11906143WA0074800704004003016342312
B0058203644181N11906144WA0074700703004003018341317
B0058213644184N11906145WA0074600702004003019345318
B0058223644187N11906146WA0074500702004003019348328
B0058233644189N11906147WA0074400700004003019348325
B0058243644192N11906147WA0074300700004003019343320
B0058253644196N11906149WA0074100699004003020342315
B0058263644199N11906150WA0074000698004003022339311
B0058273644202N11906152WA0073900697004003025335307
B0058283644206N11906154WA0073800696004003025335318
B0058293644209N11906156WA0073800696004003024339318
B0058303644212N11906157WA0073700695004003024340321
B0058313644216N11906159WA0073700695004003025338296
B0058323644219N11906161WA0073600694004003021330285
B0058333644221N11906163WA0073600693004003021316287
B0058343644222N11906165WA0073400692004003017306289
B0058353644224N11906168WA0073300691004003017301295
B0058363644225N11906171WA0073200688004003017307299
B0058373644227N11906174WA0073000686004003021311286
B0058383644229N11906177WA0072800685004003023312281
B0058393644231N11906180WA0072700684004003023300252
B0058403644231N11906185WA0072600682004003023266246
B0058413644230N11906189WA0072400682004003023229234
B0058423644227N11906192WA0072300682004003031200218
B0058433644221N11906194WA0072300681004003032184204
B0058443644216N11906193WA0072300681004003031169201
B0058453644212N11906191WA0072300680004003030158189
B0058463644208N11906188WA0072200679004003027154192
B0058473644205N11906187WA0072100678004003026164200
B0058483644201N11906186WA0072000678004003026179202
B0058493644197N11906186WA0072000677004003025186211
B0058503644194N11906187WA0071900676004003024181205
B0058513644191N11906187WA0071900675004003021182223
B0058523644188N11906187WA0071800674004003021198229
B0058533644185N11906189WA0071600672004003020211246
B0058543644183N11906191WA0071500672004003020212225
B0058553644180N11906193WA0071400671004003022201228
B0058563644176N11906194WA0071400670004003023190222
B0058573644173N11906195WA0071300669004003022187216
B0058583644170N11906196WA0071200669004003022194215
B0058593644166N11906197WA0071200668004003022196219
B0059003644163N11906197WA0071200667004003022189213
B0059023644160N11906198WA0071100666004003021186217
B0059033644157N11906198WA0071100666004003021186217
B0059043644154N11906199WA0071000664004003022185224
B0059053644150N11906200WA0070800663004003022193228
B0059063644147N11906201WA0070700662004003022210244
B0059073644145N11906203WA0070700661004003021229261
B0059083644144N11906206WA0070600660004003017251278
B0059093644144N11906209WA0070400659004003017278291
B0059103644146N11906212WA0070300657004003017304305
B0059113644148N11906215WA0070100656004003019324315
B0059123644151N11906217WA0070100655004003022339324
B0059133644155N11906218WA0070000654004003022343321
B0059143644157N11906219WA0069900653004003022335298
B0059153644160N11906221WA0069700651004003020315289
B0059163644161N11906225WA0069600649004003021292280
B0059173644161N11906229WA0069400648004003021270271
B0059183644161N11906233WA0069400647004003021254258
B0059193644159N11906236WA0069300646004003020242251
B0059203644158N11906239WA0069200645004003019241250
B0059213644157N11906242WA0069100645004003018247250
B0059223644156N11906245WA0069000644004003018250258
B0059233644155N11906248WA0068900642004003018254261
B0059243644155N11906252WA0068800642004003018257259
B0059253644154N11906256WA0068600641004003020256255
B0059263644153N11906260WA0068400639004003024258256
B0059273644152N11906265WA0068300637004003026261258
B0059283644152N11906269WA0068100637004003024261252
B0059293644151N11906273WA0068000636004003023259253
B0059303644151N11906276WA0068000635004003018253252
B0059313644150N11906278WA0067900635004003014255269
B0059323644150N11906280WA0067900635004003014277267
B0059333644151N11906282WA0067900635004003011275264
B0059343644151N11906283WA0067800635004003010270266
B0059353644150N11906286WA0067800636004003010260252
B0059363644150N11906288WA0067800635004003014249244
B0059373644148N11906293WA0067800634004003014251262
B0059383644147N11906296WA0067700634004003015260256
B0059393644147N11906299WA0067700633004003016264265
B0059403644147N11906302WA0067700633004003016267268
B0059413644146N11906305WA0067700632004003017266275
B0059423644146N11906308WA0067700632004003016261266
B0059433644146N11906311WA0067700632004003015263261
B0059443644146N11906313WA0067600632004003015269270
B0059453644146N11906316WA0067700632004003014270272
B0059463644146N11906318WA0067700631004003014266270
B0059473644146N11906320WA0067700631004003011277305
B0059483644146N11906322WA0067700630004003011288298
B0059493644147N11906324WA0067700629004003010283275
B0059503644147N11906325WA0067700630004003010276278
B0059513644147N11906327WA0067700630004003010282281
B0059523644147N11906329WA0067700629004003010281271
B0059533644148N11906331WA0067700629004003011280272
B0059543644148N11906333WA0067700629004003011285277
B0059553644148N11906334WA0067700629004003006279269
B0059563644148N11906335WA0067700629004003006288344
B0059573644148N11906336WA0067700629004003006265312
B0059583644148N11906337WA0067700629004003005265302
B0059593644148N11906338WA0067700630004003004265303
B0100003644148N11906338WA0067700629004003001265304
B0100013644147N11906338WA0067700629004003000265309
B0100023644147N11906338WA0067700629004003001265308
B0100033644147N11906338WA0067700629004003001282295
B0100043644148N11906338WA0067700630004003001282290
B0100053644148N11906338WA0067700630004003001282297
B0100063644148N11906339WA0067700630004003000282294
B0100073644148N11906338WA0067700630004003000282292
B0100083644148N11906338WA0067700630004003000282289
B0100093644148N11906338WA0067700630004003000282288
B0100103644148N11906338WA0067700630004003000282286
B0100113644148N11906338WA0067700629004003000282285
B0100123644148N11906338WA0067700629004003000282284
B0100133644148N11906338WA0067700629004003000282284
B0100143644148N11906338WA0067700630004003000282282
B0100153644148N11906338WA0067700629004003000282282
B0100163644148N11906338WA0067700630004003000282282
B0100173644148N11906338WA0067700629004003000282282
B0100183644148N11906338WA0062900629004003000282282
B0100193644148N11906338WA0062900629004003000282281
B0100203644148N11906338WA0062900629004003000282281
B0100213644148N11906338WA0062900629004003000282281
B0100223644148N11906338WA0062900629004003000282281
B0100233644148N11906338WA0062900629004003000282281
B0100243644148N11906338WA0062900629004003000282281
E010025PEVVario Device disconnected
B0100253644148N11906338WA0069100629004003000282281
B0100263644148N11906338WA0069100629005003000282281
B0100273644148N11906338WA0069100629004003000282281
GLvsnJYO9UvDnzO/CRx8y+58cLYvGXAw9ZCOUlEqGIcf9dLWJ3xP9NnuGGDEjkQCZ
GIQblVIMhazWP8qq1DYAfnetcYhmktnmvYFHTmRQOjqBjUD+HhzCtGHLRX0fH45lu
G7IWIOF/QT6jgaG7PjYUB/BgddjmA8e5wdkc3mvngHHY=
