AXFH000
HFDTE150826
HFPLTPILOT:KaranS
HFGTYGLIDERTYPE:Niviuk Hiko P
HFDTM100GPSDATUM:WGS84
HFRFWFIRMWAREVERSION:9.7
HFRHWHARDWAREVERSION:iPhone 17 Pro
HFFTYFRTYPE:Flyskyhy,9.7
HFGPS:Internal
HFPRSVARIO:XC Tracer
HFCCLCOMPETITIONCLASS:Paraglider
HFTZNTIMEZONE:-7
HFSITSITE:Ed Levin,US
I053638FXA3941VXA4244GSP4547CCO4850HDT
C150826174014150826000109TASK
C0000000N00000000ETAKEOFF
C3645907N11905878W00010009999999000000360000STARTAREA DNLNCH
C3646886N11907285W00000000000400000000360000TURNAREA 49917
C3644816N11904600W00000000001000000000360000TURNAREA SONTAG
C3646886N11907285W00000000000400000000360000TURNAREA 49917
C3644411N11907767W00000000001500000000360000TURNAREA TURKEY
C3645907N11905878W00000000000400000000360000TURNAREA DNLNCH
C3643790N11908069W00000000001500000000360000TURNAREA GRNY
C3644227N11904779W00000000001000000000360000TURNAREA LASTCH
C3646886N11907285W00000000000400000000360000TURNAREA 49917
C3644153N11906286W00000000002000000000360000TURNAREA DNLPLZ
C3644153N11906286W00000000000400000000360000FINISHAREA DNLPLZ
C0000000N00000000ELANDING
B1740433728541N12151682WA0070000701004003000181079
B1740443728541N12151683WA0070000701004003000181068
B1740453728541N12151683WA0070000701004003000181065
B1740463728541N12151683WA0070000701004003000181059
B1740473728541N12151683WA0070000701004003000181052
B1740483728541N12151683WA0070000701004003000181056
B1740493728541N12151683WA0070000701004003000181067
B1740503728541N12151683WA0070000701004003000181073
B1740513728541N12151683WA0070000701004003002223069
B1740523728540N12151683WA0070000701004003001223060
B1740533728540N12151683WA0070000701004003001223054
B1740543728540N12151683WA0070000701004003001334064
B1740553728541N12151683WA0070000702004003002334074
B1740563728541N12151683WA0070000702004003001334077
B1740573728541N12151683WA0070000702004003000334075
B1740583728541N12151683WA0070100702004003001334070
B1740593728541N12151683WA0070100702004003000334074
B1741003728541N12151683WA0070100702004003000334089
B1741013728541N12151683WA0070100702004003002334091
B1741023728541N12151683WA0070100702004003001334099
B1741033728541N12151682WA0070100702004003002084038
B1741043728541N12151682WA0070100702004003002100217
B1741053728541N12151682WA0070100701004003002301240
B1741063728541N12151683WA0070000701004003001243221
B1741073728541N12151684WA0070000701004003005243191
B1741083728540N12151685WA0069900700004003005246174
B1741093728539N12151687WA0069700700005003008243193
B1741103728538N12151689WA0069700700014003011243207
B1741113728537N12151692WA0069700701004003015240198
B1741123728536N12151695WA0069700701004003017240245
B1741133728534N12151698WA0069800700004003015238263
B1741143728533N12151700WA0069900700004003016237278
B1741153728531N12151703WA0070000700004003016238254
B1741163728530N12151706WA0069900700004003017242284
B1741173728529N12151710WA0069900700004003017249273
B1741183728528N12151713WA0069900700004003017260260
B1741193728528N12151717WA0069900699004003018264267
B1741203728527N12151721WA0069800699004003021256259
B1741213728526N12151725WA0069900700004003025237267
B1741223728524N12151729WA0069900701004003025226245
B1741233728521N12151730WA0070100703004003020199228
B1741243728518N12151731WA0070100702004003018182215
B1741253728516N12151730WA0070000702004003018179216
B1741263728512N12151730WA0069900700004003030175196
B1741273728506N12151729WA0069800700004003034165192
B1741283728502N12151726WA0069800700004003034154163
B1741293728497N12151722WA0069800700004003034140162
B1741303728493N12151718WA0069700700004003034140153
B1741313728489N12151713WA0069700699004003034140159
B1741323728485N12151709WA0069600699014003034142157
B1741333728480N12151705WA0069400698014003035146163
B1741343728475N12151701WA0069300697004003037148156
B1741353728471N12151698WA0069300696004003037148166
B1741363728467N12151694WA0069300696004003036146151
B1741373728463N12151691WA0069200696005003033139144
B1741383728459N12151687WA0069100695014003031138133
B1741393728455N12151683WA0068900694014003035142137
B1741403728451N12151678WA0068800693004003035142157
B1741413728446N12151674WA0068800693004003038144148
B1741423728441N12151669WA0068800693004003040146148
B1741433728436N12151666WA0068900693004003040146163
B1741443728431N12151662WA0069000693004003038138133
B1741453728428N12151657WA0069000692004003035135136
B1741463728424N12151653WA0069000692004003033133098
B1741473728421N12151648WA0069000692004003034131127
B1741483728418N12151644WA0068900690004003034129132
B1741493728414N12151638WA0068800689004003034132153
B1741503728409N12151633WA0068700688004003041135152
B1741513728405N12151627WA0068700689004003041139170
B1741523728401N12151624WA0068900689004003041147172
B1741533728396N12151621WA0068900689004003035161192
B1741543728393N12151620WA0068800688004003026185199
B1741553728389N12151621WA0068700687004003026211221
B1741563728386N12151625WA0068400686004003025246242
B1741573728385N12151630WA0068200686004003025292265
B1741583728387N12151635WA0068100687004003025320288
B1741593728391N12151637WA0068100687004003025324295
B1742003728393N12151639WA0068100686004003022324296
B1742013728396N12151642WA0068000685004003018307297
B1742023728397N12151645WA0067900684004003020305291
B1742033728399N12151648WA0067800684004003022310289
B1742043728402N12151651WA0067600683004003022313287
B1742053728404N12151654WA0067600683004003022312288
B1742063728406N12151657WA0067500681004003020308280
B1742073728407N12151660WA0067400680004003020301280
B1742083728409N12151664WA0067200678004003020295284
B1742093728410N12151668WA0067100678004003022289279
B1742103728412N12151672WA0066900677004003024285266
B1742113728413N12151677WA0066900677004003025291286
B1742123728414N12151681WA0066900678004003024304303
B1742133728416N12151685WA0067000678004003023315309
B1742143728418N12151687WA0067100677004003019319306
B1742153728420N12151688WA0067100676004003019317289
B1742163728421N12151690WA0067100675004003014313290
B1742173728422N12151692WA0067000673004003014294282
B1742183728423N12151695WA0066900673004003018296288
B1742193728425N12151698WA0066800672004003020304309
B1742203728427N12151701WA0066800673004003020327318
B1742213728430N12151704WA0066900673004003021338310
B1742223728433N12151705WA0066900673004003024338308
B1742233728436N12151707WA0066800672014003026337289
B1742243728440N12151709WA0066800672014004026340305
B1742253728444N12151710WA0066700671014004027340302
B1742263728448N12151712WA0066500671014005027339306
B1742273728452N12151715WA0066400672014005027332310
B1742283728455N12151718WA0066400673014005026326301
B1742293728458N12151720WA0066500675014006026332303
B1742303728461N12151723WA0066600676014006024329309
B1742313728464N12151725WA0066500674014006024327313
B1742323728466N12151729WA0066500671006005024324311
B1742333728469N12151731WA0066400670005005024329312
B1742343728473N12151734WA0066400670005004031331304
B1742353728477N12151737WA0066400669004004032335321
B1742363728481N12151739WA0066500671004004031334308
B1742373728484N12151741WA0066700670004003029335316
B1742383728488N12151742WA0066800670004003026341307
B1742393728491N12151743WA0066900671004003026347313
B1742403728494N12151744WA0066900670004003024338296
B1742413728497N12151746WA0066800668004003021330296
B1742423728500N12151749WA0066700667004003024320295
B1742433728503N12151753WA0066600666004003029316297
B1742443728506N12151757WA0066600666004003029308293
B1742453728508N12151762WA0066700667004003029289293
B1742463728508N12151766WA0066900669004003020268281
B1742473728507N12151768WA0067000670004003020239261
B1742483728505N12151771WA0067000670004003016237269
B1742493728504N12151773WA0067000670004003016249262
B1742503728503N12151777WA0067000670004003021264271
B1742513728503N12151781WA0066900669004003023267264
B1742523728503N12151785WA0066900669004003021261249
B1742533728502N12151788WA0066900669004003020255273
B1742543728501N12151791WA0066900669004003015263256
B1742553728501N12151794WA0066800668004003017268285
B1742563728501N12151798WA0066700667004003017267274
B1742573728501N12151802WA0066700667004003021261280
B1742583728500N12151806WA0066700667004003020263254
B1742593728500N12151810WA0066900669004003020266265
B1743003728500N12151813WA0067000669004003018268308
B1743013728500N12151815WA0067200670004003015271280
B1743023728500N12151818WA0067200670004003015282307
B1743033728501N12151821WA0067200671004003017284295
B1743043728502N12151825WA0067300672004003017283273
B1743053728502N12151828WA0067400672004003020280249
B1743063728502N12151831WA0067500673004003014266261
B1743073728502N12151833WA0067400672004003014219247
B1743083728501N12151834WA0067300670004003007214238
B1743093728500N12151834WA0067000669004003007245245
B1743103728499N12151839WA0066700667004003026253262
B1743113728498N12151845WA0066700668004003026261261
B1743123728497N12151849WA0066700668004003026263247
B1743133728497N12151852WA0066900670004003017261258
B1743143728497N12151854WA0067000669004003010252264
B1743153728496N12151855WA0066900668004003010245256
B1743163728495N12151857WA0066700666004003010248262
B1743173728495N12151860WA0066500663004003011263261
B1743183728495N12151864WA0066400664004003022282289
B1743193728496N12151868WA0066500665004003022290307
B1743203728497N12151872WA0066600668004003021289304
B1743213728497N12151874WA0066700669004003019279315
B1743223728497N12151877WA0066800669004003013274317
B1743233728498N12151879WA0066800668004003014279304
B1743243728499N12151882WA0066700667004003014291292
B1743253728500N12151886WA0066600667004003017299303
B1743263728502N12151889WA0066500667004003018297286
B1743273728503N12151892WA0066400666004003018292289
B1743283728503N12151894WA0066400665004003017290284
B1743293728505N12151897WA0066300664004003015301294
B1743303728506N12151899WA0066200664004003015305294
B1743313728507N12151901WA0066200663004003015300303
B1743323728508N12151903WA0066100663004003013300286
B1743333728509N12151905WA0066000662004003012321317
B1743343728511N12151906WA0065900662004003014327293
B1743353728512N12151908WA0065800660004003014321268
B1743363728514N12151909WA0065600660004003014282269
B1743373728513N12151913WA0065500658004003014249248
B1743383728512N12151916WA0065400658004003024211223
B1743393728508N12151917WA0065400658004003025191207
B1743403728504N12151916WA0065500659004003024167189
B1743413728501N12151914WA0065400658004003024154173
B1743423728498N12151912WA0065400657004003022151164
B1743433728495N12151910WA0065300656004003025150165
B1743443728491N12151906WA0065100654004003030147162
B1743453728487N12151903WA0065000653004003030144157
B1743463728482N12151899WA0065000653004003034132154
B1743473728479N12151893WA0065000654004003039125137
B1743483728476N12151886WA0065100654004003038116128
B1743493728474N12151880WA0065100654004003038112119
B1743503728472N12151873WA0065100653004003037110115
B1743513728470N12151866WA0065000653004003037109110
B1743523728468N12151860WA0064800651004003037110108
B1743533728466N12151853WA0064700650004003040112105
B1743543728463N12151846WA0064600650004003040113099
B1743553728461N12151839WA0064600649004003040112102
B1743563728459N12151832WA0064500648004003040112102
B1743573728456N12151825WA0064500647004003040115121
B1743583728453N12151819WA0064400647004003041116134
B1743593728451N12151812WA0064500648004003041115132
B1744003728449N12151806WA0064600648004003038115097
B1744013728446N12151800WA0064600649004003035115136
B1744023728444N12151794WA0064700649004003035116112
B1744033728441N12151788WA0064700649004003039122117
B1744043728437N12151782WA0064700649004003039127093
B1744053728434N12151776WA0064700649004003039127111
B1744063728430N12151770WA0064600648004003039123113
B1744073728427N12151763WA0064600648004003043123116
B1744083728423N12151756WA0064600648004003043123126
B1744093728420N12151750WA0064600648004003043123139
B1744103728416N12151743WA0064600648004003042126152
B1744113728412N12151738WA0064500647004003041133164
B1744123728407N12151733WA0064400646004003041142168
B1744133728402N12151730WA0064400646004003041151171
B1744143728397N12151727WA0064500647004003040159166
B1744153728391N12151725WA0064600647004003033168198
B1744163728387N12151725WA0064700648004003033177213
B1744173728383N12151725WA0064800647014003030204231
B1744183728380N12151728WA0064700647014003027221248
B1744193728379N12151732WA0064700647004003020248257
B1744203728379N12151735WA0064700647004003020270274
B1744213728380N12151737WA0064700647004003015298284
B1744223728382N12151739WA0064700647004003015322297
B1744233728384N12151741WA0064700647004003017332305
B1744243728387N12151742WA0064600646004003019334307
B1744253728390N12151744WA0064500645004003019330310
B1744263728393N12151747WA0064400644004003022325294
B1744273728396N12151750WA0064400645004003023325292
B1744283728398N12151752WA0064500646004003023329291
B1744293728400N12151753WA0064600646004003018336301
B1744303728402N12151754WA0064500645004003013334308
B1744313728403N12151756WA0064400643004003015323310
B1744323728405N12151758WA0064200641004003018312307
B1744333728407N12151761WA0064100640004003018306288
B1744343728408N12151764WA0064000640004003018305290
B1744353728410N12151766WA0064000639004003018314297
B1744363728413N12151768WA0064000640004003018325311
B1744373728415N12151770WA0064000640004003018327286
B1744383728417N12151772WA0064000640004003018322292
B1744393728419N12151775WA0064000640004003017311300
B1744403728420N12151777WA0063900639004003017300282
B1744413728421N12151780WA0063900639004003016295283
B1744423728422N12151783WA0063800638004003016293282
B1744433728423N12151786WA0063700637004003017290277
B1744443728424N12151789WA0063600636004003018290289
B1744453728425N12151792WA0063500635004003018294271
B1744463728427N12151796WA0063400634004003019301277
B1744473728429N12151799WA0063300633004003020306269
B1744483728430N12151802WA0063300633004003020303265
B1744493728431N12151805WA0063100631004003019295267
B1744503728432N12151808WA0063000630004003019284272
B1744513728432N12151812WA0062900629004003018275261
B1744523728432N12151815WA0062900629004003018269257
B1744533728432N12151818WA0062900629004003018266246
B1744543728431N12151820WA0062800628004003016240244
B1744553728429N12151822WA0062700627004003018206234
B1744563728425N12151823WA0062600625004003027191216
B1744573728420N12151824WA0062500626004003027185202
B1744583728416N12151823WA0062500627004003031178201
B1744593728412N12151822WA0062600627004003026167192
B1745003728408N12151821WA0062500627004003026160186
B1745013728404N12151819WA0062400626004003026155182
B1745023728399N12151816WA0062200623004003030151176
B1745033728395N12151813WA0062000623004003037147166
B1745043728390N12151809WA0062000624004003037149158
B1745053728385N12151805WA0062100624004003036148169
B1745063728382N12151802WA0062100624004003031146151
B1745073728379N12151799WA0062100623004003025143146
B1745083728376N12151796WA0062000622004003026144151
B1745093728372N12151793WA0061900620004003026150150
B1745103728367N12151791WA0061800619004003031153161
B1745113728362N12151788WA0061700619004003034150136
B1745123728358N12151784WA0061800620004003034146143
B1745133728354N12151781WA0061800620004003033145144
B1745143728350N12151777WA0061800620004003031143146
B1745153728347N12151774WA0061900620004003033138151
B1745163728343N12151769WA0061800619004003033136141
B1745173728340N12151765WA0061800619004003033134141
B1745183728336N12151760WA0061700619004003033134136
B1745193728332N12151756WA0061700618004003034136140
B1745203728329N12151751WA0061700619004003035137151
B1745213728325N12151747WA0061800619004003034137128
B1745223728322N12151743WA0061800619004003034136133
B1745233728318N12151739WA0061800619004003031133137
B1745243728315N12151734WA0061800619004003033132150
B1745253728311N12151730WA0061700618004003033136139
B1745263728308N12151725WA0061800619004003035143142
B1745273728303N12151721WA0062000619004003035146138
B1745283728299N12151718WA0062200620004003035141174
B1745293728296N12151714WA0062300622004003033137160
B1745303728292N12151710WA0062400622004003033137143
B1745313728288N12151705WA0062400622004003036138156
B1745323728284N12151701WA0062400621004003038141149
B1745333728279N12151696WA0062400622004003038140130
B1745343728275N12151691WA0062500623004003038137155
B1745353728271N12151687WA0062600624004003035139178
B1745363728267N12151683WA0062600624004003035154196
B1745373728263N12151682WA0062600624004003028176199
B1745383728259N12151683WA0062500623004003027186219
B1745393728256N12151685WA0062500623004003024203248
B1745403728254N12151687WA0062500624004003024230265
B1745413728255N12151690WA0062600625004003017276265
B1745423728256N12151692WA0062700625004003017312301
B1745433728259N12151694WA0062700626004003017331318
B1745443728262N12151695WA0062800627004003023349328
B1745453728266N12151695WA0062900628004003027002344
B1745463728271N12151694WA0063000630004003027013357
B1745473728275N12151691WA0063200631004003029024013
B1745483728278N12151689WA0063300632004003029031350
B1745493728282N12151686WA0063300632004003024028346
B1745503728285N12151685WA0063300632004003024357331
B1745513728287N12151686WA0063200630004003020330309
B1745523728289N12151688WA0063100630004003017275291
B1745533728287N12151692WA0063000629004003017243262
B1745543728284N12151694WA0062900629004003024204245
B1745553728279N12151694WA0063000629004003032180215
B1745563728274N12151694WA0063100630004003032159190
B1745573728269N12151692WA0063300630004003032144170
B1745583728266N12151688WA0063400632004003030136155
B1745593728263N12151684WA0063500631004003034127142
B1746003728259N12151678WA0063400631004003037125128
B1746013728256N12151671WA0063400631004003037122120
B1746023728253N12151663WA0063400631004003043116110
B1746033728250N12151655WA0063500633004003046110115
B1746043728248N12151647WA0063600633004003040103122
B1746053728247N12151640WA0063700633004003040102115
B1746063728246N12151633WA0063600632004003037102123
B1746073728245N12151626WA0063400630004003037103110
B1746083728243N12151619WA0063300630004003038105104
B1746093728241N12151611WA0063300630004003046109099
B1746103728239N12151603WA0063200630004003046114105
B1746113728236N12151596WA0063300631004003044115125
B1746123728233N12151588WA0063300631004003043113104
B1746133728231N12151581WA0063200630004003042110105
B1746143728229N12151573WA0063100629004003044111114
B1746153728226N12151565WA0063000628004003046112125
B1746163728224N12151557WA0062900628004003045112135
B1746173728221N12151550WA0062900627004003045112111
B1746183728219N12151544WA0062800626004003041115145
B1746193728217N12151538WA0062600626004003038123140
B1746203728213N12151532WA0062300623004003041126153
B1746213728209N12151526WA0062100621004003041130156
B1746223728204N12151519WA0062000622004003044137158
B1746233728199N12151514WA0062000622004003044141172
B1746243728195N12151510WA0062000622004003037141167
B1746253728191N12151506WA0062000621004003037137156
B1746263728187N12151502WA0062000621004003034139153
B1746273728182N12151498WA0061900620004003034143158
B1746283728178N12151493WA0061800619004003036140154
B1746293728174N12151489WA0061800619004003038138169
B1746303728170N12151485WA0061800619004003038143163
B1746313728166N12151482WA0061800619004003035150179
B1746323728162N12151480WA0061800618004003030153182
B1746333728158N12151477WA0061800619004003030157167
B1746343728152N12151474WA0062000620004003039159176
B1746353728146N12151472WA0062200624004003039157183
B1746363728141N12151469WA0062500623004003039145177
B1746373728136N12151464WA0062600624004003038139142
B1746383728132N12151459WA0062700623004003038138185
B1746393728127N12151454WA0062500623004003043149161
B1746403728121N12151451WA0062400622004003043155199
B1746413728115N12151447WA0062300622004003043162186
B1746423728110N12151446WA0062300622004003039165195
B1746433728104N12151445WA0062400623004003038169199
B1746443728100N12151444WA0062400624004003032173224
B1746453728096N12151444WA0062400624004003032180213
B1746463728093N12151444WA0062400623004003023196216
B1746473728091N12151446WA0062200621004003017211235
B1746483728090N12151448WA0062000619004003015242258
B1746493728091N12151451WA0061800617004003014282282
B1746503728092N12151453WA0061600616004003016311295
B1746513728094N12151455WA0061500614004003016328309
B1746523728097N12151456WA0061400613004003017334301
B1746533728099N12151458WA0061300612004003017330290
B1746543728099N12151459WA0061200611004003010300283
B1746553728099N12151462WA0061000609004003013256273
B1746563728097N12151464WA0060900607004003013231251
B1746573728096N12151467WA0060700607004003017204241
B1746583728092N12151467WA0060600606004003020187222
B1746593728088N12151466WA0060300603004003029173210
B1747003728083N12151465WA0060100600004003034168187
B1747013728077N12151463WA0059800598004003034167185
B1747023728072N12151462WA0059600596004003037168183
B1747033728066N12151461WA0059500595004003037170185
B1747043728061N12151460WA0059400594004003035170182
B1747053728056N12151459WA0059300593004003035169192
B1747063728051N12151457WA0059200593004003033169183
B1747073728046N12151457WA0059200592004003033173186
B1747083728042N12151456WA0059000590004003032176192
B1747093728038N12151456WA0058900588004003027179206
B1747103728034N12151457WA0058600585004003028184198
B1747113728029N12151458WA0058400583004003028188199
B1747123728024N12151459WA0058200583004003032191183
B1747133728019N12151460WA0058000583004003032192182
B1747143728014N12151461WA0058000583004003031190186
B1747153728010N12151462WA0057900584004003031181192
B1747163728005N12151462WA0057900583004003030178195
B1747173728001N12151462WA0057900583004003029177183
B1747183727996N12151461WA0057900582004003029177178
B1747193727992N12151461WA0057900582004003031172177
B1747203727987N12151459WA0057900582004003032164178
B1747213727982N12151457WA0057900582004003032156167
B1747223727978N12151453WA0057900582004003033150175
B1747233727974N12151449WA0057800581004003035144184
B1747243727970N12151446WA0057800580004003033147179
B1747253727965N12151444WA0057600578004003033160179
B1747263727960N12151444WA0057400576004003032180196
B1747273727956N12151444WA0057300576004003031202206
B1747283727952N12151447WA0057300576004003029217233
B1747293727950N12151450WA0057300577004003019229237
B1747303727948N12151453WA0057300576004003019226258
B1747313727947N12151454WA0057100575004003015219229
B1747323727945N12151456WA0057000572004003015219240
B1747333727943N12151459WA0056800570004003019230234
B1747343727942N12151463WA0056600569004003022235225
B1747353727939N12151466WA0056500568004003022229231
B1747363727936N12151468WA0056500568004003023207224
B1747373727933N12151469WA0056500568004003023188214
B1747383727929N12151469WA0056500568004003028179212
B1747393727924N12151468WA0056500568004003029171197
B1747403727920N12151466WA0056600568004003029163194
B1747413727916N12151464WA0056600568004003029157203
B1747423727912N12151462WA0056600568004003030156163
B1747433727908N12151460WA0056600567004003028161176
B1747443727904N12151459WA0056600568004003028158177
B1747453727901N12151456WA0056500567004003027149180
B1747463727897N12151453WA0056400566004003027144182
B1747473727893N12151449WA0056400566004003035149205
B1747483727888N12151447WA0056400566004003035160211
B1747493727883N12151447WA0056300565004003034180226
B1747503727879N12151447WA0056300565004003029218236
B1747513727878N12151452WA0056200563004003025248262
B1747523727879N12151456WA0056100563004003021288284
B1747533727881N12151459WA0056100563004003021314295
B1747543727883N12151461WA0056100563004003020321315
B1747553727885N12151463WA0056000562004003017319315
B1747563727887N12151465WA0055900562004003016315303
B1747573727889N12151468WA0055700559004003018311301
B1747583727891N12151471WA0055500558004003022305290
B1747593727892N12151475WA0055400557004003021294273
B1748003727892N12151478WA0055300556004003021272265
B1748013727891N12151481WA0055200555004003017241256
B1748023727889N12151484WA0055000553004003023222244
B1748033727885N12151487WA0054900551004003030212229
B1748043727881N12151490WA0054800551004003030207210
B1748053727877N12151493WA0054800552004003030197207
B1748063727874N12151494WA0054800551004003025182209
B1748073727871N12151494WA0054700550004003023174198
B1748083727867N12151493WA0054500548004003031175197
B1748093727861N12151492WA0054200545004003031176206
B1748103727855N12151492WA0054000545004003038182218
B1748113727849N12151492WA0054000545004003038181221
B1748123727844N12151492WA0054100546004003033181214
B1748133727839N12151493WA0054100545004003033177218
B1748143727834N12151492WA0054000543004003030176218
B1748153727829N12151492WA0053800541004003030178206
B1748163727824N12151493WA0053700539004003031184205
B1748173727819N12151493WA0053500538004003036186189
B1748183727814N12151494WA0053500537004003036182204
B1748193727808N12151493WA0053400536004003036179191
B1748203727803N12151493WA0053300535004003036179197
B1748213727797N12151493WA0053100534004003037179191
B1748223727791N12151493WA0053100533004003038178191
B1748233727785N12151493WA0053000532004003039179195
B1748243727780N12151493WA0052900531004003039179184
B1748253727774N12151493WA0052900530004003039176188
B1748263727768N12151492WA0052800530004003038174190
B1748273727763N12151491WA0052800530004003036173202
B1748283727758N12151490WA0052800530004003036167198
B1748293727753N12151488WA0052800530004003035165201
B1748303727749N12151487WA0052800529004003032168213
B1748313727745N12151487WA0052700529004003029176206
B1748323727741N12151487WA0052600528004003026182180
B1748333727737N12151487WA0052500526004003028179175
B1748343727732N12151486WA0052300524004003028172173
B1748353727727N12151484WA0052200523004003032164173
B1748363727722N12151481WA0052100522004003035156173
B1748373727717N12151478WA0052000521004003036154188
B1748383727712N12151476WA0051900520004003036159189
B1748393727707N12151475WA0051700518004003036166194
B1748403727702N12151473WA0051600517004003035170170
B1748413727697N12151472WA0051500516004003035168156
B1748423727692N12151471WA0051500516004003031165174
B1748433727688N12151469WA0051500516004003031163188
B1748443727684N12151468WA0051400515004003031167215
B1748453727680N12151468WA0051300514004003029182225
B1748463727677N12151470WA0051300513004003026211242
B1748473727676N12151474WA0051200512004003019252266
B1748483727678N12151477WA0051200512004003019304294
B1748493727680N12151477WA0051100512004003018346318
B1748503727683N12151477WA0051100511004003017006326
B1748513727685N12151477WA0051000510004003017010324
B1748523727687N12151477WA0050800508004003011001319
B1748533727688N12151478WA0050600505004003011315311
B1748543727688N12151480WA0050300502004003011270293
B1748553727687N12151484WA0050000500004003014251277
B1748563727685N12151488WA0049800498004003020244263
B1748573727683N12151492WA0049700497004003025244263
B1748583727682N12151496WA0049600496004003025247251
B1748593727681N12151500WA0049500495004003022251266
B1749003727680N12151504WA0049400495004003020239249
B1749013727678N12151507WA0049200493004003020230252
B1749023727676N12151510WA0049000491004003022231252
B1749033727675N12151513WA0048900490004003022241248
B1749043727673N12151517WA0048700488004003021238237
B1749053727670N12151520WA0048500485004003021222238
B1749063727666N12151523WA0048200482004003026212241
B1749073727662N12151527WA0048000482004003033217254
B1749083727658N12151530WA0047900482004003033228246
B1749093727656N12151534WA0047800483004003027235248
B1749103727654N12151538WA0047800483004003023233251
B1749113727651N12151541WA0047800482004003023229240
B1749123727649N12151545WA0047600480004003025231251
B1749133727647N12151549WA0047500478004003028236254
B1749143727645N12151554WA0047400477004003028240247
B1749153727643N12151559WA0047300477004003028244266
B1749163727641N12151563WA0047300477004003028249263
B1749173727640N12151568WA0047300476004003024253257
B1749183727640N12151572WA0047200475004003025257260
B1749193727639N12151577WA0047100475004003025262262
B1749203727639N12151583WA0047000474004003028264240
B1749213727638N12151588WA0047100475004003028262228
B1749223727637N12151592WA0047200476004003020256256
B1749233727637N12151595WA0047200475004003020244266
B1749243727636N12151597WA0047200474004003014242264
B1749253727635N12151599WA0047100473004003012253274
B1749263727635N12151602WA0047000472004003012264286
B1749273727635N12151605WA0046900471004003017277299
B1749283727637N12151607WA0046800470004003017306315
B1749293727639N12151608WA0046700468004003017340315
B1749303727642N12151609WA0046500467004003017353314
B1749313727645N12151609WA0046400466004003020353322
B1749323727649N12151609WA0046300465004003022358327
B1749333727652N12151609WA0046300464004003022006348
B1749343727655N12151608WA0046200463004003022014350
B1749353727659N12151606WA0046100462004003022017342
B1749363727663N12151605WA0046000461004003025012312
B1749373727666N12151605WA0045900460004003023354307
B1749383727669N12151606WA0045800460004003023302298
B1749393727671N12151610WA0045500459004003023262272
B1749403727668N12151615WA0045200456004003024243258
B1749413727666N12151620WA0045100456004003027226252
B1749423727663N12151624WA0045000457004003025223234
B1749433727660N12151628WA0045000456004003025233231
B1749443727658N12151631WA0044900455004003022231243
B1749453727655N12151634WA0044800455004003022212240
B1749463727651N12151636WA0044600452004003027204226
B1749473727646N12151638WA0044400450004003032199218
B1749483727642N12151640WA0044200447004003032198212
B1749493727638N12151642WA0044000445004003030203214
B1749503727634N12151645WA0043800442004003030209212
B1749513727630N12151648WA0043500440004003032211220
B1749523727625N12151651WA0043400438004003032207218
B1749533727621N12151653WA0043200436004003032203217
B1749543727616N12151656WA0043000434004003033201210
B1749553727611N12151658WA0042800432004003035201206
B1749563727606N12151661WA0042600430004003036201210
B1749573727601N12151663WA0042500429004003036202215
B1749583727596N12151666WA0042500429004003036204215
B1749593727592N12151669WA0042500428004003034206215
B1750003727588N12151671WA0042400427004003031210220
B1750013727584N12151674WA0042300426004003029214223
B1750023727581N12151678WA0042100424004003030216227
B1750033727577N12151681WA0042100424004003030215211
B1750043727573N12151684WA0042100423004003030210219
B1750053727569N12151687WA0042000422004003031209224
B1750063727565N12151690WA0041800422004003031216219
B1750073727561N12151693WA0041600422004003033220229
B1750083727557N12151697WA0041600422004003033215188
B1750093727553N12151701WA0041800422004003033198192
B1750103727548N12151702WA0041900424004003033193176
B1750113727544N12151703WA0042100423004003027202229
B1750123727540N12151705WA0042100422004003027213227
B1750133727538N12151707WA0042000422004003023219222
B1750143727536N12151710WA0042000422004003021230227
B1750153727534N12151715WA0042000422004003021235224
B1750163727532N12151719WA0042100423004003027229230
B1750173727529N12151722WA0042400423004003027220224
B1750183727526N12151724WA0042700427004003024210235
B1750193727523N12151726WA0043000427004003022196218
B1750203727520N12151727WA0043200427004003022194219
B1750213727516N12151728WA0043300426004003024204237
B1750223727513N12151730WA0043300426004003024224253
B1750233727511N12151734WA0043300426004003023266282
B1750243727512N12151737WA0043300426004003021323314
B1750253727515N12151738WA0043200426004003021354347
B1750263727519N12151737WA0043300426004003016002010
B1750273727522N12151734WA0043300427004003035072010
B1750283727524N12151726WA0043400427004003035087070
B1750293727524N12151717WA0043400428004003039104084
B1750303727522N12151709WA0043500428005003041117100
B1750313727518N12151701WA0043600429006003045122117
B1750323727515N12151694WA0043600428014003045125125
B1750333727510N12151690WA0043800429014004045138129
B1750343727505N12151690WA0043800427014004035198144
B1750353727501N12151695WA0043900426014004024216216
B1750363727498N12151698WA0044000426014004014247242
B1750373727497N12151704WA0044000427009004015316277
B1750383727500N12151706WA0044000428008004015344318
B1750393727504N12151708WA0044000429007004021014335
B1750403727508N12151706WA0044100430007003026045358
B1750413727511N12151701WA0044200432006003030054021
B1750423727513N12151696WA0044300433006003030061028
B1750433727515N12151692WA0044300433006003028051033
B1750443727517N12151689WA0044300433005003023031023
B1750453727520N12151688WA0044100433005003021016004
B1750463727523N12151689WA0044000433005003022351352
B1750473727526N12151691WA0044000434005003022333337
B1750483727527N12151693WA0044100435005003018313325
B1750493727528N12151695WA0044100435005003014298313
B1750503727529N12151697WA0044100435005003012295300
B1750513727530N12151699WA0044100435005003013297294
B1750523727531N12151701WA0044100434004003013301297
B1750533727532N12151702WA0044000434004003012307299
B1750543727533N12151704WA0044000433004003011306302
B1750553727534N12151706WA0043900433004003011279304
B1750563727534N12151709WA0043800433004003016266289
B1750573727534N12151712WA0043900434004003016260278
B1750583727533N12151715WA0044000435004003016262293
B1750593727533N12151717WA0044100436004003013265287
B1751003727534N12151718WA0044200437004003011285299
B1751013727534N12151720WA0044200437004003011290281
B1751023727535N12151723WA0044200437004003012281277
B1751033727534N12151726WA0044200436004003012252268
B1751043727532N12151729WA0044100436004003015226256
B1751053727529N12151731WA0044100436004003020209246
B1751063727525N12151732WA0044000436004003024191233
B1751073727521N12151732WA0044100436004003028180226
B1751083727517N12151732WA0044100437004003028178206
B1751093727512N12151732WA0044200437004003028185195
B1751103727508N12151732WA0044300438004003028182181
B1751113727504N12151732WA0044400438004003028165172
B1751123727500N12151729WA0044300437004003041137158
B1751133727496N12151722WA0044100435004003041129120
B1751143727492N12151715WA0044000436004003042111108
B1751153727491N12151707WA0044000435004003042096088
B1751163727493N12151701WA0043900434004003036071069
B1751173727496N12151695WA0043800433004003036050040
B1751183727500N12151693WA0043700433004003034031021
B1751193727503N12151692WA0043700433004003027007004
B1751203727506N12151693WA0043700433004003022338343
B1751213727507N12151696WA0043700433004003016296322
B1751223727508N12151699WA0043700433004003018263297
B1751233727507N12151702WA0043800434004003016257277
B1751243727507N12151704WA0043900435004003016248271
B1751253727506N12151706WA0044000436004003015238280
B1751263727505N12151708WA0044000436004003010233280
B1751273727504N12151709WA0044000436004003010257282
B1751283727503N12151711WA0043900436004003010280291
B1751293727504N12151713WA0043800435004003011294293
B1751303727505N12151715WA0043700434004003012304294
B1751313727506N12151717WA0043600433004003012306294
B1751323727507N12151719WA0043600432004003012303280
B1751333727508N12151720WA0043400431004003011289284
B1751343727508N12151723WA0043200429004003011267279
B1751353727507N12151727WA0043000426004003014257275
B1751363727506N12151731WA0042800425004003025250274
B1751373727505N12151735WA0042700424004003025247288
B1751383727504N12151738WA0042600424004003023250270
B1751393727503N12151741WA0042500424004003017260269
B1751403727503N12151744WA0042300423004003016264262
B1751413727502N12151747WA0042100421004003018265265
B1751423727502N12151751WA0041900418004003019262261
B1751433727502N12151754WA0041700416004003019257265
B1751443727501N12151758WA0041500415004003019253281
B1751453727500N12151761WA0041400413004003018254279
B1751463727500N12151763WA0041200411004003016262293
B1751473727500N12151767WA0041000409004003018272302
B1751483727500N12151770WA0040800407004003018275308
B1751493727500N12151774WA0040700407004003019275300
B1751503727500N12151777WA0040600406004003019266287
B1751513727500N12151779WA0040500406004003012274284
B1751523727500N12151782WA0040300403004003013275279
B1751533727500N12151785WA0040000400004003013265275
B1751543727499N12151789WA0039700398004003017255274
B1751553727498N12151793WA0039500396004003026246268
B1751563727496N12151797WA0039400395004003026239263
B1751573727494N12151801WA0039400395004003025229250
B1751583727492N12151803WA0039300394004003020224278
B1751593727491N12151805WA0039100391004003017223270
B1752003727489N12151808WA0038900388004003019233272
B1752013727487N12151811WA0038600388004003021250282
B1752023727487N12151815WA0038300385004003021258288
B1752033727486N12151819WA0038000385004003021278297
B1752043727487N12151823WA0037800383004003021288296
B1752053727489N12151826WA0037600380004003021298290
B1752063727490N12151829WA0037500380004003021300280
B1752073727492N12151833WA0037300377004003021299288
B1752083727494N12151837WA0037200377004003021300309
B1752093727495N12151840WA0037200377004003020308307
B1752103727497N12151841WA0037200377004003011308304
B1752113727498N12151843WA0037200377004003011312303
B1752123727499N12151843WA0037100375004003008324308
B1752133727500N12151844WA0037000373004003008324300
B1752143727501N12151846WA0036800370004003008317294
B1752153727502N12151847WA0036500367004003013314292
B1752163727504N12151849WA0036300365004003017316292
B1752173727506N12151851WA0036000365004003017317289
B1752183727508N12151854WA0035800362004003018314295
B1752193727510N12151856WA0035600360004003018312289
B1752203727511N12151859WA0035400358004003018314290
B1752213727513N12151861WA0035300356004003018309302
B1752223727514N12151864WA0035200355004003018300314
B1752233727515N12151866WA0035100354004003016297304
B1752243727516N12151868WA0034800352004003013307315
B1752253727518N12151870WA0034600349004003013318334
B1752263727519N12151871WA0034500349004003017336346
B1752273727522N12151872WA0034400349004003017006008
B1752283727525N12151869WA0034200347004003020033018
B1752293727529N12151864WA0034000344004003026050028
B1752303727532N12151858WA0033800344004003040063036
B1752313727535N12151851WA0033800344004003040069046
B1752323727537N12151843WA0033600342004003040072039
B1752333727538N12151836WA0033500340004003040075039
B1752343727540N12151829WA0033400340004003039074051
B1752353727541N12151822WA0033300339004003040074048
B1752363727543N12151815WA0033300338004003040072042
B1752373727545N12151808WA0033300338004003038070041
B1752383727546N12151803WA0033200337005003034069035
B1752393727548N12151797WA0033200335004003034068034
B1752403727550N12151790WA0033100335004003037066024
B1752413727553N12151784WA0033100334004003038064017
B1752423727555N12151778WA0033100335004003037061021
B1752433727558N12151773WA0033100334004003035054037
B1752443727561N12151769WA0033000333004003032048031
B1752453727564N12151764WA0033000333005003029052049
B1752463727566N12151759WA0032900331004003033066053
B1752473727566N12151752WA0032800330004003033080060
B1752483727566N12151744WA0032700329005003038090072
B1752493727566N12151737WA0032600328005003040097093
B1752503727564N12151730WA0032500327004003039108103
B1752513727562N12151723WA0032400326004003039121115
B1752523727558N12151717WA0032200325004003039127135
B1752533727554N12151712WA0032100324004003040131146
B1752543727550N12151706WA0032100324004003040147152
B1752553727545N12151704WA0031900322004003033156173
B1752563727541N12151704WA0031800320004003033172186
B1752573727538N12151704WA0031600318004003028187204
B1752583727534N12151705WA0031400317004003022207221
B1752593727533N12151707WA0031200315004003017237243
B1753003727534N12151710WA0031000312004003013284267
B1753013727535N12151712WA0030800311004003016316293
B1753023727538N12151714WA0030700309004003016325305
B1753033727539N12151716WA0030500308004003017312299
B1753043727540N12151719WA0030500307004003017292297
B1753053727541N12151722WA0030400306004003015287286
B1753063727542N12151725WA0030300305004003015292285
B1753073727543N12151727WA0030300305004003014302285
B1753083727544N12151729WA0030200304004003014305281
B1753093727545N12151732WA0030200304004003015306287
B1753103727546N12151734WA0030100303004003015301290
B1753113727547N12151737WA0030100303004003015294298
B1753123727548N12151739WA0030000302004003014297311
B1753133727550N12151741WA0029900300004003014313312
B1753143727552N12151743WA0029800299004003016324310
B1753153727555N12151746WA0029800299004003021330294
B1753163727558N12151747WA0029900300004003021337299
B1753173727560N12151749WA0030100300004003020339317
B1753183727562N12151749WA0030200301004003015334310
B1753193727562N12151750WA0030300301004003010316319
B1753203727563N12151751WA0030300301004003007337309
B1753213727565N12151751WA0030300301004003012343321
B1753223727568N12151752WA0030300301004003012345325
B1753233727571N12151752WA0030400302004003019355318
B1753243727574N12151752WA0030500303004003022006331
B1753253727578N12151751WA0030700305004003022010318
B1753263727580N12151750WA0030800306004003022017320
B1753273727583N12151749WA0030800306004003018025309
B1753283727584N12151748WA0030800304004003012355314
B1753293727585N12151749WA0030700303004003009311301
B1753303727585N12151752WA0030600302004003016280292
B1753313727585N12151755WA0030500302004003020259274
B1753323727584N12151759WA0030600304004003020244251
B1753333727582N12151763WA0030800304004003020215249
B1753343727580N12151764WA0031000304004003015224282
B1753353727579N12151765WA0031100304004003009235287
B1753363727579N12151766WA0031100304004003009270282
B1753373727579N12151767WA0031100304004003007282289
B1753383727580N12151769WA0031100305004003007288281
B1753393727580N12151771WA0031200305004003009265279
B1753403727580N12151773WA0031300306004003008240265
B1753413727579N12151774WA0031500307004003010233248
B1753423727577N12151776WA0031500306004003010219231
B1753433727574N12151778WA0031500306004003019208241
B1753443727569N12151778WA0031500306004003024180229
B1753453727564N12151777WA0031600308004003035171197
B1753463727560N12151778WA0031700310004003035181229
B1753473727556N12151779WA0031800310004003030195239
B1753483727555N12151780WA0031800311004003022212246
B1753493727553N12151782WA0031800311004003014237251
B1753503727553N12151784WA0031700310004003013260275
B1753513727553N12151786WA0031700309004003014268294
B1753523727552N12151789WA0031700310004003013265299
B1753533727553N12151791WA0031700310004003013277299
B1753543727553N12151792WA0031700310004003011347317
B1753553727555N12151792WA0031600310004003017006331
B1753563727558N12151791WA0031500309004003018009338
B1753573727560N12151790WA0031400309004003017015326
B1753583727563N12151789WA0031300308004003017023342
B1753593727565N12151787WA0031300307004003017027346
B1754003727568N12151786WA0031100306004003020026338
B1754013727571N12151784WA0031000304004003022020347
B1754023727574N12151783WA0030900304004003021013323
B1754033727577N12151783WA0030900304004003021002311
B1754043727578N12151784WA0030800303004003010331292
B1754053727578N12151786WA0030700301004003011267275
B1754063727576N12151789WA0030500299004003011231256
B1754073727573N12151791WA0030400298004003020208241
B1754083727568N12151792WA0030300298004003027183217
B1754093727563N12151789WA0030200297004003037160194
B1754103727558N12151785WA0030100296004003042143167
B1754113727553N12151779WA0030000295004003042132144
B1754123727549N12151772WA0029900294004003044127133
B1754133727546N12151765WA0029800293004003044123127
B1754143727542N12151757WA0029800293004003045118122
B1754153727539N12151750WA0029800294004003045118130
B1754163727536N12151744WA0029900295004003044125134
B1754173727531N12151738WA0030000295004003042133138
B1754183727527N12151733WA0029900295004003041146149
B1754193727522N12151729WA0029900294004003038158166
B1754203727517N12151727WA0029800294004003038175184
B1754213727512N12151728WA0029800294004003035187204
B1754223727509N12151731WA0029700293004003032217217
B1754233727508N12151735WA0029800294004003025242244
B1754243727508N12151737WA0029900295004003013268264
B1754253727508N12151739WA0030000296004003013297288
B1754263727510N12151740WA0030000297004003012327304
B1754273727512N12151741WA0030100297004003012343314
B1754283727514N12151742WA0030200298004003015001329
B1754293727517N12151742WA0030400299004003018008321
B1754303727519N12151741WA0030500300004003018010318
B1754313727521N12151741WA0030500300004003014320309
B1754323727521N12151743WA0030400298004003012287291
B1754333727521N12151747WA0030400297004003012271274
B1754343727521N12151751WA0030400297004003018253260
B1754353727519N12151753WA0030400298004003019224255
B1754363727515N12151755WA0030400298004003019202240
B1754373727510N12151756WA0030400299004003026190226
B1754383727505N12151756WA0030500300004003033178209
B1754393727499N12151753WA0030600301004003042157188
B1754403727493N12151750WA0030700300004003045130161
B1754413727490N12151742WA0030600300004003045112126
B1754423727488N12151733WA0030600300004003045081100
B1754433727491N12151725WA0030600301004003043060062
B1754443727496N12151721WA0030700302004003033034038
B1754453727500N12151720WA0030800304004003033012007
B1754463727502N12151721WA0030900305004003024356350
B1754473727505N12151721WA0031000305004003018339335
B1754483727507N12151722WA0031200305004003013347316
B1754493727509N12151722WA0031200305004003013359316
B1754503727511N12151722WA0031200304004003014000321
B1754513727514N12151722WA0031100304004003014352317
B1754523727516N12151723WA0031100304004003016343310
B1754533727519N12151724WA0031100305004003017342313
B1754543727521N12151724WA0031200305004003014347311
B1754553727523N12151725WA0031200305004003014355322
B1754563727525N12151725WA0031200305004003012351310
B1754573727527N12151726WA0031100304004003012345314
B1754583727529N12151726WA0031100304004003013343315
B1754593727531N12151727WA0031000304004003016343328
B1755003727533N12151728WA0030900304004003017350344
B1755013727536N12151728WA0030800304006003017356348
B1755023727539N12151728WA0030800304014003019005319
B1755033727542N12151727WA0030700304004003019017326
B1755043727545N12151725WA0030600303004003018021322
B1755053727548N12151724WA0030500303014003019021300
B1755063727550N12151723WA0030300302014004019014300
B1755073727554N12151722WA0030100302014004021007295
B1755083727556N12151722WA0029900302014005021007296
B1755093727559N12151722WA0029800303014006018007306
B1755103727560N12151723WA0029700300014006018341317
B1755113727561N12151725WA0029500301014007012325311
B1755123727561N12151726WA0029200301014008009295302
B1755133727561N12151729WA0029000300014008009274286
B1755143727561N12151731WA0028900300014009013265282
B1755153727560N12151733WA0028900299014010013260291
B1755163727559N12151735WA0028900296014011013243302
B1755173727558N12151737WA0028800294014012012240293
B1755183727556N12151739WA0028600292014012010239283
B1755193727556N12151742WA0028400293014013013256285
B1755203727555N12151745WA0028200292014013013262282
B1755213727555N12151747WA0028100291014014013270278
B1755223727554N12151750WA0028000291014014012272272
B1755233727554N12151753WA0027900290014015012267270
B1755243727552N12151755WA0027700287014013015237281
B1755253727550N12151760WA0027500284014011020236275
B1755263727544N12151766WA0027300281014011020248286
B1755273727541N12151773WA0027200278014010020252278
B1755283727538N12151778WA0027000276014008014239286
B1755293727536N12151781WA0026900271014006015222294
B1755303727534N12151783WA0026700266014006015231269
B1755313727532N12151786WA0026500262014005015251274
B1755323727531N12151790WA0026300262014004020248257
B1755333727529N12151795WA0026400262014004025242288
B1755343727527N12151799WA0026500263014003020237277
B1755353727526N12151802WA0026700263014003020253286
B1755363727525N12151805WA0026900266014003017261272
B1755373727525N12151808WA0027100266014003017293305
B1755383727527N12151811WA0027300267014003019305291
B1755393727529N12151814WA0027700269014003021322286
B1755403727531N12151817WA0028000273014003021307274
B1755413727532N12151819WA0028200273014003016258267
B1755423727532N12151822WA0028300273014003016237253
B1755433727530N12151825WA0028400274014003020228263
B1755443727527N12151829WA0028500276014003025224267
B1755453727525N12151832WA0028700278014003025231277
B1755463727524N12151835WA0028800278014003021290283
B1755473727525N12151838WA0028800278014003021328306
B1755483727529N12151839WA0028900280014003025344335
B1755493727534N12151840WA0029000280014003026023349
B1755503727537N12151836WA0029200283014003026042009
B1755513727539N12151831WA0029400285014003026062019
B1755523727541N12151825WA0029500286014003029072036
B1755533727542N12151818WA0029500286014003034084052
B1755543727540N12151810WA0029600287014003042102073
B1755553727536N12151803WA0029600287014003044126102
B1755563727531N12151799WA0029600288014003044152136
B1755573727525N12151795WA0029800289014003044186171
B1755583727520N12151797WA0030000289014003037203208
B1755593727517N12151800WA0030300292014003025213227
B1756003727514N12151803WA0030500293014003025222244
B1756013727512N12151807WA0030500292014003021227256
B1756023727510N12151810WA0030500292014003020243269
B1756033727511N12151814WA0030400292014003020287279
B1756043727514N12151817WA0030400293014003025324303
B1756053727519N12151817WA0030500295014003026354325
B1756063727522N12151816WA0030600296014003026013342
B1756073727526N12151814WA0030600296014003026021355
B1756083727531N12151811WA0030600296014003034029010
B1756093727535N12151808WA0030600296014003045049021
B1756103727539N12151800WA0030600296014003045060044
B1756113727543N12151791WA0030600297014003048088056
B1756123727541N12151783WA0030700299014003048102087
B1756133727537N12151776WA0030800299014003041126103
B1756143727532N12151773WA0030800300014003041152134
B1756153727527N12151773WA0030800300014003037176170
B1756163727521N12151772WA0031000301014003035197201
B1756173727518N12151774WA0031200302014003029212222
B1756183727516N12151776WA0031500306014003015217239
B1756193727515N12151778WA0031700306014003015203258
B1756203727514N12151778WA0031800305014003009222258
B1756213727514N12151779WA0031700305014003009287283
B1756223727515N12151782WA0031600304014003009314309
B1756233727518N12151784WA0031600306014003025338326
B1756243727522N12151785WA0031700308014003028358350
B1756253727527N12151782WA0031800310014003028025001
B1756263727531N12151777WA0031900311014003031048018
B1756273727533N12151770WA0032000312014003035064036
B1756283727535N12151762WA0032100313014003046077054
B1756293727534N12151753WA0032200314014003046094076
B1756303727532N12151746WA0032300314014003046116095
B1756313727528N12151739WA0032300314014003043141121
B1756323727523N12151737WA0032400316014003039157158
B1756333727518N12151736WA0032500318014003032169179
B1756343727514N12151736WA0032600320014003032182199
B1756353727511N12151738WA0032800321014003026200212
B1756363727509N12151740WA0032800321014003021224233
B1756373727508N12151743WA0032800322014003017253255
B1756383727509N12151747WA0032800321014003017283274
B1756393727511N12151750WA0032800321014003022309293
B1756403727515N12151752WA0032800321014003022332309
B1756413727518N12151754WA0032900322014003026000321
B1756423727523N12151754WA0033100323014003030009339
B1756433727528N12151753WA0033500325014003029003348
B1756443727532N12151753WA0033800328014003029353338
B1756453727536N12151754WA0034100328014003026346331
B1756463727539N12151755WA0034100328014003022352343
B1756473727542N12151754WA0034100329014003020004340
B1756483727545N12151754WA0034200330014003024029008
B1756493727548N12151751WA0034300330014003029049026
B1756503727550N12151745WA0034300330014003029063041
B1756513727551N12151738WA0034200329014003031082050
B1756523727551N12151730WA0034000328014003036094072
B1756533727549N12151722WA0033900328014003043104092
B1756543727546N12151715WA0033800326014003043122108
B1756553727541N12151709WA0033600325014003043135130
B1756563727536N12151703WA0033600326014003045145153
B1756573727530N12151698WA0033700327014003045153166
B1756583727525N12151697WA0033900330014003036163175
B1756593727520N12151696WA0034000331014003036177191
B1757003727515N12151696WA0034200332014003031189204
B1757013727512N12151698WA0034300333014003025194220
B1757023727509N12151700WA0034400334014003022206230
B1757033727507N12151702WA0034400334014003022221229
B1757043727505N12151705WA0034500335014003025229237
B1757053727502N12151709WA0034600337014003025230232
B1757063727500N12151713WA0034700338014003025232237
B1757073727498N12151716WA0034900339014003022236242
B1757083727496N12151719WA0034900340014003022230255
B1757093727493N12151723WA0035100341014003025221259
B1757103727490N12151725WA0035200344014003024214264
B1757113727488N12151727WA0035400346014003024215287
B1757123727486N12151729WA0035500346014003019227270
B1757133727485N12151731WA0035600346014003010233272
B1757143727484N12151732WA0035600347014003010236276
B1757153727484N12151734WA0035500347014003010234284
B1757163727483N12151736WA0035500347014003011243286
B1757173727483N12151738WA0035500347014003011261289
B1757183727483N12151739WA0035600348014003006282297
B1757193727483N12151740WA0035600348014003006286289
B1757203727483N12151740WA0035600348014003006269285
B1757213727483N12151742WA0035500348014003007274276
B1757223727484N12151744WA0035400347014003011277281
B1757233727484N12151746WA0035300347014003011291305
B1757243727484N12151748WA0035300348014003011313316
B1757253727486N12151749WA0035300348014003010334325
B1757263727488N12151749WA0035300347014003010356325
B1757273727491N12151749WA0035200347014003016358293
B1757283727494N12151750WA0035200347014003020356297
B1757293727496N12151750WA0035100346014003020347295
B1757303727499N12151752WA0035000345014003017328302
B1757313727501N12151754WA0034900346014003017318300
B1757323727504N12151757WA0035000347014003022329298
B1757333727506N12151759WA0035100347014003017346280
B1757343727508N12151759WA0035200348014003017357303
B1757353727510N12151759WA0035200347014003013022312
B1757363727511N12151758WA0035000345014003007025325
B1757373727511N12151759WA0034900343014003006335313
B1757383727513N12151760WA0034600341014003012325311
B1757393727515N12151761WA0034300338014003014322311
B1757403727516N12151763WA0034000335014003014317312
B1757413727518N12151765WA0033700332014003015319309
B1757423727521N12151767WA0033500329014003017327326
B1757433727523N12151769WA0033300328014003017322287
B1757443727523N12151771WA0033100325014003017284289
B1757453727521N12151774WA0032900323014003017229263
B1757463727519N12151777WA0032700323014003018200229
B1757473727515N12151779WA0032600324014003025177203
B1757483727511N12151777WA0032500325014003029168189
B1757493727506N12151776WA0032500324014003035160180
B1757503727500N12151773WA0032400322014003035158170
B1757513727494N12151770WA0032400323014003040157167
B1757523727488N12151766WA0032500324014003041149165
B1757533727483N12151761WA0032700326014003042145158
B1757543727478N12151757WA0032900327014003042143160
B1757553727473N12151752WA0033000327014003039160180
B1757563727468N12151752WA0033100326014003035175200
B1757573727464N12151754WA0033100327014003033204219
B1757583727463N12151757WA0033200327014003015257249
B1757593727465N12151759WA0033200327014003017322271
B1758003727468N12151760WA0033100328014003017341298
B1758013727471N12151761WA0033200329014003020340308
B1758023727473N12151762WA0033300330014003020342311
B1758033727476N12151763WA0033400331014003017351324
B1758043727479N12151763WA0033500332014003021005337
B1758053727482N12151761WA0033600333014003021024341
B1758063727486N12151758WA0033700333014003025033343
B1758073727489N12151755WA0033700334014003026034348
B1758083727492N12151752WA0033700334014003027041337
B1758093727495N12151747WA0033800335014003032052358
B1758103727497N12151742WA0033900335014003032057005
B1758113727500N12151736WA0034000336014003033057013
B1758123727502N12151731WA0034000337014003033061041
B1758133727504N12151726WA0034000337014003030068045
B1758143727506N12151721WA0033800335014003036082067
B1758153727506N12151714WA0033500335014003036097097
B1758163727503N12151706WA0033300331014003039112122
B1758173727499N12151700WA0033000328014003042135141
B1758183727494N12151695WA0032700328014003042158167
B1758193727487N12151694WA0032600329014003039186200
B1758203727482N12151695WA0032700329014003037199218
B1758213727478N12151699WA0032800331014003030209230
B1758223727475N12151701WA0032900332014003020211244
B1758233727473N12151702WA0033000332014003020204254
B1758243727470N12151704WA0033000332014003017212264
B1758253727469N12151707WA0033000331014003016236271
B1758263727469N12151709WA0033000331014003015261275
B1758273727469N12151712WA0032900330014003013274246
B1758283727469N12151714WA0032900329014003014264259
B1758293727468N12151717WA0032800328014003014243269
B1758303727466N12151720WA0032700326014003016239264
B1758313727465N12151724WA0032600325014003019253276
B1758323727465N12151728WA0032500324014003020269268
B1758333727465N12151731WA0032400324014003020270265
B1758343727465N12151734WA0032400324014003018262260
B1758353727464N12151738WA0032400325014003017256266
B1758363727464N12151740WA0032500325014003017250286
B1758373727463N12151742WA0032500324014003010249287
B1758383727463N12151744WA0032400323014003010266295
B1758393727463N12151745WA0032300322014003009285278
B1758403727464N12151747WA0032200320014003009290290
B1758413727464N12151749WA0032000319014003010286276
B1758423727465N12151752WA0031900318014003014285287
B1758433727466N12151755WA0031900318014003014288277
B1758443727467N12151757WA0031800318014003014297277
B1758453727468N12151759WA0031800317014003014306269
B1758463727469N12151760WA0031700316014003012307283
B1758473727469N12151762WA0031600314014003010297277
B1758483727470N12151764WA0031400312014003014293281
B1758493727471N12151767WA0031200312014003014304287
B1758503727472N12151770WA0031100313014003016320300
B1758513727474N12151771WA0031100313014003016327313
B1758523727476N12151772WA0031200313014003011341296
B1758533727477N12151772WA0031100312014003011342301
B1758543727479N12151773WA0031000311014003010333305
B1758553727480N12151774WA0030900310014003010324282
B1758563727481N12151776WA0030800309014003010321287
B1758573727483N12151777WA0030700307014003014324294
B1758583727485N12151779WA0030700307014003017332292
B1758593727488N12151780WA0030700307014003017345295
B1759003727490N12151780WA0030700307014003017359302
B1759013727493N12151779WA0030600306014003016007317
B1759023727495N12151779WA0030500305014003015008324
B1759033727497N12151778WA0030300304014003020003331
B1759043727501N12151778WA0030200303014003020000331
B1759053727504N12151778WA0030100303014003020358320
B1759063727507N12151779WA0030100303014003020353315
B1759073727509N12151779WA0030100302014003017351317
B1759083727512N12151780WA0030000302014003017348315
B1759093727514N12151780WA0030000301014003016346312
B1759103727516N12151781WA0030000300014003016343306
B1759113727518N12151782WA0029900299014003015338299
B1759123727520N12151783WA0029800298014003012331311
B1759133727522N12151784WA0029800298014003013329302
B1759143727523N12151785WA0029800298014003012331292
B1759153727524N12151787WA0029800298014003012319298
B1759163727525N12151788WA0029800298014003009270286
B1759173727525N12151790WA0029700297014003010245268
B1759183727523N12151791WA0029600295014003015209241
B1759193727519N12151792WA0029300292014003015186212
B1759203727515N12151791WA0029000289014003022175217
B1759213727510N12151791WA0028800289014003031169229
B1759223727505N12151790WA0028700290014003032173218
B1759233727501N12151790WA0028600289014003032178213
B1759243727498N12151790WA0028500288014003024184219
B1759253727496N12151791WA0028400288014003017193226
B1759263727493N12151792WA0028300287014003016204238
B1759273727492N12151794WA0028100285014003015223234
B1759283727491N12151797WA0028000283014003018239240
B1759293727489N12151800WA0027900283014003018247239
B1759303727488N12151804WA0027900283014003020247253
B1759313727487N12151807WA0028100283014003020242254
B1759323727486N12151809WA0028200283014003012230271
B1759333727485N12151810WA0028400282014003012222270
B1759343727484N12151812WA0028400281014003012230274
B1759353727483N12151815WA0028300280014003013242292
B1759363727482N12151818WA0028300280014003017255299
B1759373727482N12151821WA0028300280014003013262275
B1759383727482N12151822WA0028300280014003013286294
B1759393727483N12151824WA0028300280014003010280287
B1759403727482N12151826WA0028200279014003008259278
B1759413727482N12151828WA0028100278014003008262279
B1759423727482N12151830WA0028000277014003014265273
B1759433727482N12151833WA0027900276014003014259272
B1759443727481N12151835WA0027900276014003014246278
B1759453727480N12151837WA0027900275014003013238290
B1759463727479N12151839WA0027800275014003013239283
B1759473727478N12151841WA0027800275014003011251290
B1759483727477N12151843WA0027700274014003011250295
B1759493727477N12151845WA0027600272014003011255293
B1759503727477N12151847WA0027400272014003011264293
B1759513727477N12151849WA0027300271014003010286304
B1759523727478N12151851WA0027200270014003010310299
B1759533727480N12151852WA0027100269014003011323312
B1759543727481N12151853WA0026900267014003011330319
B1759553727483N12151854WA0026700265014003011338321
B1759563727485N12151854WA0026600263014003012343305
B1759573727487N12151855WA0026400262014003014344312
B1759583727489N12151856WA0026400261014003014346314
B1759593727490N12151856WA0026300261014003013347310
B1800003727492N12151857WA0026100259014003011342304
B1800013727493N12151858WA0025900259014003011326313
B1800023727495N12151859WA0025700257014003012333316
B1800033727497N12151859WA0025500255014003015346327
B1800043727500N12151859WA0025300253014003015357336
B1800053727502N12151859WA0025100251014003017002343
B1800063727505N12151859WA0025000251014003019004336
B1800073727509N12151859WA0024900250014003023005298
B1800083727512N12151858WA0024800250014003023354296
B1800093727514N12151859WA0024600249014003017277285
B1800103727512N12151862WA0024400246014003014238256
B1800113727509N12151863WA0024300245014003014200243
B1800123727505N12151865WA0024200245014003029167236
B1800133727501N12151863WA0024200245014003029161214
B1800143727498N12151862WA0024100244014003028162200
B1800153727494N12151860WA0024000243014003023182199
B1800163727492N12151861WA0023800241014003017194222
B1800173727490N12151862WA0023700239014003014211239
B1800183727489N12151864WA0023500238014003014224243
B1800193727488N12151865WA0023400236014003011235248
B1800203727488N12151866WA0023300235014003008253246
B1800213727488N12151867WA0023200233014003006266258
B1800223727488N12151869WA0023000232014003008270265
B1800233727488N12151870WA0023000231014003008280271
B1800243727488N12151872WA0022800230014003010288270
B1800253727489N12151874WA0022700229014003010302267
B1800263727490N12151875WA0022600229014003007307272
B1800273727491N12151876WA0022500227014003007309277
B1800283727491N12151877WA0022400225014003007305280
B1800293727492N12151878WA0022200225014003009308281
B1800303727493N12151880WA0022000223014003009307282
B1800313727493N12151881WA0021900221014003007308284
B1800323727494N12151882WA0021600218014003008293285
B1800333727494N12151884WA0021300214014003008284281
B1800343727495N12151887WA0021000214014003012283279
B1800353727495N12151890WA0020900213014003017277279
B1800363727495N12151893WA0020800212014003015254277
B1800373727494N12151896WA0020700210014003015243264
B1800383727493N12151899WA0020600209014003015254261
B1800393727493N12151902WA0020600209004003016262261
B1800403727493N12151904WA0020600208004003016261254
B1800413727492N12151906WA0020400207004003010252260
B1800423727492N12151907WA0020300205004003010249260
B1800433727491N12151909WA0020100203004003010264258
B1800443727491N12151913WA0019900200004003012270257
B1800453727492N12151916WA0019700201004003016269256
B1800463727491N12151919WA0019700201004003016268254
B1800473727491N12151922WA0019700200004003016268255
B1800483727491N12151924WA0019600199004003014270254
B1800493727491N12151927WA0019600198004003013268255
B1800503727491N12151929WA0019500196004003013264256
B1800513727491N12151932WA0019200194004003016264257
B1800523727491N12151935WA0019100193004003016265255
B1800533727491N12151938WA0018800191004003016265252
B1800543727490N12151941WA0018700191004003016273267
B1800553727491N12151944WA0018400190004003016291275
B1800563727492N12151947WA0018300191004003015301302
B1800573727493N12151950WA0018400191004003015313301
B1800583727493N12151950WA0018500190004003007130340
B1800593727493N12151950WA0018500190005003003130322
B1801003727493N12151950WA0018500190005003001130317
B1801013727493N12151949WA0018500189005003001130311
B1801023727493N12151949WA0018500189005003000130298
B1801033727493N12151949WA0018500189006003000130293
B1801043727493N12151949WA0018500189006003000130285
B1801053727493N12151949WA0018500188006003000130278
B1801063727493N12151949WA0018400188006003000130274
B1801073727493N12151949WA0018500188006003000130271
B1801083727493N12151949WA0018500188006003000130269
B1801093727493N12151949WA0018500187014003000130267
B1801103727493N12151949WA0018500187014003000130265
B1801113727493N12151949WA0018500187005003000130264
B1801123727493N12151949WA0018500186014003000130263
B1801133727493N12151948WA0018500186005003000130261
B1801143727493N12151948WA0018500186005003000130259
B1801153727493N12151948WA0018500185005003000130259
B1801163727493N12151948WA0018500185005003000130259
B1801173727493N12151948WA0018500185005003000130259
B1801183727493N12151948WA0018500185005003000031259
B1801193727494N12151948WA0018500185005003000021259
B1801203727494N12151948WA0018500185005003001021259
B1801213727494N12151948WA0018500185005003000021259
B1801223727494N12151948WA0018500185005003000021259
B1801233727494N12151948WA0018500184014003000021258
B1801243727494N12151948WA0018500184005003000021258
B1801253727494N12151948WA0018400184014003000021258
B1801263727494N12151948WA0018400184005003000021258
B1801273727494N12151948WA0018400184005003001021258
B1801283727494N12151948WA0018400184005003001072258
B1801293727494N12151947WA0018400184005003002049258
GAnguHzVgciLV+0oKtUK5RTbeQ6M0mAmg/3Z0CIT8OFpIP/KT5Ubgtzk4FWk4Sk9i
GBBtWbXB0AXE43jhDlVDKqwNyNkIgEoq3mZRxvOIXQaIgWDyTB506yGHE8AE4p4cO
GZAQAyRkKprOPb44ggzKdeiYkliG8BBMuuXFTQiBNwUA=
