AXFH000
HFDTE200826
HFPLTPILOT:KaranS
HFGTYGLIDERTYPE:Niviuk Hiko P
HFDTM100GPSDATUM:WGS84
HFRFWFIRMWAREVERSION:9.7
HFRHWHARDWAREVERSION:iPhone 17 Pro
HFFTYFRTYPE:Flyskyhy,9.7
HFGPS:Internal
HFPRSVARIO:XC Tracer
HFCCLCOMPETITIONCLASS:Paraglider
HFTZNTIMEZONE:-7
HFSITSITE:Mission Ridge (Fremont- San Jose),US
I053638FXA3941VXA4244GSP4547CCO4850HDT
C200826014829190826000109TASK
C0000000N00000000ETAKEOFF
C3645907N11905878W00010009999999000000360000STARTAREA DNLNCH
C3646886N11907285W00000000000400000000360000TURNAREA 49917
C3644816N11904600W00000000001000000000360000TURNAREA SONTAG
C3646886N11907285W00000000000400000000360000TURNAREA 49917
C3644411N11907767W00000000001500000000360000TURNAREA TURKEY
C3645907N11905878W00000000000400000000360000TURNAREA DNLNCH
C3643790N11908069W00000000001500000000360000TURNAREA GRNY
C3644227N11904779W00000000001000000000360000TURNAREA LASTCH
C3646886N11907285W00000000000400000000360000TURNAREA 49917
C3644153N11906286W00000000002000000000360000TURNAREA DNLPLZ
C3644153N11906286W00000000000400000000360000FINISHAREA DNLPLZ
C0000000N00000000ELANDING
B0148583731045N12153519WA0058100581002003001244035
B0148593731045N12153520WA0058100581002003001355026
B0149003731046N12153520WA0058100581002003002009021
B0149013731046N12153520WA0058100581001003001319032
B0149023731046N12153520WA0058100581001003000319025
B0149033731046N12153520WA0058100581001003000319018
B0149043731046N12153520WA0058100581001003000319025
B0149053731046N12153520WA0058100581001003000319029
B0149063731046N12153520WA0058100581001003000319025
B0149073731046N12153520WA0058100581001003000319031
B0149083731046N12153520WA0058100581001003000319030
B0149093731046N12153520WA0058100581001003000319029
B0149103731046N12153520WA0058100581001003000319023
B0149113731046N12153520WA0058100581001003000319030
B0149123731046N12153520WA0058100581001003000319037
B0149133731046N12153520WA0058100581001003000319040
B0149143731046N12153520WA0058100581001003000319030
B0149153731046N12153520WA0058100581001003001236039
B0149163731046N12153520WA0058100581001003002052027
B0149173731046N12153519WA0058100581002003002010335
B0149183731046N12153520WA0058100581002003002199214
B0149193731046N12153520WA0058100581002003003260205
B0149203731046N12153521WA0058100581002003004256179
B0149213731045N12153522WA0058000581002003004247144
B0149223731044N12153524WA0057900580002003005228354
B0149233731043N12153525WA0057800580002003008226076
B0149243731042N12153527WA0057700579003003010238044
B0149253731041N12153530WA0057300579003003010246357
B0149263731039N12153534WA0057100578003003012245314
B0149273731037N12153541WA0057200579003003020242261
B0149283731035N12153545WA0057700579003003020243216
B0149293731034N12153549WA0057800578003003020248246
B0149303731033N12153552WA0057700577003003019248281
B0149313731032N12153555WA0057600576003003020249273
B0149323731032N12153560WA0057300573004003026256295
B0149333731031N12153565WA0057200572004003026264303
B0149343731031N12153571WA0057100572004003030278309
B0149353731033N12153577WA0057000571004003034291294
B0149363731035N12153583WA0056900570004003034306308
B0149373731039N12153587WA0056900569004003033317292
B0149383731042N12153590WA0056800568004003030322308
B0149393731046N12153593WA0056700567004003030322309
B0149403731050N12153597WA0056700566004003033319323
B0149413731053N12153601WA0056600565004003033319322
B0149423731057N12153605WA0056500564004003033321309
B0149433731061N12153609WA0056400564004003028320309
B0149443731063N12153612WA0056400563004003028316299
B0149453731066N12153616WA0056200562004003028316317
B0149463731070N12153620WA0056100560004003028316318
B0149473731073N12153624WA0056000560004003031312318
B0149483731076N12153628WA0055900559004003031308321
B0149493731079N12153632WA0055900559004003030310327
B0149503731082N12153636WA0055800558004003027317316
B0149513731085N12153639WA0055700557004003027320316
B0149523731088N12153642WA0055600557004003030317307
B0149533731091N12153647WA0055500554004003030314339
B0149543731095N12153651WA0055400554004003030319331
B0149553731098N12153654WA0055300553004003029326338
B0149563731102N12153657WA0055200552004003030331344
B0149573731107N12153659WA0055100551004003030334325
B0149583731111N12153662WA0055100550004003034333320
B0149593731116N12153666WA0055000549004003036329330
B0150003731121N12153669WA0055000549004003037326320
B0150013731125N12153673WA0055000549004003036327344
B0150023731130N12153676WA0055000549004003036329347
B0150033731134N12153679WA0055000549004003032333334
B0150043731138N12153682WA0055000549004003032340321
B0150053731143N12153683WA0055000547004003032347333
B0150063731147N12153684WA0054800546004003030345331
B0150073731152N12153687WA0054700544004003033337313
B0150083731157N12153690WA0054500542004003038329323
B0150093731161N12153694WA0054400541004003038327330
B0150103731166N12153697WA0054400542004003038331348
B0150113731171N12153700WA0054600543004003032336326
B0150123731175N12153702WA0054700544004003032339328
B0150133731178N12153703WA0054700544004003027336334
B0150143731182N12153706WA0054600542004003027333333
B0150153731187N12153709WA0054500541004003037331336
B0150163731192N12153713WA0054400540004003040333343
B0150173731197N12153716WA0054400541004003037335350
B0150183731202N12153718WA0054500541004003037336357
B0150193731206N12153721WA0054500542004003030337359
B0150203731211N12153723WA0054500541004003030338350
B0150213731215N12153725WA0054400540004003030337332
B0150223731219N12153727WA0054200538004003030333354
B0150233731224N12153730WA0054100536004003033334356
B0150243731230N12153733WA0054000536004003041342359
B0150253731236N12153735WA0054000536004003041350008
B0150263731241N12153735WA0054000537004003040356000
B0150273731246N12153735WA0054000537004003037359359
B0150283731251N12153735WA0054000536004003034358001
B0150293731257N12153736WA0053900535004003037356350
B0150303731263N12153737WA0053900535004003037353349
B0150313731268N12153738WA0053900535004003039348355
B0150323731274N12153739WA0053900535004003039348357
B0150333731279N12153740WA0053900535004003036352008
B0150343731285N12153741WA0053900534004003036355011
B0150353731290N12153742WA0053800534004003036351327
B0150363731296N12153744WA0053800533004003037342318
B0150373731301N12153747WA0053700532004003036333333
B0150383731305N12153750WA0053600532004003036331354
B0150393731309N12153752WA0053500531004003033335329
B0150403731314N12153754WA0053400530004003031340321
B0150413731318N12153756WA0053300530004003031336290
B0150423731322N12153759WA0053200529004003029313275
B0150433731323N12153765WA0053100526004003029282255
B0150443731322N12153770WA0052900523004003029246231
B0150453731319N12153775WA0052700524004003029204209
B0150463731315N12153775WA0052600524004003023179192
B0150473731312N12153774WA0052600524004003023173200
B0150483731310N12153774WA0052600523004003017189195
B0150493731307N12153775WA0052600522004003017213206
B0150503731305N12153778WA0052500520004003017223217
B0150513731303N12153781WA0052400519004003024224215
B0150523731300N12153784WA0052400519004003024219209
B0150533731297N12153786WA0052400520004003024214214
B0150543731294N12153788WA0052500519004003022213207
B0150553731292N12153791WA0052500519004003022215210
B0150563731289N12153793WA0052500520004003022216222
B0150573731286N12153795WA0052500520004003022206218
B0150583731284N12153796WA0052500519004003020184186
B0150593731281N12153795WA0052400518004003020167176
B0151003731278N12153794WA0052200516004003024162170
B0151013731274N12153793WA0052000514004003024165191
B0151023731270N12153792WA0051800513004003024174206
B0151033731267N12153792WA0051700512004003023188210
B0151043731264N12153794WA0051600511004003024206220
B0151053731261N12153797WA0051500510004003024223223
B0151063731259N12153801WA0051500509004003025233225
B0151073731257N12153805WA0051400509004003024234216
B0151083731254N12153808WA0051400508004003024230218
B0151093731252N12153811WA0051300508004003024227223
B0151103731249N12153815WA0051300507004003024227231
B0151113731247N12153818WA0051200507004003023228223
B0151123731245N12153821WA0051200507004003023228220
B0151133731243N12153824WA0051100506004003022229207
B0151143731241N12153827WA0051000505004003022225219
B0151153731238N12153831WA0050900503004003025221210
B0151163731235N12153834WA0050800502004003026218194
B0151173731232N12153837WA0050600500004003026216207
B0151183731228N12153840WA0050500499004003028215190
B0151193731224N12153843WA0050500499004003029211176
B0151203731221N12153845WA0050500500004003029203175
B0151213731218N12153846WA0050500499004003025193187
B0151223731214N12153847WA0050400498004003023186185
B0151233731210N12153847WA0050200496004003027187185
B0151243731206N12153848WA0050000494004003032190190
B0151253731201N12153850WA0049900493004003032197204
B0151263731197N12153852WA0049900493004003032203187
B0151273731193N12153854WA0049900494004003027204194
B0151283731189N12153856WA0049900493004003027203199
B0151293731186N12153858WA0049900492004003025203192
B0151303731182N12153860WA0049800491004003025204202
B0151313731178N12153862WA0049700491004003028204198
B0151323731175N12153864WA0049700490004003028204202
B0151333731171N12153867WA0049600490004003028205204
B0151343731168N12153869WA0049600490004003026207205
B0151353731164N12153871WA0049500489004003026206199
B0151363731160N12153873WA0049400487004003028203194
B0151373731156N12153875WA0049200486004003028200195
B0151383731152N12153877WA0049100484004003029200194
B0151393731148N12153879WA0049000484004003029201191
B0151403731144N12153881WA0048900483004003029199178
B0151413731140N12153882WA0048800482004003028195174
B0151423731136N12153883WA0048700481004003027188167
B0151433731132N12153884WA0048600479004003027182171
B0151443731128N12153883WA0048500478004003027177164
B0151453731124N12153883WA0048400477004003027173164
B0151463731120N12153882WA0048300476004003027171166
B0151473731116N12153881WA0048200475004003028170168
B0151483731112N12153881WA0048100474004003028171171
B0151493731108N12153880WA0048000473004003028172176
B0151503731104N12153879WA0047900472004003027173171
B0151513731100N12153879WA0047800471004003028173173
B0151523731095N12153878WA0047600469004003029171162
B0151533731091N12153877WA0047400468004003029169163
B0151543731086N12153876WA0047300466004003030166159
B0151553731082N12153874WA0047200465004003029163153
B0151563731078N12153873WA0047000464004003029165163
B0151573731074N12153872WA0046900463004003028166164
B0151583731070N12153871WA0046800460004003028168173
B0151593731066N12153870WA0046600458004003030169163
B0152003731061N12153868WA0046400456004003032168164
B0152013731056N12153867WA0046200455004003032166168
B0152023731052N12153865WA0046100454004003032164158
B0152033731048N12153864WA0046100454004003028163157
B0152043731044N12153863WA0046000453004003028164167
B0152053731040N12153862WA0045900451004003026168169
B0152063731036N12153861WA0045600448004003026177185
B0152073731031N12153862WA0045300445004003033186194
B0152083731026N12153863WA0045100442004003039190188
B0152093731019N12153864WA0044900442004003039191173
B0152103731013N12153866WA0044800442004003043190174
B0152113731007N12153867WA0044900443004003038188153
B0152123731003N12153867WA0045000444004003038173173
B0152133730999N12153866WA0045100443004003027165168
B0152143730996N12153865WA0045000441004003024171171
B0152153730992N12153864WA0044700440004003029182180
B0152163730987N12153865WA0044600440004003033186172
B0152173730982N12153866WA0044500440004003033185171
B0152183730978N12153866WA0044400440004003033180164
B0152193730974N12153866WA0044400439004003027173160
B0152203730970N12153865WA0044300437004003029169163
B0152213730965N12153864WA0044100435004003029170179
B0152223730960N12153863WA0044000435004003032174177
B0152233730955N12153863WA0043900434004003032179174
B0152243730950N12153863WA0043800432004003032182171
B0152253730945N12153863WA0043700431004003032182169
B0152263730940N12153863WA0043500430004003032180165
B0152273730935N12153863WA0043400428004003035177165
B0152283730930N12153863WA0043200426004003036177159
B0152293730924N12153863WA0043100424004003036177180
B0152303730919N12153862WA0043000423004003036175172
B0152313730914N12153862WA0042900422004003035174161
B0152323730909N12153861WA0042700420004003035174167
B0152333730904N12153861WA0042600418004003035175172
B0152343730898N12153860WA0042400416004003036174160
B0152353730892N12153859WA0042300414004003041172168
B0152363730886N12153858WA0042200413004003042171164
B0152373730879N12153857WA0042100413004003041173170
B0152383730873N12153856WA0042000412004003040176183
B0152393730867N12153856WA0041900412004003039174160
B0152403730862N12153855WA0041800410004003039172169
B0152413730856N12153853WA0041700409004003039168151
B0152423730850N12153852WA0041600407004003039168175
B0152433730845N12153851WA0041500406004003038173161
B0152443730839N12153851WA0041400405004003039179165
B0152453730833N12153851WA0041300404004003039180173
B0152463730827N12153851WA0041200403004003039177162
B0152473730822N12153850WA0041100403004003036173167
B0152483730816N12153849WA0041100402004003036172164
B0152493730811N12153848WA0040900399004003036175170
B0152503730804N12153848WA0040700397004003038178169
B0152513730798N12153848WA0040500395004003044176170
B0152523730791N12153847WA0040300395004003044172174
B0152533730785N12153846WA0040200394004003044171176
B0152543730778N12153845WA0040100392004003044175185
B0152553730771N12153845WA0040000391004003045180181
B0152563730765N12153845WA0040000391004003044181169
B0152573730758N12153845WA0039900390004003044174165
B0152583730753N12153843WA0039900390004003042164163
B0152593730747N12153840WA0039800388004003039161158
B0153003730741N12153838WA0039600387004003041162157
B0153013730735N12153836WA0039500385004003043166171
B0153023730729N12153834WA0039400384004003043167160
B0153033730723N12153832WA0039300383004003043163149
B0153043730717N12153829WA0039200382004003041157146
B0153053730711N12153826WA0039100381004003041156166
B0153063730706N12153823WA0039000380004003041157158
B0153073730700N12153820WA0038900378004003042159156
B0153083730694N12153818WA0038800378004003042159169
B0153093730688N12153815WA0038700377004003042157153
B0153103730682N12153812WA0038600376004003042157164
B0153113730676N12153809WA0038500375004003042158161
B0153123730670N12153806WA0038400374004003042158159
B0153133730664N12153803WA0038300373004003042159167
B0153143730659N12153801WA0038200372004003041160161
B0153153730653N12153798WA0038100371004003040160168
B0153163730647N12153795WA0038000370004003040160159
B0153173730641N12153793WA0037900369004003041158156
B0153183730636N12153790WA0037700367004003041158166
B0153193730630N12153787WA0037600365004003042159172
B0153203730623N12153785WA0037500364004003043163176
B0153213730617N12153783WA0037300363004003043166174
B0153223730611N12153781WA0037200362004003043167171
B0153233730605N12153779WA0037100361004003041169174
B0153243730599N12153778WA0037000359004003040173193
B0153253730593N12153778WA0036800357004003042176189
B0153263730586N12153778WA0036600355004003042178185
B0153273730580N12153778WA0036500353004003043179175
B0153283730574N12153778WA0036300352004003043179178
B0153293730567N12153778WA0036200351004003043183204
B0153303730561N12153779WA0036000350004003042190199
B0153313730555N12153781WA0035900349004003042194203
B0153323730549N12153783WA0035800348004003042196194
B0153333730543N12153785WA0035700347004003042195195
B0153343730537N12153787WA0035600346004003041195194
B0153353730531N12153790WA0035500345004003041196199
B0153363730525N12153792WA0035300343004003041197196
B0153373730519N12153794WA0035200342004003042197193
B0153383730513N12153796WA0035100340004003041197199
B0153393730507N12153799WA0035000339004003041196205
B0153403730502N12153801WA0034900338004003039197197
B0153413730496N12153803WA0034800337004003041197197
B0153423730490N12153806WA0034800336004003041198216
B0153433730484N12153808WA0034700336004003041196182
B0153443730479N12153810WA0034700336004003038195192
B0153453730473N12153812WA0034700336004003038192194
B0153463730468N12153813WA0034700336004003037187181
B0153473730463N12153813WA0034700335004003036185187
B0153483730458N12153814WA0034600335004003035187195
B0153493730452N12153815WA0034500333004003037188190
B0153503730446N12153816WA0034400332004003037184165
B0153513730440N12153816WA0034300331004003040178166
B0153523730433N12153815WA0034300331004003041176170
B0153533730428N12153815WA0034300331004003041175167
B0153543730422N12153814WA0034300331004003038177186
B0153553730417N12153814WA0034200331004003036181197
B0153563730412N12153815WA0034200330004003032188198
B0153573730407N12153817WA0034000328004003033196206
B0153583730402N12153819WA0033900327004003033201207
B0153593730397N12153821WA0033800325004003035202205
B0154003730392N12153824WA0033600324004003038200206
B0154013730386N12153827WA0033600324004003039199212
B0154023730381N12153829WA0033500323004003038201218
B0154033730376N12153832WA0033500323004003038207218
B0154043730371N12153836WA0033500323004003036209218
B0154053730367N12153839WA0033500323004003036205215
B0154063730362N12153841WA0033400322004003035199204
B0154073730357N12153843WA0033300320004003035198222
B0154083730352N12153846WA0033100318004003038203213
B0154093730346N12153849WA0033000317004003041209223
B0154103730341N12153853WA0033000317004003041209218
B0154113730336N12153857WA0033000318004003041205215
B0154123730331N12153859WA0033100319004003035203210
B0154133730326N12153862WA0033100319004003035204220
B0154143730321N12153864WA0033100318004003034203210
B0154153730316N12153867WA0033000317004003034199194
B0154163730310N12153869WA0032900316004003041195203
B0154173730304N12153871WA0032800315004003042193205
B0154183730298N12153873WA0032700314004003042194207
B0154193730292N12153875WA0032600313004003042197208
B0154203730287N12153878WA0032500311004003040201222
B0154213730281N12153881WA0032400310004003040205204
B0154223730276N12153884WA0032200310004003040207208
B0154233730270N12153888WA0032100309004003041207201
B0154243730265N12153891WA0032000308004003040204191
B0154253730259N12153894WA0032000307004003040199193
B0154263730254N12153896WA0031800306004003039195193
B0154273730248N12153898WA0031800305004003039193197
B0154283730242N12153899WA0031600303004003040193192
B0154293730236N12153901WA0031500302004003040192188
B0154303730231N12153902WA0031400301004003040191197
B0154313730225N12153904WA0031300300004003039192205
B0154323730220N12153906WA0031300299004003038195210
B0154333730214N12153908WA0031100297004003039197208
B0154343730208N12153910WA0031000296004003039198224
B0154353730203N12153913WA0030900295004003039200226
B0154363730198N12153916WA0030800294004003036207227
B0154373730193N12153920WA0030700293004003036217238
B0154383730190N12153924WA0030600292004003035227249
B0154393730187N12153930WA0030500291004003034238251
B0154403730185N12153936WA0030300289004003035245252
B0154413730183N12153942WA0030200288004003036248253
B0154423730181N12153949WA0030200287004003036251255
B0154433730179N12153955WA0030200288004003038252242
B0154443730178N12153962WA0030300289004003035251237
B0154453730176N12153968WA0030400290004003035248250
B0154463730174N12153972WA0030500291004003031248255
B0154473730173N12153977WA0030500292004003027252286
B0154483730173N12153981WA0030500291004003022260282
B0154493730172N12153985WA0030400291004003023278300
B0154503730174N12153988WA0030200288004003022305310
B0154513730177N12153990WA0030000286004003023342325
B0154523730181N12153990WA0029900286004003025012341
B0154533730185N12153989WA0029800286004003025010345
B0154543730188N12153990WA0029800285004003024345343
B0154553730190N12153992WA0029700283004003023312322
B0154563730192N12153996WA0029500282004003025305305
B0154573730195N12154000WA0029500282004003025315306
B0154583730198N12154003WA0029400281004003025328313
B0154593730201N12154004WA0029400281004003023329315
B0155003730204N12154007WA0029400281004003023323310
B0155013730206N12154010WA0029400281004003024316309
B0155023730209N12154013WA0029400280004003024316316
B0155033730212N12154016WA0029400281004003025318325
B0155043730215N12154019WA0029400281004003025320327
B0155053730217N12154021WA0029400280004003020326325
B0155063730220N12154023WA0029300279004003020335321
B0155073730223N12154024WA0029200277004003020337319
B0155083730226N12154026WA0029100276004003023326304
B0155093730229N12154030WA0028900275004003027306294
B0155103730230N12154035WA0028800273004003029287282
B0155113730231N12154041WA0028700273004003029274285
B0155123730231N12154046WA0028600273004003029270291
B0155133730231N12154051WA0028500272004003027269284
B0155143730231N12154056WA0028400271004003027267275
B0155153730231N12154061WA0028300269004003027265270
B0155163730230N12154066WA0028200268004003028262268
B0155173730229N12154072WA0028100267004003027260264
B0155183730228N12154077WA0028000266004003028257260
B0155193730227N12154082WA0028000265004003028253260
B0155203730226N12154087WA0028000265004003028247253
B0155213730224N12154091WA0027900265004003026246248
B0155223730223N12154096WA0027800264004003027249244
B0155233730221N12154101WA0027700263004003027249246
B0155243730220N12154106WA0027700263004003030244245
B0155253730217N12154111WA0027700263004003031238241
B0155263730215N12154116WA0027800264004003031237237
B0155273730213N12154120WA0027800264004003027244236
B0155283730212N12154123WA0027800263004003022254241
B0155293730212N12154127WA0027600261004003022262248
B0155303730211N12154132WA0027500261004003025261254
B0155313730211N12154136WA0027300259004003025254254
B0155323730209N12154141WA0027200259004003025247248
B0155333730208N12154145WA0027200258004003024243243
B0155343730206N12154149WA0027100256004003024243239
B0155353730204N12154154WA0026900255004003024249239
B0155363730203N12154158WA0026800253004003026253243
B0155373730202N12154163WA0026600251004003026255247
B0155383730201N12154168WA0026500250004003027257249
B0155393730201N12154173WA0026300248004003027260250
B0155403730200N12154178WA0026200247004003027262253
B0155413730200N12154183WA0026100245004003028264255
B0155423730199N12154188WA0026000245004003028266257
B0155433730199N12154194WA0025900245004003028268258
B0155443730199N12154199WA0025800243004003028272260
B0155453730200N12154204WA0025700242004003027275264
B0155463730200N12154209WA0025600242004003027276266
B0155473730201N12154214WA0025600241004003027276267
B0155483730201N12154219WA0025500240004003026275267
B0155493730201N12154223WA0025400240004003025273266
B0155503730201N12154228WA0025300238004003025274264
B0155513730202N12154232WA0025200238004003025281264
B0155523730203N12154237WA0025200237004003024289271
B0155533730204N12154240WA0025100236004003022290277
B0155543730205N12154244WA0025000235004003023289278
B0155553730207N12154249WA0024800234004003023288277
B0155563730208N12154254WA0024700232004003026287276
B0155573730209N12154259WA0024600232004003026287277
B0155583730210N12154263WA0024600231004003026288276
B0155593730211N12154267WA0024600231004003025290277
B0156003730213N12154271WA0024500230004003023293279
B0156013730214N12154275WA0024400229004003023293282
B0156023730215N12154279WA0024300227004003025290286
B0156033730217N12154284WA0024200226004003025286284
B0156043730218N12154289WA0024100225004003026286281
B0156053730219N12154293WA0024000225004003025289280
B0156063730220N12154297WA0024000224004003025296281
B0156073730222N12154301WA0023900223004003023303287
B0156083730224N12154304WA0023900223004003022305298
B0156093730226N12154308WA0023800222004003023302298
B0156103730228N12154312WA0023700221004003025297295
B0156113730229N12154316WA0023600221004003025297290
B0156123730231N12154320WA0023500220004003025298289
B0156133730233N12154324WA0023500220004003025297290
B0156143730234N12154328WA0023400219004003025294288
B0156153730236N12154332WA0023300218004003024294284
B0156163730237N12154336WA0023200217004003023298284
B0156173730239N12154339WA0023100216004003022309288
B0156183730242N12154342WA0023000215004003023317296
B0156193730245N12154345WA0022900214004003023328305
B0156203730248N12154347WA0022800213004003025332315
B0156213730252N12154349WA0022700212004003026335321
B0156223730256N12154351WA0022700212004003026337324
B0156233730259N12154353WA0022700211004003025341327
B0156243730263N12154354WA0022700211004003024345334
B0156253730266N12154355WA0022700211004003022349336
B0156263730269N12154355WA0022700210004003022355339
B0156273730273N12154355WA0022600209004003022001345
B0156283730276N12154355WA0022500209004003022004353
B0156293730279N12154355WA0022500208004003022003002
B0156303730283N12154354WA0022400207004003024002002
B0156313730286N12154354WA0022400207004003023004002
B0156323730289N12154354WA0022400207004003023014000
B0156333730292N12154352WA0022400206004003018024013
B0156343730294N12154350WA0022300205004003019036023
B0156353730296N12154348WA0022100204004003019047042
B0156363730298N12154344WA0022000203004003022056060
B0156373730300N12154340WA0021900202004003027066072
B0156383730301N12154335WA0021800201004003028071084
B0156393730302N12154330WA0021700200004003027074083
B0156403730303N12154325WA0021600199004003027078080
B0156413730304N12154320WA0021500198004003026082074
B0156423730304N12154315WA0021300196004003027085078
B0156433730304N12154309WA0021200194004003027083077
B0156443730305N12154304WA0021000193004003029084077
B0156453730305N12154298WA0020900192004003029087086
B0156463730305N12154293WA0020800191004003030091091
B0156473730305N12154287WA0020700190004003029091071
B0156483730305N12154282WA0020600189004003029087072
B0156493730305N12154277WA0020500187004003028082069
B0156503730306N12154272WA0020400186004003028078067
B0156513730307N12154266WA0020200184004003028075067
B0156523730308N12154261WA0020100183004003028070058
B0156533730310N12154257WA0020000182004003027067052
B0156543730311N12154252WA0019900181004003027064051
B0156553730313N12154248WA0019800180004003026057045
B0156563730316N12154244WA0019600178004003026050046
B0156573730318N12154241WA0019500177004003024043037
B0156583730321N12154238WA0019300175004003024039030
B0156593730324N12154235WA0019200173004003024034018
B0157003730327N12154233WA0019100173004003024025007
B0157013730330N12154232WA0019000172004003022014018
B0157023730333N12154231WA0018900171004003022010011
B0157033730337N12154230WA0018800170004003022013025
B0157043730340N12154229WA0018700169004003022014010
B0157053730343N12154228WA0018600168004003023013358
B0157063730347N12154227WA0018500167004003023012353
B0157073730350N12154227WA0018400165004003023008341
B0157083730353N12154227WA0018300164004003023356328
B0157093730357N12154227WA0018100163004003023347329
B0157103730360N12154229WA0018000162004003022343306
B0157113730363N12154230WA0018000161004003022337337
B0157123730366N12154232WA0017900161004003022324334
B0157133730368N12154234WA0017900161004003019312333
B0157143730369N12154236WA0017800159004003014312319
B0157153730371N12154238WA0017600157004003017301304
B0157163730372N12154242WA0017300155004003023283278
B0157173730371N12154247WA0017100152004003023258263
B0157183730369N12154253WA0017000150004003031238293
B0157193730365N12154258WA0017000150004003033218252
B0157203730361N12154261WA0016900149004003029208246
B0157213730358N12154263WA0016700148004003029211239
B0157223730355N12154266WA0016600147004003025219243
B0157233730352N12154269WA0016400145004003025224242
B0157243730349N12154273WA0016300145004003030218246
B0157253730345N12154276WA0016300145004003026210239
B0157263730342N12154278WA0016300144004003026203233
B0157273730340N12154279WA0016200144004003021193219
B0157283730339N12154279WA0016200144004003001193210
B0157293730340N12154279WA0016200144004003001193210
B0157303730339N12154280WA0016200143004003003193203
B0157313730339N12154279WA0016200144004003003193201
B0157323730340N12154280WA0016200143004003001193226
B0157333730340N12154279WA0016200144004003001193191
B0157343730340N12154279WA0016200143004003001193198
B0157353730340N12154279WA0016200143004003000193184
B0157363730340N12154279WA0016200143004003000193189
B0157373730340N12154279WA0016200143004003000193189
B0157383730340N12154279WA0016200142004003000193202
B0157393730340N12154279WA0016200142004003000193193
B0157403730340N12154279WA0016200142004003000193190
B0157413730340N12154279WA0016200142004003000193206
B0157423730340N12154279WA0016200142004003000193201
B0157433730340N12154279WA0016200142004003000193190
B0157443730340N12154279WA0016200142004003000193193
B0157453730340N12154279WA0016200142004003001193158
B0157463730340N12154279WA0016200142004003000193156
B0157473730340N12154279WA0016200142004003000193174
B0157483730340N12154279WA0016200142004003000193183
B0157493730340N12154279WA0016200142004003000193189
B0157503730340N12154279WA0016200142004003000193194
B0157513730340N12154279WA0016200142004003000193196
B0157523730340N12154279WA0016200142004003000193198
B0157533730340N12154279WA0016200141004003000193200
B0157543730340N12154279WA0014100141004003000193202
B0157553730340N12154279WA0014100141004003000193202
B0157563730340N12154279WA0014100141004003000193204
B0157573730340N12154279WA0014100141004003000193204
B0157583730340N12154279WA0014100141004003001193203
B0157593730340N12154279WA0014100141004003000193203
B0158003730340N12154279WA0014100141004003000193204
GfQj0PZeesixwnUiijIVv6ugLewLytzAeN0HdAxwQNo826biiixOs+hpVcsr9miNS
GJ2pJdXOFydpWnKkaVOWt9dJW2W0J2xcgDQJEv68ftJpKqFI4NC2lRNSvqUR/TZnE
GeonM/GiqSZs4cwDVwBPtRL+BS/phy+LyqGL1DO2Wyw4=
