AXFH000
HFDTE250826
HFPLTPILOT:KaranS
HFGTYGLIDERTYPE:Niviuk Hiko P
HFDTM100GPSDATUM:WGS84
HFRFWFIRMWAREVERSION:9.7.1
HFRHWHARDWAREVERSION:iPhone 17 Pro
HFFTYFRTYPE:Flyskyhy,9.7.1
HFGPS:Internal
HFPRSVARIO:XC Tracer
HFCCLCOMPETITIONCLASS:Paraglider,EN-B
HFTZNTIMEZONE:-7
HFSITSITE:Mission Ridge (Fremont- San Jose),US
I053638FXA3941VXA4244GSP4547CCO4850HDT
C250826020349240826000102TASK
C0000000N00000000ETAKEOFF
C3920460N12240140W00000000000500000000360000STARTAREA A
C3925620N12246080W00000000000500000000360000TURNAREA B
C3923640N12237860W00000000000500000000360000TURNAREA C
C3920460N12240140W00000000000500000000360000FINISHAREA D
C0000000N00000000ELANDING
B0204183731048N12153518WA0058300583002003001200331
B0204193731048N12153518WA0058300583002003002189293
B0204203731048N12153518WA0058300583001003002177316
B0204213731047N12153518WA0058300583001003002172328
B0204223731047N12153518WA0058300583002003003159327
B0204233731047N12153517WA0058300583002003003129323
B0204243731047N12153517WA0058300583002003002133318
B0204253731047N12153517WA0058300583002003002095334
B0204263731047N12153517WA0058300583002003001095349
B0204273731047N12153517WA0058300584002003001095336
B0204283731047N12153517WA0058400583002003000095340
B0204293731047N12153517WA0058400584001003001095324
B0204303731047N12153517WA0058300584001003000095294
B0204313731047N12153517WA0058300583001003000095298
B0204323731047N12153517WA0058300583001003001095322
B0204343731047N12153517WA0058300583001003000095320
B0204353731047N12153517WA0058300583001003001359319
B0204363731047N12153517WA0058300583001003001222328
B0204373731047N12153517WA0058300584001003001350327
B0204383731048N12153517WA0058300584001003001344333
B0204393731048N12153518WA0058300584002003004330272
B0204403731048N12153518WA0058300584002003004330135
B0204413731047N12153519WA0058200584002003004245116
B0204423731047N12153520WA0058200583003003004244075
B0204433731046N12153522WA0058100583002003009232075
B0204443731045N12153524WA0058000583002003010227119
B0204453731043N12153526WA0057900582002003010231066
B0204463731042N12153529WA0057900581002003012239041
B0204473731040N12153532WA0057700580002003016238022
B0204483731038N12153535WA0057600579002003017236328
B0204493731037N12153538WA0057700579001003017235198
B0204503731035N12153541WA0057800578002003017233169
B0204513731034N12153543WA0057700578002003016220194
B0204523731032N12153545WA0057600577003003016207191
B0204533731029N12153546WA0057500575002003016199198
B0204543731026N12153547WA0057300573002003018203198
B0204553731023N12153550WA0057200573002003019215198
B0204563731020N12153553WA0057100572002003019224190
B0204573731018N12153555WA0057000571001003019221198
B0204583731015N12153557WA0056900569001003019215209
B0204593731013N12153560WA0056800568004003024222208
B0205003731010N12153564WA0056600566004003029234224
B0205013731008N12153569WA0056400564004003029248232
B0205023731007N12153575WA0056300563004003031251212
B0205033731005N12153580WA0056200562004003029240218
B0205043731002N12153584WA0056100560004003029221212
B0205053730999N12153586WA0055900558004003027211208
B0205063730995N12153589WA0055800557004003026212202
B0205073730992N12153591WA0055700557004003020213202
B0205083730990N12153593WA0055600556004003020206206
B0205093730988N12153594WA0055500554004003018195203
B0205103730985N12153595WA0055300553004003018190196
B0205113730981N12153595WA0055200551004003021192184
B0205123730977N12153597WA0055000549004003026193189
B0205133730974N12153598WA0054900548004003026191180
B0205143730970N12153599WA0054800548004003025190184
B0205153730967N12153599WA0054800547004003022186183
B0205163730964N12153599WA0054600545004003022179185
B0205173730960N12153599WA0054500543004003024176174
B0205183730957N12153599WA0054400542004003025175171
B0205193730953N12153598WA0054300541004003024173165
B0205203730950N12153597WA0054200540004003024166160
B0205213730947N12153596WA0054100539004003022160155
B0205223730943N12153594WA0053900537004003023158164
B0205233730940N12153593WA0053800536004003025158179
B0205243730936N12153591WA0053700534004003025163187
B0205253730932N12153590WA0053600533004003026173186
B0205263730928N12153590WA0053400532004003026180191
B0205273730925N12153591WA0053300531004003024189213
B0205283730921N12153592WA0053200530004003025205212
B0205293730918N12153596WA0053000527004003025223218
B0205303730915N12153600WA0052900525004003029233216
B0205313730912N12153606WA0052700524004003033234223
B0205323730909N12153610WA0052600522004003029227207
B0205333730906N12153613WA0052400521004003029218197
B0205343730903N12153616WA0052200519004003028214207
B0205353730899N12153620WA0052000517004003028218208
B0205363730896N12153624WA0051800515004003032223216
B0205373730892N12153629WA0051700514004003035229212
B0205383730889N12153634WA0051700514004003035232206
B0205393730886N12153639WA0051600513004003033229210
B0205403730883N12153643WA0051600512004003032225206
B0205413730879N12153648WA0051500511004003032226207
B0205423730876N12153652WA0051400510004003032229222
B0205433730873N12153657WA0051300509004003032232229
B0205443730870N12153662WA0051200508004003032233224
B0205453730867N12153667WA0051100507004003034232227
B0205463730864N12153672WA0051000507004003034232201
B0205473730861N12153677WA0051000506004003030230204
B0205483730858N12153681WA0050900505004003030224214
B0205493730855N12153684WA0050800504004003029218205
B0205503730851N12153687WA0050600503004003029216207
B0205513730847N12153691WA0050400502004003032216210
B0205523730843N12153695WA0050400501004003032213202
B0205533730839N12153698WA0050300501004003032212206
B0205543730835N12153701WA0050200500004003031215193
B0205553730831N12153705WA0050100498004003031220198
B0205563730828N12153709WA0050000497004003031222210
B0205573730824N12153713WA0049900496004003032222201
B0205583730821N12153717WA0049800495004003032221197
B0205593730817N12153721WA0049700494004003032219196
B0206003730813N12153724WA0049600493004003032217202
B0206013730809N12153728WA0049400492004003033215199
B0206023730805N12153732WA0049200492004003040215213
B0206033730800N12153737WA0049100490004003040217207
B0206043730795N12153742WA0049100490004003040219210
B0206053730791N12153746WA0049000489004003038219200
B0206063730787N12153750WA0048900488004003036216206
B0206073730782N12153754WA0048900487004003038215202
B0206083730778N12153759WA0048800486004003038219221
B0206093730774N12153763WA0048700485004003038223214
B0206103730770N12153768WA0048700485004003037222212
B0206113730766N12153772WA0048700485004003033218210
B0206123730763N12153775WA0048600484004003031217205
B0206133730759N12153779WA0048500483004003032219216
B0206143730755N12153783WA0048400482004003032219208
B0206153730751N12153787WA0048300480004003034217196
B0206163730747N12153791WA0048200479004003034211197
B0206173730742N12153793WA0048100478004003034205203
B0206183730737N12153796WA0048000477004003034203208
B0206193730733N12153799WA0047900476004003034206207
B0206203730728N12153802WA0047800475004003035209208
B0206213730723N12153805WA0047700474004003035208203
B0206223730719N12153808WA0047600473004003035206202
B0206233730714N12153811WA0047500472004003035205198
B0206243730709N12153814WA0047400471004003035207203
B0206253730705N12153817WA0047400470004003034208199
B0206263730701N12153820WA0047300470004003031209210
B0206273730697N12153823WA0047300469004003031208224
B0206283730693N12153826WA0047200468004003030208231
B0206293730689N12153829WA0047100467004003030211235
B0206303730685N12153832WA0047000466004003030215220
B0206313730681N12153835WA0046900465004003031217200
B0206323730677N12153839WA0046800463004003031211195
B0206333730673N12153841WA0046600462004003032201189
B0206343730668N12153843WA0046600461004003032195198
B0206353730664N12153845WA0046500460004003032195201
B0206363730659N12153846WA0046400459004003032197197
B0206373730655N12153848WA0046300458004003031196195
B0206383730650N12153850WA0046100457004003032194184
B0206393730645N12153851WA0046000455004003034190177
B0206403730640N12153852WA0045900454004003034184168
B0206413730635N12153851WA0045700453004003034177162
B0206423730630N12153851WA0045700452004003032171159
B0206433730626N12153850WA0045600451004003032167155
B0206443730621N12153848WA0045500450004003032164156
B0206453730616N12153846WA0045400448004003033164163
B0206463730611N12153845WA0045200447004003032166175
B0206473730607N12153844WA0045200446004003032170179
B0206483730602N12153843WA0045100445004003032174180
B0206493730597N12153843WA0045000444004003032176176
B0206503730593N12153842WA0044900444004003030177183
B0206513730588N12153842WA0044800443004003030175179
B0206523730584N12153841WA0044700443004003030174177
B0206533730579N12153841WA0044600441004003030172167
B0206543730575N12153840WA0044500440004003031170175
B0206553730570N12153839WA0044400440004003031169175
B0206563730566N12153838WA0044300439004003031168191
B0206573730561N12153837WA0044300438004003030171188
B0206583730557N12153836WA0044200437004003029173175
B0206593730553N12153835WA0044100436004003031171165
B0207003730548N12153834WA0043900434004003031168151
B0207013730544N12153833WA0043800433004003031165154
B0207023730539N12153831WA0043700432004003031161160
B0207033730535N12153829WA0043600431004003033160159
B0207043730530N12153827WA0043500430004003035163170
B0207053730524N12153825WA0043400429004003035168164
B0207063730519N12153824WA0043400429004003035169143
B0207073730515N12153823WA0043400429004003033162136
B0207083730511N12153820WA0043300427004003031151146
B0207093730507N12153817WA0043200426004003032148153
B0207103730502N12153814WA0043100425004003032150145
B0207113730498N12153811WA0042900423004003034153156
B0207123730493N12153808WA0042800422004003036154151
B0207133730488N12153805WA0042700421004003037155161
B0207143730483N12153802WA0042600420004003037157163
B0207153730477N12153800WA0042500419004003037160158
B0207163730472N12153798WA0042500419004003037159159
B0207173730467N12153795WA0042400418004003037157154
B0207183730462N12153792WA0042300417004003038157158
B0207193730456N12153789WA0042200416004003038157164
B0207203730451N12153786WA0042100415004003038156162
B0207213730446N12153783WA0042000414004003038154163
B0207223730441N12153780WA0042000413004003038154166
B0207233730436N12153777WA0041900412004003038157171
B0207243730430N12153775WA0041800411004003039160172
B0207253730424N12153773WA0041700410004003039162169
B0207263730419N12153770WA0041600409004003040162169
B0207273730413N12153768WA0041500408004003040164171
B0207283730407N12153766WA0041400408004003040165172
B0207293730401N12153765WA0041300407004003040166171
B0207303730395N12153763WA0041300406004003040166170
B0207313730390N12153761WA0041200405004003040167168
B0207323730384N12153760WA0041100404004003040167172
B0207333730378N12153758WA0041000403004003040167170
B0207343730372N12153756WA0040900402004003040167177
B0207353730366N12153755WA0040800402004003040168177
B0207363730360N12153754WA0040800401004003040169181
B0207373730355N12153752WA0040700400004003039169182
B0207383730349N12153751WA0040600400004003039173200
B0207393730343N12153751WA0040500398004003040180207
B0207403730337N12153752WA0040400397004003040187209
B0207413730331N12153753WA0040300396004003040189204
B0207423730325N12153754WA0040200395004003039188191
B0207433730319N12153755WA0040000393004003040187188
B0207443730313N12153756WA0039900392004003041187193
B0207453730307N12153757WA0039800391004003041187187
B0207463730301N12153758WA0039700390004003041186187
B0207473730295N12153759WA0039600389004003041184187
B0207483730289N12153759WA0039600388004003039183192
B0207493730283N12153760WA0039400387004003040183191
B0207503730277N12153760WA0039300386004003040183193
B0207513730271N12153761WA0039200385004003041184195
B0207523730265N12153762WA0039100384004003041186207
B0207533730259N12153763WA0039000383004003040189208
B0207543730253N12153764WA0038900382004003040192216
B0207553730247N12153766WA0038800380004003040194212
B0207563730241N12153768WA0038700380004003039194217
B0207573730236N12153770WA0038600379004003039193218
B0207583730230N12153771WA0038500377004003039193218
B0207593730224N12153773WA0038400376004003040195217
B0208003730218N12153776WA0038300375004003040197225
B0208013730213N12153778WA0038200374004003041199228
B0208023730207N12153781WA0038200374004003041203225
B0208033730202N12153785WA0038100373004003039209230
B0208043730197N12153788WA0038100373004003039212224
B0208053730192N12153792WA0038100373004003038212225
B0208063730188N12153796WA0038000372004003036213228
B0208073730183N12153800WA0037900371004003036214227
B0208083730179N12153804WA0037800370004003037215231
B0208093730174N12153808WA0037700369004003038216230
B0208103730170N12153812WA0037700368004003038217242
B0208113730165N12153817WA0037500367004003038219245
B0208123730161N12153822WA0037400366004003038221244
B0208133730157N12153827WA0037400366004003038224242
B0208143730153N12153832WA0037300365004003038227241
B0208153730149N12153837WA0037200364004003036228240
B0208163730146N12153842WA0037100363004003035227245
B0208173730142N12153847WA0037100362004003035228242
B0208183730139N12153852WA0036900360004003037232240
B0208193730135N12153858WA0036800359004003037236240
B0208203730133N12153864WA0036700358004003037238242
B0208213730130N12153869WA0036500357004003035237245
B0208223730127N12153875WA0036400355004003035235245
B0208233730124N12153880WA0036300354004003036235250
B0208243730121N12153886WA0036100352004003037236253
B0208253730118N12153892WA0036000351004003037236254
B0208263730114N12153898WA0035900350004003037235260
B0208273730111N12153904WA0035800349004003037237255
B0208283730109N12153909WA0035700348004003035240258
B0208293730106N12153915WA0035600347004003035242254
B0208303730104N12153921WA0035500345004003035241253
B0208313730101N12153927WA0035300344004003035240253
B0208323730098N12153933WA0035200343004003036240254
B0208333730096N12153939WA0035100341004003037240256
B0208343730093N12153945WA0035000340004003037239263
B0208353730090N12153951WA0034900340004003037238263
B0208363730087N12153957WA0034800339004003035239260
B0208373730085N12153962WA0034800339004003035244253
B0208383730083N12153968WA0034600337004003033248259
B0208393730081N12153974WA0034500337004003032252264
B0208403730080N12153979WA0034400336004003032255264
B0208413730079N12153985WA0034300335004003031257268
B0208423730078N12153991WA0034200333004003032258269
B0208433730078N12153997WA0034100332004003032259262
B0208443730077N12154003WA0033900331004003032257277
B0208453730076N12154009WA0033800330004003032257274
B0208463730075N12154015WA0033700328004003032261277
B0208473730075N12154021WA0033500326004003035267277
B0208483730075N12154028WA0033400325004003035271281
B0208493730075N12154034WA0033400325004003035275282
B0208503730076N12154040WA0033300324004003033280282
B0208513730077N12154045WA0033300324004003029284284
B0208523730078N12154050WA0033200322004003029286286
B0208533730079N12154056WA0033000321004003029286288
B0208543730081N12154061WA0032900319004003030289291
B0208553730083N12154067WA0032800318004003031293295
B0208563730085N12154072WA0032700317004003030292294
B0208573730086N12154077WA0032600317004003030291296
B0208583730088N12154082WA0032600316004003028292298
B0208593730089N12154087WA0032500315004003028291301
B0209003730091N12154092WA0032300313004003028289296
B0209013730092N12154097WA0032200311004003030289300
B0209023730094N12154102WA0032000310004003031290299
B0209033730095N12154108WA0031900309004003031289298
B0209043730097N12154114WA0031800308004003031286293
B0209053730098N12154119WA0031700307004003031284295
B0209063730099N12154125WA0031600306004003031285302
B0209073730100N12154130WA0031500305004003032287300
B0209083730102N12154136WA0031400304004003032286296
B0209093730103N12154142WA0031300303004003032284296
B0209103730104N12154148WA0031200302004003032284301
B0209113730105N12154153WA0031200302004003030285303
B0209123730107N12154159WA0031100301004003030284294
B0209133730107N12154164WA0031100301004003030279282
B0209143730108N12154170WA0031000300004003030275276
B0209153730108N12154176WA0031000299004003031273288
B0209163730108N12154181WA0030900299004003029270292
B0209173730108N12154186WA0030900299004003029270303
B0209183730109N12154191WA0030900298004003026279307
B0209193730110N12154194WA0030700297004003022297312
B0209203730112N12154197WA0030600296004003021313306
B0209213730115N12154200WA0030500295004003021324314
B0209223730117N12154202WA0030400293004003021327320
B0209233730120N12154204WA0030300293004003021324322
B0209243730123N12154207WA0030200292004003022323322
B0209253730126N12154209WA0030000290004003024324322
B0209263730129N12154212WA0029900289004003025322312
B0209273730132N12154215WA0029900289004003025317303
B0209283730134N12154218WA0029800288004003024313302
B0209293730137N12154221WA0029800288004003023312305
B0209303730139N12154224WA0029800287004003023313306
B0209313730141N12154227WA0029700286004003022315307
B0209323730143N12154230WA0029700286004003022314302
B0209333730146N12154233WA0029600285004003021312304
B0209343730148N12154236WA0029600285004003021310309
B0209353730150N12154239WA0029500285004003022308306
B0209363730152N12154243WA0029500284004003022306310
B0209373730154N12154246WA0029500284004003022308301
B0209383730156N12154249WA0029400283004003021308298
B0209393730158N12154252WA0029400283004003020307294
B0209403730159N12154255WA0029300282004003020304298
B0209413730161N12154258WA0029300282004003022302301
B0209423730163N12154262WA0029200281004003023300310
B0209433730164N12154266WA0029200281004003022297317
B0209443730166N12154269WA0029100280004003022298320
B0209453730167N12154272WA0029100280004003020302311
B0209463730169N12154275WA0029000279004003018307310
B0209473730171N12154278WA0028900277004003020310308
B0209483730173N12154281WA0028700275004003020313313
B0209493730176N12154284WA0028500274004003023315316
B0209503730178N12154287WA0028400273004003025318319
B0209513730181N12154290WA0028300272004003024319322
B0209523730184N12154293WA0028300272004003024321314
B0209533730186N12154295WA0028200271004003022325316
B0209543730189N12154297WA0028100270004003022329315
B0209553730192N12154300WA0028000269004003022330315
B0209563730195N12154302WA0027900267004003023328319
B0209573730198N12154304WA0027800266004003024326311
B0209583730201N12154307WA0027700265004003024327309
B0209593730204N12154309WA0027600265004003024330308
B0210003730207N12154311WA0027600264004003022332311
B0210013730209N12154312WA0027500263004003020334312
B0210023730212N12154314WA0027400262004003021336320
B0210033730215N12154315WA0027300261004003021336318
B0210043730218N12154317WA0027300260004003023334318
B0210053730221N12154319WA0027200259004003023333315
B0210063730224N12154321WA0027100258004003021331320
B0210073730227N12154323WA0027000257004003021331319
B0210083730229N12154324WA0026800256004003021335323
B0210093730232N12154326WA0026700255004003021337323
B0210103730235N12154327WA0026600254004003021339318
B0210113730238N12154329WA0026600253004003020343322
B0210123730241N12154329WA0026500252004003020346326
B0210133730244N12154330WA0026400251004003020345328
B0210143730247N12154331WA0026300250004003021344326
B0210153730250N12154333WA0026200250004003022343322
B0210163730254N12154334WA0026100249004003021341327
B0210173730257N12154335WA0026000249004003021339324
B0210183730259N12154336WA0025900248004003019338328
B0210193730262N12154338WA0025800246004003019339337
B0210203730265N12154339WA0025700245004003020343338
B0210213730268N12154340WA0025600244004003020346336
B0210223730270N12154341WA0025500242004003020344310
B0210233730273N12154342WA0025300241004003018335307
B0210243730275N12154344WA0025100240004003018322293
B0210253730278N12154347WA0025000238004003020312280
B0210263730280N12154350WA0024900237004003023297285
B0210273730281N12154354WA0024900237004003023285296
B0210283730281N12154358WA0024800236004003022285315
B0210293730282N12154361WA0024700235004003019304316
B0210303730285N12154364WA0024600233004003019321318
B0210313730288N12154366WA0024400232004003023331331
B0210323730291N12154367WA0024400231004003023342340
B0210333730294N12154368WA0024300231004003021002347
B0210343730297N12154366WA0024200229004003021023007
B0210353730300N12154363WA0024100228004003023038027
B0210363730303N12154359WA0024100228004003030055045
B0210373730305N12154354WA0024100229004003030068055
B0210383730306N12154349WA0024100229004003030073060
B0210393730307N12154343WA0024100228004003029075055
B0210403730308N12154338WA0024100228004003030077059
B0210413730309N12154332WA0024000228004003030079059
B0210423730310N12154327WA0023900227004003030079062
B0210433730311N12154322WA0023800225004003029073062
B0210443730312N12154317WA0023700224004003029069066
B0210453730314N12154311WA0023600223004003031070064
B0210463730315N12154305WA0023500223004003032075070
B0210473730316N12154300WA0023400222004003032082074
B0210483730316N12154293WA0023400221004003032089077
B0210493730316N12154287WA0023200220004003033094084
B0210503730315N12154280WA0023100219004003035098078
B0210513730314N12154274WA0023000218004003035101080
B0210523730313N12154268WA0022900217004003035101090
B0210533730312N12154261WA0022800216004003034100090
B0210543730311N12154255WA0022700214004003034102091
B0210553730310N12154249WA0022600213004003036100090
B0210563730309N12154242WA0022500211004003037091090
B0210573730310N12154235WA0022400210004003036082082
B0210583730311N12154229WA0022300209004003036077077
B0210593730312N12154223WA0022100208004003033076073
B0211003730313N12154217WA0022000206004003033075073
B0211013730315N12154211WA0021800206004003034069073
B0211023730317N12154205WA0021700204004003033059066
B0211033730320N12154200WA0021600204004003033049055
B0211043730323N12154197WA0021600204004003031043045
B0211053730326N12154193WA0021500203004003027043036
B0211063730329N12154190WA0021500202004003027047034
B0211073730331N12154185WA0021400201004003027052037
B0211083730334N12154181WA0021300201004003027052031
B0211093730337N12154178WA0021200199004003027045028
B0211103730340N12154175WA0021000197004003025033025
B0211113730343N12154172WA0020800197004003026021013
B0211123730347N12154171WA0020700195004003026012002
B0211133730351N12154171WA0020500193004003026358354
B0211143730354N12154172WA0020400192004003025343340
B0211153730357N12154174WA0020300191004003022334327
B0211163730360N12154176WA0020200190004003022330318
B0211173730362N12154177WA0020200189004003020333321
B0211183730365N12154179WA0020100188004003019338321
B0211193730368N12154180WA0020000187004003019342328
B0211203730370N12154181WA0019900186004003019345329
B0211213730373N12154182WA0019700184004003019353330
B0211223730376N12154182WA0019600183004003018359324
B0211233730378N12154182WA0019500182004003018352311
B0211243730381N12154183WA0019300180004003018330302
B0211253730383N12154186WA0019200178004003020311297
B0211263730384N12154189WA0019100177004003020300287
B0211273730386N12154192WA0019000176004003019295284
B0211283730387N12154195WA0018900175004003018289278
B0211293730387N12154198WA0018800174004003016280278
B0211303730387N12154201WA0018700172004003017272264
B0211313730387N12154205WA0018500170004003020265253
B0211323730387N12154209WA0018400170004003020257266
B0211333730386N12154213WA0018200168004003022252280
B0211343730385N12154217WA0018100167004003023249281
B0211353730384N12154221WA0018000167004003022245248
B0211363730382N12154224WA0017800165004003023235244
B0211373730379N12154228WA0017600162004003023226236
B0211383730376N12154232WA0017400161004003027227235
B0211393730373N12154236WA0017400161004003028235254
B0211403730372N12154240WA0017300161004003023246274
B0211413730371N12154244WA0017300160004003023265281
B0211423730372N12154247WA0017200159004003019287288
B0211433730374N12154250WA0017100157004003019308302
B0211443730377N12154253WA0016900155004003022327316
B0211453730380N12154254WA0016800154004003023345329
B0211463730383N12154255WA0016700153004003023353329
B0211473730386N12154255WA0016600153004003021354321
B0211483730386N12154256WA0016600153004003013354305
B0211493730385N12154256WA0016700153004003003354306
B0211503730384N12154256WA0016700152004003003354323
B0211513730384N12154257WA0016700152004003003354349
B0211523730384N12154257WA0016700152004003000354349
B0211533730384N12154257WA0016600152004003000354345
B0211543730384N12154257WA0016600152004003000354354
B0211553730384N12154257WA0016600152004003000354007
B0211563730384N12154257WA0016600151004003000354353
B0211573730384N12154257WA0016600151004003000354346
B0211583730384N12154257WA0016600151004003000354338
B0211593730384N12154257WA0016600151004003000354346
B0212003730384N12154257WA0016700151004003000354340
B0212013730384N12154257WA0016700151004003000354337
B0212023730384N12154257WA0016700151004003000354336
B0212033730384N12154257WA0016700151004003000354335
B0212043730384N12154257WA0016600151004003000354333
B0212053730384N12154257WA0016600151004003000354332
B0212063730384N12154257WA0016600151004003000354331
B0212073730384N12154257WA0015100151004003000354335
B0212083730384N12154257WA0015100151004003000354338
B0212093730384N12154257WA0015100151004003000354339
B0212103730384N12154257WA0015100151004003000354339
B0212113730384N12154257WA0015100151004003000354336
B0212123730384N12154257WA0015100151004003000354329
B0212133730384N12154257WA0015100151004003000354323
E021213PEVVario Device disconnected
B0212143730384N12154257WA0018100151004003000354326
B0212153730384N12154257WA0018100151004003000354343
B0212163730384N12154257WA0018100152004003000354352
B0212173730384N12154257WA0018100152004003000354348
B0212183730384N12154257WA0018100152004003000354348
B0212193730384N12154257WA0018100152004003000354348
B0212203730384N12154257WA0018100152004003000354348
B0212213730384N12154257WA0018100151004003000354003
GyMg3kaT62cu2JiLWNmWcXIyu4xV8xXtM1BUcEJbHodaLcj+hk8J54tX1lIAJUMLT
GW9s5gNGCcIlaxPO4UfPuaA8/qMDhC6+Y1Ez4sYWhiMPO2NqSrmLCsQ/f74zV8X9o
G0TOVS2qj0eOZNNwL8u9sNx9TwfZiH+jRjaacJgN0BXM=
