AXFH000
HFDTE180926
HFPLTPILOT:KaranS
HFGTYGLIDERTYPE:Niviuk Hiko P
HFDTM100GPSDATUM:WGS84
HFRFWFIRMWAREVERSION:9.7.2
HFRHWHARDWAREVERSION:iPhone 17 Pro
HFFTYFRTYPE:Flyskyhy,9.7.2
HFGPS:Internal
HFPRSVARIO:Internal Vario
HFCCLCOMPETITIONCLASS:Paraglider,EN-B
HFTZNTIMEZONE:-7
I053638FXA3941VXA4244GSP4547CCO4850HDT
C180926184508180926000106TASK
C0000000N00000000ETAKEOFF
C3646164N11906086W00000000000400000000360000STARTAREA DNLNCH
C3646886N11907285W00000000000400000000360000TURNAREA 49917
C3644816N11904600W00000000000400000000360000TURNAREA SONTAG
C3647347N11907139W00000000001000000000360000TURNAREA DELILA
C3644411N11907767W00000000001200000000360000TURNAREA TURKEY
C3646164N11906086W00000000000400000000360000TURNAREA DNLNCH
C3642989N11908259W00000000001200000000360000TURNAREA AIRSTR
C3644153N11906287W00000000000400000000360000FINISHAREA DNLPLZ
C0000000N00000000ELANDING
E184536PEVBackground
B1845363833328N12211335WA0014100141003003000000281
B1845373833328N12211335WA0014100141003003000000282
B1845383833328N12211335WA0014100141003003000000281
B1845393833328N12211335WA0014100141003003000000279
B1845403833328N12211335WA0014100141003003000000279
B1845413833328N12211335WA0014100141003003000000282
B1845423833328N12211335WA0014100141003003000000290
B1845433833328N12211335WA0014100141003003000000290
B1845443833328N12211335WA0014100141003003000000283
B1845453833328N12211335WA0014100141003003000000286
B1845463833328N12211335WA0014100141003003000000285
B1845473833328N12211335WA0014100141003003000000290
B1845483833328N12211335WA0014100141002003000000288
B1845493833328N12211335WA0014100141002003000000284
B1845503833328N12211335WA0014100141002003000000279
B1845513833328N12211335WA0014100141002003000000281
B1845523833328N12211335WA0014100141002003000000283
B1845533833328N12211335WA0014100141002003000000280
B1845543833328N12211335WA0014100141002003000000280
B1845553833328N12211335WA0014100141002003000000281
B1845563833328N12211335WA0014100141002003000000282
B1845573833328N12211335WA0014100141002003000000280
B1845583833328N12211335WA0014100141002003000000278
B1845593833328N12211335WA0014100141002003000000276
B1846003833328N12211335WA0014100140002003000000273
B1846013833328N12211335WA0014100140002003000000273
B1846023833328N12211335WA0014100140002003002263238
B1846033833328N12211335WA0014100140002003002287274
B1846043833328N12211337WA0014100140002003004249104
B1846053833327N12211340WA0014000139002003009260291
B1846063833327N12211345WA0014000138002003018267269
B1846073833327N12211351WA0014000141003003031267288
B1846083833327N12211358WA0014100143003003031271305
B1846093833327N12211365WA0014300146003003031254314
B1846103833327N12211372WA0014600150002003026258310
B1846113833326N12211378WA0015000152002003030262316
B1846123833326N12211386WA0015300153002003033264333
B1846133833325N12211394WA0015300158004003033264333
B1846143833325N12211402WA0015700161004003035260336
B1846153833324N12211408WA0016000162003003035259340
B1846163833324N12211414WA0016300162004003032263344
B1846173833323N12211421WA0016600167004003033260347
B1846183833322N12211428WA0016900171004003033260349
B1846193833321N12211435WA0017300174004003035262351
B1846203833320N12211443WA0017600176004003038267352
B1846213833320N12211451WA0018000181004003038265353
B1846223833320N12211458WA0018300185004003039267355
B1846233833320N12211465WA0018700188004003038266355
B1846243833320N12211472WA0019000191004003037261356
B1846253833319N12211478WA0019400195004003036252356
B1846263833316N12211484WA0019700197004003036242357
B1846273833313N12211490WA0019900200004003040244357
B1846283833310N12211497WA0020200201004003040245358
B1846293833307N12211504WA0020400203004003041246358
B1846303833305N12211511WA0020400205004003041244358
B1846313833302N12211517WA0020600208004003036232358
B1846323833298N12211522WA0020800210004003039225358
B1846333833293N12211527WA0021100212004003039220359
B1846343833287N12211531WA0021100213004003042214359
B1846353833282N12211536WA0021300215004003043210359
B1846363833276N12211539WA0021600216004003042204359
B1846373833270N12211543WA0021900218004003042201359
B1846383833264N12211546WA0021900219004003042199359
B1846393833258N12211549WA0022300221005004044194000
B1846403833252N12211550WA0022600222005004043192000
B1846413833246N12211552WA0023000224005004043190000
B1846423833240N12211553WA0023000226005004043189000
B1846433833233N12211554WA0023400227004004043187000
B1846443833226N12211554WA0023700229004004046186000
B1846453833219N12211555WA0024000232004004045185000
B1846463833213N12211555WA0024000236004004045184000
B1846473833206N12211556WA0024300239004004045185000
B1846483833200N12211557WA0024600242004004045186000
B1846493833194N12211558WA0024900245004003045187000
B1846503833187N12211560WA0024900248004003045188000
B1846513833181N12211561WA0025200251004003045186359
B1846523833174N12211561WA0025500254004003045186000
B1846533833168N12211562WA0025800258004003047186000
B1846543833161N12211563WA0025800260004003047187000
B1846553833154N12211564WA0026100263004003047186000
B1846563833147N12211564WA0026400266004003048185000
B1846573833140N12211565WA0026700269004003049185000
B1846583833132N12211566WA0026700271004003049184359
B1846593833125N12211567WA0027000273004003049184359
B1847003833118N12211568WA0027300276004003050187359
B1847013833111N12211569WA0027500278004003049188000
B1847023833104N12211571WA0027500279004003049187359
B1847033833097N12211572WA0027800282004003047187359
B1847043833091N12211574WA0028100284004003047190000
B1847053833084N12211576WA0028400286004003048193359
B1847063833077N12211578WA0028400289004003049193000
B1847073833069N12211580WA0028700292004003049193359
B1847083833062N12211582WA0029100295004003050196359
B1847093833055N12211586WA0029400298004003048201359
B1847103833049N12211589WA0029400300005003048204359
B1847113833042N12211593WA0029700303005003048206359
B1847123833036N12211598WA0030000305004003048208359
B1847133833031N12211602WA0030300307004003045207000
B1847143833025N12211606WA0030300308004003045199000
B1847153833019N12211607WA0030600309004003044192000
B1847163833013N12211608WA0030900310004004044190000
B1847173833005N12211610WA0031200312004004047192000
B1847183832998N12211611WA0031200315004004049193000
B1847193832991N12211612WA0031500317004004049188000
B1847203832985N12211613WA0031700318004004047180000
B1847213832978N12211613WA0032000320004003046179000
B1847223832971N12211613WA0032000321004004046179000
B1847233832964N12211612WA0032300323004004048179000
B1847243832957N12211611WA0032500325004003048179000
B1847253832950N12211610WA0032800328004003047179000
B1847263832943N12211610WA0032800330004003047180000
B1847273832936N12211610WA0033100332004003048181000
B1847283832929N12211610WA0033400334004003049182000
B1847293832922N12211610WA0033600337004003049183000
B1847303832915N12211611WA0033600339004003047184000
B1847313832908N12211612WA0033900342004003047185000
B1847323832901N12211613WA0034100343004003047188359
B1847333832894N12211614WA0034400347004003048189359
B1847343832887N12211616WA0034400348004003048191359
B1847353832880N12211618WA0034700351004003048192359
B1847363832873N12211620WA0034900354004003048194359
B1847373832867N12211623WA0035200357004003048196359
B1847383832860N12211626WA0035200359004003048199359
B1847393832853N12211629WA0035500362004003048198359
B1847403832847N12211632WA0035700364004003047195000
B1847413832841N12211633WA0036000366004003045191359
B1847423832834N12211635WA0036000368004003045189359
B1847433832827N12211636WA0036300369004003047189359
B1847443832820N12211637WA0036500371004003050190000
B1847453832813N12211639WA0036700373004003049191359
B1847463832806N12211641WA0036700375004003049193359
B1847473832799N12211643WA0037000378004003048193000
B1847483832792N12211645WA0037200379004003046190000
B1847493832786N12211646WA0037500381004003046189359
B1847503832779N12211647WA0037500383004003046190000
B1847513832772N12211649WA0037700385004003046189000
B1847523832765N12211650WA0037900388004003046188359
B1847533832758N12211651WA0038200389004003049189359
B1847543832751N12211653WA0038200391004003049192359
B1847553832744N12211655WA0038400393004003049191000
B1847563832737N12211656WA0038700396004003047188000
B1847573832731N12211657WA0038900398004003047188359
B1847583832724N12211658WA0038900400004003047190359
B1847593832717N12211660WA0039200402004003047190359
B1848003832710N12211661WA0039400403004003046190359
B1848013832704N12211663WA0039700405004003046191359
B1848023832697N12211665WA0039700407004003046192359
B1848033832690N12211667WA0039900409004003046194359
B1848043832684N12211669WA0040200411004003046196359
B1848053832677N12211671WA0040400413004003046197359
B1848063832671N12211674WA0040400415004003046196359
B1848073832665N12211676WA0040700417004003045193000
B1848083832658N12211678WA0040900418004003044187000
B1848093832652N12211678WA0041200420004003046183000
B1848103832644N12211678WA0041200421004003046183000
B1848113832637N12211678WA0041400423004003048184000
B1848123832630N12211678WA0041600425004003048183000
B1848133832623N12211678WA0041800427004003047183000
B1848143832616N12211679WA0041800428004003047183000
B1848153832609N12211679WA0042100430004003046182000
B1848163832602N12211679WA0042300432004003046181000
B1848173832595N12211679WA0042500434004003046182000
B1848183832588N12211679WA0042500435004003047182000
B1848193832581N12211680WA0042700436004003047181000
B1848203832574N12211679WA0042900437004003046180000
B1848213832567N12211679WA0043100438004003046181000
B1848223832560N12211680WA0043100438004003046182000
B1848233832553N12211680WA0043300440004003047182000
B1848243832546N12211680WA0043500441004003047181000
B1848253832540N12211680WA0043700443004003046181000
B1848263832533N12211680WA0043700445004003045180000
B1848273832526N12211680WA0043900446004003045181000
B1848283832520N12211680WA0044100448004003044182000
B1848293832513N12211681WA0044300450004003044184359
B1848303832507N12211682WA0044300451004003043188359
B1848313832500N12211683WA0044500454004003043189359
B1848323832494N12211685WA0044700456004003043192359
B1848333832488N12211687WA0044900457004003042194359
B1848343832481N12211689WA0044900458004003042193359
B1848353832475N12211690WA0045100461004003042191359
B1848363832469N12211692WA0045400463004003042190359
B1848373832463N12211693WA0045600465004003042190359
B1848383832456N12211695WA0045600467004003042190359
B1848393832450N12211696WA0045800469004003042190359
B1848403832444N12211698WA0046000470004003042191359
B1848413832437N12211699WA0046200472004003042191359
B1848423832431N12211701WA0046200474004003043192359
B1848433832425N12211703WA0046400475004003041197359
B1848443832419N12211706WA0046600477004003041204359
B1848453832414N12211710WA0046700479004003041208359
B1848463832408N12211715WA0046700481004003041209359
B1848473832403N12211719WA0046900483004003042208359
B1848483832397N12211723WA0047100484004003043207359
B1848493832391N12211726WA0047300486004003043208359
B1848503832386N12211730WA0047300487004003043209359
B1848513832381N12211735WA0047500489004003044212359
B1848523832375N12211740WA0047700491004003044213359
B1848533832370N12211744WA0047900492004003043214359
B1848543832365N12211749WA0047900494004003042214359
B1848553832360N12211754WA0048100495004003043216359
B1848563832355N12211759WA0048300497004003044218359
B1848573832350N12211765WA0048500498004003043220359
B1848583832345N12211770WA0048500500005003043223359
B1848593832341N12211776WA0048700501005003043225359
B1849003832336N12211782WA0048800502004003043227359
B1849013832332N12211789WA0049000504004003043229359
B1849023832328N12211795WA0049000505004003043231359
B1849033832325N12211802WA0049200507004003043233359
B1849043832321N12211809WA0049400509004003043234359
B1849053832318N12211816WA0049700511004003043235359
B1849063832314N12211823WA0049700512005003043237359
B1849073832311N12211830WA0049900514004003042239359
B1849083832309N12211837WA0050100515004003042242359
B1849093832306N12211844WA0050300516004003042244359
B1849103832304N12211852WA0050300518004003042248359
B1849113832302N12211859WA0050500519004003042250359
B1849123832300N12211867WA0050700521004003042251359
B1849133832298N12211874WA0051000523004003042253359
B1849143832297N12211882WA0051000525004003042255359
B1849153832296N12211890WA0051200527004003042256359
B1849163832294N12211898WA0051400529004003042257359
B1849173832293N12211906WA0051600529004003041257359
B1849183832292N12211913WA0051600530004003041258359
B1849193832291N12211921WA0051800533004003041258359
B1849203832290N12211929WA0052100535004003042258359
B1849213832289N12211937WA0052300536004003042258359
B1849223832287N12211945WA0052300538004003042258359
B1849233832286N12211953WA0052500540004003042258359
B1849243832285N12211961WA0052700541004003042258359
B1849253832284N12211969WA0052900543004003042258359
B1849263832283N12211977WA0052900544004004042258359
B1849273832282N12211984WA0053100545004004043259359
B1849283832281N12211993WA0053300547004004043259359
B1849293832280N12212001WA0053500548004004043258359
B1849303832278N12212009WA0053500549004004043258359
B1849313832277N12212016WA0053700550004004043261359
B1849323832277N12212024WA0053900550004004041265359
B1849333832276N12212032WA0054000552004004041268359
B1849343832277N12212040WA0054000554005004041272359
B1849353832277N12212047WA0054200555005004040275359
B1849363832278N12212054WA0054400557004004040277359
B1849373832279N12212062WA0054600559005003040279359
B1849383832281N12212069WA0054600562004003040280359
B1849393832282N12212076WA0054800563005003040284359
B1849403832284N12212084WA0055100566004003040286359
B1849413832286N12212091WA0055300567004003040286359
B1849423832288N12212098WA0055300569004003039286359
B1849433832290N12212105WA0055500571004003039288359
B1849443832292N12212112WA0055700573004003039289359
B1849453832294N12212118WA0055900575004003039290359
B1849463832296N12212125WA0055900576004003039292359
B1849473832299N12212131WA0056100578004003039293359
B1849483832301N12212138WA0056300580004003039293359
B1849493832304N12212145WA0056500581004003039295359
B1849503832307N12212151WA0056500582004003039296359
B1849513832310N12212157WA0056700583004003039300359
B1849523832313N12212164WA0056800584004004039302359
B1849533832317N12212169WA0057000587004003039305359
B1849543832320N12212175WA0057000587004004039308359
B1849553832325N12212180WA0057200589004003039313359
B1849563832329N12212186WA0057400590004003040315359
B1849573832334N12212191WA0057500591004003040317359
B1849583832338N12212195WA0057500592004003040320359
B1849593832344N12212199WA0057700595004003040326359
B1850003832349N12212203WA0057900596004003040327359
B1850013832354N12212207WA0058100598004003040329359
B1850023832359N12212210WA0058100599004003040332359
B1850033832365N12212213WA0058300601004003040333359
B1850043832370N12212216WA0058500602004003040335359
B1850053832376N12212218WA0058700603004003040337359
B1850063832382N12212220WA0058700604004003041339357
B1850073832388N12212222WA0058900606004003041342354
B1850083832394N12212223WA0059100606004004041347353
B1850093832399N12212224WA0059200608004004040351354
B1850103832405N12212225WA0059200608004004040359357
B1850113832411N12212224WA0059400610004004040005358
B1850123832418N12212221WA0059600611004004041013353
B1850133832424N12212217WA0059800611004004041015350
B1850143832430N12212215WA0059800613004004040012348
B1850153832436N12212213WA0060000614004004040011351
B1850163832442N12212212WA0060200615004004040011346
B1850173832448N12212210WA0060300616004004040010344
B1850183832454N12212209WA0060300618004003040010349
B1850193832460N12212208WA0060500620004003040010343
B1850203832465N12212207WA0060700621004003040009341
B1850213832471N12212206WA0060900622004003040006345
B1850223832477N12212205WA0060900624004003039006341
B1850233832483N12212204WA0061000626004003039004342
B1850243832489N12212204WA0061200627004003039003343
B1850253832494N12212203WA0061400628004003039003341
B1850263832500N12212203WA0061400630004003039002343
B1850273832506N12212203WA0061600631004003038002343
B1850283832512N12212202WA0061800633004003038002344
B1850293832517N12212202WA0062000634004003038003344
B1850303832523N12212202WA0062000636004003039003343
B1850313832529N12212201WA0062100637004003039003343
B1850323832535N12212201WA0062300639004003039003343
B1850333832541N12212200WA0062500641004003039003342
B1850343832547N12212200WA0062500642004003039002343
B1850353832553N12212200WA0062700644004003039002344
B1850363832559N12212199WA0062900645004003039003345
B1850373832564N12212199WA0063100647004003040004346
B1850383832571N12212198WA0063100648004003041005345
B1850393832577N12212197WA0063300650004003041005345
B1850403832583N12212197WA0063500652004003041005347
B1850413832589N12212196WA0063600652004003041006349
B1850423832595N12212195WA0063600654004003042008349
B1850433832602N12212193WA0063800655004003043009350
B1850443832608N12212192WA0064000657005003043010351
B1850453832614N12212190WA0064200659005003043010350
B1850463832621N12212188WA0064200660005003043011352
B1850473832627N12212187WA0064400661005003042011353
B1850483832633N12212185WA0064600662005003042012349
B1850493832639N12212183WA0064800664005003042011347
B1850503832645N12212182WA0064800665005003042008348
B1850513832651N12212181WA0065000667005003042006348
B1850533832658N12212180WA0065200668005003042006346
B1850543832664N12212179WA0065400670005003042005347
B1850553832670N12212179WA0065400672005003042004349
B1850563832677N12212178WA0065600673005003043005349
B1850573832683N12212177WA0065800675005003044005349
B1850583832689N12212176WA0066000676005003044006352
B1850593832696N12212175WA0066000677005003043007351
B1851003832702N12212174WA0066200679005003043009352
B1851013832708N12212173WA0066400680005003043010353
B1851023832715N12212171WA0066600682005003043010353
B1851033832721N12212169WA0066600684005003043010353
B1851043832728N12212168WA0066800685005003045011356
B1851053832734N12212166WA0067000687005003045012356
B1851063832741N12212164WA0067200688005003045012352
B1851073832748N12212162WA0067200690005003045011354
B1851083832754N12212160WA0067400692005003045011356
B1851093832761N12212159WA0067700694005003045013355
B1851103832767N12212156WA0067900697005003045013355
B1851113832774N12212154WA0067900698005003045014359
B1851123832780N12212152WA0068100699005003045016001
B1851133832787N12212149WA0068300700005003046018356
B1851143832793N12212146WA0068500702005003046018358
B1851153832800N12212144WA0068500704005003043015353
B1851163832806N12212142WA0068800705005003043013354
B1851173832812N12212140WA0069000707005003043013355
B1851183832818N12212138WA0069300708005003043012351
B1851193832825N12212137WA0069300710005003044011355
B1851203832831N12212135WA0069500712005003043012354
B1851213832837N12212133WA0069700714005003043011353
B1851223832844N12212131WA0069900715005003043011355
B1851233832851N12212130WA0069900717005003044010356
B1851243832858N12212128WA0070100719005003045010357
B1851253832865N12212126WA0070300721005003047012357
B1851263832872N12212124WA0070300724005003047013358
B1851273832878N12212122WA0070500727005003047014358
B1851283832885N12212120WA0070700729005003045015359
B1851293832891N12212117WA0071000731005003045016001
B1851303832898N12212114WA0071000733005003046018002
B1851313832904N12212112WA0071200733005003046019003
B1851323832910N12212109WA0071400734005003046019359
B1851333832916N12212106WA0071700737005003045017357
B1851343832923N12212104WA0071700739005003045015357
B1851353832929N12212102WA0071900741005003044014357
B1851363832936N12212100WA0072100742005003045013357
B1851373832942N12212098WA0072300742005003045013359
B1851383832949N12212095WA0072300744005003045015000
B1851393832956N12212093WA0072500745005003046016001
B1851403832963N12212090WA0072700746005003046017003
B1851413832970N12212087WA0072900748005003046018004
B1851423832976N12212085WA0072900749005003046019005
B1851433832983N12212081WA0073100751005003046021007
B1851443832989N12212078WA0073400753005003046022006
B1851453832995N12212074WA0073600754005003046021000
B1851463833002N12212071WA0073600756005003046019004
B1851473833008N12212068WA0073800757005003046019000
B1851483833014N12212066WA0074000759005003046018000
B1851493833021N12212063WA0074200760005003046018005
B1851503833034N12212056WA0074400764005003047019001
B1851513833040N12212054WA0074600765005003046019003
B1851523833047N12212051WA0074900767005003046019000
B1851533833053N12212048WA0074900769005003045018001
B1851543833059N12212045WA0075100770005003045017358
B1851553833066N12212043WA0075300772005003045016358
B1851563833072N12212040WA0075500773005003045015359
B1851573833079N12212038WA0075500775005003045014357
B1851583833086N12212036WA0075700776005003045015000
B1851593833092N12212034WA0075900778005003045015358
B1852003833099N12212031WA0076100779005003045015359
B1852013833105N12212029WA0076100781005003045015000
B1852023833111N12212027WA0076300783005003045015000
B1852033833118N12212024WA0076500785004003045015359
B1852043833125N12212022WA0076700786004003046015000
B1852053833132N12212019WA0076700787004003046016002
B1852063833139N12212017WA0076900788004003046017001
B1852073833145N12212014WA0077100790004003047018001
B1852083833152N12212011WA0077300792004003047019003
B1852093833158N12212008WA0077300795004003047020004
B1852103833165N12212005WA0077500796004003047020001
B1852113833171N12212002WA0077700797004003047019002
B1852123833178N12211999WA0077900798004003046019004
B1852133833185N12211996WA0077900800004003046020003
B1852143833191N12211993WA0078100801004003046019000
B1852153833197N12211990WA0078300803004003046018359
B1852163833203N12211987WA0078500805004003045018005
B1852173833210N12211985WA0078500807005003045020006
B1852183833216N12211981WA0078800809005003045020002
B1852193833222N12211978WA0079000810005003044020004
B1852203833228N12211975WA0079200812005003044020003
B1852213833235N12211972WA0079200814005003044019002
B1852223833241N12211970WA0079500816005003044019004
B1852233833247N12211967WA0079700817005003044020004
B1852243833253N12211964WA0079900820004003045020004
B1852253833259N12211960WA0079900821004003045020002
B1852263833266N12211957WA0080200823004003044019000
B1852273833272N12211955WA0080400824004003044017000
B1852283833278N12211952WA0080600826004003044018002
B1852293833285N12211950WA0080600827004003043017000
B1852303833291N12211947WA0080800829004003043017359
B1852313833297N12211945WA0081000831004003043016000
B1852323833303N12211943WA0081300833004003042015001
B1852333833309N12211940WA0081300835004003041016004
B1852343833315N12211938WA0081500836004003043017000
B1852353833321N12211935WA0081700838004003043015000
B1852363833327N12211933WA0082000840004003043016002
B1852373833333N12211931WA0082000843004003042017000
B1852383833338N12211928WA0082200845004003042018002
B1852393833344N12211926WA0082400846004003044019007
B1852403833351N12211923WA0082600847004003044021007
B1852413833356N12211920WA0082600851004003043022005
B1852423833362N12211917WA0082900852004003042022006
B1852433833367N12211914WA0083100854004003041021357
B1852443833373N12211911WA0083300856004003039017356
B1852453833378N12211909WA0083300857004003040013358
B1852463833384N12211908WA0083600859004003040011356
B1852473833390N12211906WA0083800860004003041011358
B1852483833397N12211905WA0084000861004003041011001
B1852493833403N12211903WA0084000862004003042013359
B1852503833409N12211901WA0084200865004003042016000
B1852513833415N12211898WA0084400867004003042017359
B1852523833420N12211896WA0084600870004003042019349
B1852533833424N12211894WA0084600873004003037018347
B1852543833427N12211893WA0084800872004003016011347
B1852553833429N12211893WA0085100871004003016006350
B1852563833431N12211893WA0085300870005003016013359
B1852573833435N12211892WA0085300870004003022015350
B1852593833440N12211890WA0085400868004003034016356
B1853003833445N12211888WA0085400868004003034015355
B1853013833448N12211886WA0085300868004003030020004
B1853023833451N12211885WA0085300867004003023023005
B1853033833454N12211883WA0085100866004003026023002
B1853043833458N12211881WA0084900864004003031023003
B1853053833463N12211878WA0084700863004003031025001
B1853063833467N12211875WA0084700862004003031028015
B1853073833471N12211873WA0084500861004003031032015
B1853083833474N12211869WA0084300860004003027038015
B1853093833477N12211866WA0084100859004003028041008
B1853103833480N12211862WA0084100858004003028038003
B1853113833484N12211859WA0083900856004003030032351
B1853123833488N12211856WA0083800855004003030027342
B1853133833492N12211854WA0083600854005003030027342
B1853143833496N12211851WA0083600853004003030026008
B1853153833499N12211849WA0083500851004003028025003
B1853163833503N12211847WA0083300850004003028026002
B1853173833507N12211844WA0083100847004003028030020
B1853183833510N12211841WA0083100846005003029030001
B1853193833514N12211839WA0083000844005003029028010
B1853203833518N12211836WA0082800843005003029027357
B1853213833522N12211833WA0082600842005003028028348
B1853223833525N12211830WA0082600841005003028029003
B1853233833529N12211828WA0082400839005003029026354
B1853243833533N12211826WA0082300838005003030024022
B1853253833537N12211823WA0082100836005003030027010
B1853263833542N12211820WA0082100835005003031033024
B1853273833546N12211816WA0081900833005003033032023
B1853283833551N12211813WA0081700831005003038029021
B1853293833556N12211810WA0081500830005003038027072
B1853303833557N12211808WA0081200824005003029052064
B1853313833559N12211805WA0080900824005003025067036
B1853323833560N12211799WA0080500823007003025062021
B1853333833562N12211794WA0080100823007004030062021
B1853343833563N12211786WA0080100823008004031078011
B1853353833564N12211782WA0079700822007005030070006
B1853363833565N12211777WA0079300821007005022071010
B1853373833567N12211772WA0079100821007005022057011
B1853383833569N12211769WA0078900820007005026051014
B1853393833572N12211764WA0078800820007006028051016
B1853403833575N12211760WA0078700819007006028045017
B1853413833579N12211756WA0078600818007006029043012
B1853423833583N12211753WA0078500818007005029041006
B1853433833586N12211750WA0078300817007005026038357
B1853443833590N12211748WA0078200814007005026029358
B1853453833593N12211746WA0078100813006005026022002
B1853463833597N12211745WA0078100812006005026015355
B1853473833601N12211744WA0078000810006005026013010
B1853483833606N12211743WA0077900807006005029012014
B1853493833611N12211743WA0077700805006005032009000
B1853503833616N12211741WA0077500805007005032009006
B1853513833621N12211740WA0077500803007005036007016
B1853523833627N12211740WA0077400800007005039011014
B1853533833634N12211739WA0077100797007005040015025
B1853543833640N12211736WA0076900794006005040014038
B1853553833644N12211734WA0076700793006005039023015
B1853563833646N12211733WA0076400792006006024033014
B1853573833649N12211730WA0076100793008007024032020
B1853583833654N12211727WA0075800792010008039029005
B1853593833660N12211722WA0075400791008009039029011
B1854003833665N12211718WA0075100793008010038030004
B1854013833669N12211715WA0074800789007011038029359
B1854023833674N12211712WA0074600785008012034027340
B1854033833678N12211708WA0074500783022013033024350
B1854043833683N12211706WA0074400783023014033024330
B1854053833687N12211703WA0074300786045015032020001
B1854063833691N12211700WA0074200787014014030019336
B1854073833695N12211699WA0074100787014013027019353
B1854083833700N12211698WA0074100788015013027015335
B1854093833704N12211696WA0074000787015013032012355
B1854103833709N12211695WA0073900786015013032006330
B1854113833715N12211694WA0073800785015013036001339
B1854123833721N12211695WA0073600782015013039359297
B1854133833727N12211695WA0073400777015013034359112
B1854143833732N12211695WA0073200776044013034359090
B1854153833737N12211695WA0072900776200014034359287
B1854163833741N12211694WA0072700773200015032359297
B1854173833741N12211685WA0071800768200017019359325
B1854183833741N12211687WA0071400759105017019359331
B1854193833738N12211690WA0071100751051017011359335
B1854203833717N12211694WA0070800730017016011202336
B1854213833710N12211695WA0070800727200017021202340
B1854223833704N12211696WA0070800726044017029189016
B1854233833698N12211696WA0070800725200019029189012
B1854243833692N12211696WA0070800724200020029189349
B1854253833688N12211691WA0070600722037021030189008
B1854263833679N12211706WA0070500744037020030189352
B1854273833671N12211715WA0070300755200020032189006
B1854283833666N12211715WA0070200755200021032189355
B1854293833661N12211715WA0070100753200022032189356
B1854303833655N12211716WA0070000748048023034189357
B1854313833648N12211717WA0069800742048022037176359
B1854323833640N12211715WA0069500735048022033176357
B1854333833634N12211716WA0069300735046022033173349
B1854343833628N12211722WA0069000732046022028173354
B1854353833632N12211729WA0068700735046023028173353
B1854363833638N12211739WA0068400733046023028317353
B1854373833643N12211746WA0068100732046023035311352
B1854383833646N12211756WA0067800730044022035311352
B1854393833649N12211763WA0067600726041021031311354
B1854403833652N12211770WA0067500720037020026306355
B1854413833655N12211778WA0067500718035020026297356
B1854423833657N12211785WA0067400719034019036292357
B1854433833660N12211797WA0067300718029018036285357
B1854443833660N12211803WA0067200718025017028283357
B1854453833659N12211809WA0067000718021016025280357
B1854463833658N12211813WA0066800717019016023262357
B1854473833657N12211817WA0066700714018016026246357
B1854483833652N12211823WA0066600711016016030224357
B1854493833646N12211828WA0066500710015015026219358
B1854503833642N12211831WA0066400707014014028202358
B1854513833638N12211833WA0066200706013014026199358
B1854523833633N12211834WA0066000705012015026195001
B1854533833629N12211834WA0065900704012014030186359
B1854543833625N12211835WA0065800705011014026182359
B1854553833621N12211835WA0065700702011013026182359
B1854563833617N12211834WA0065600699012013026186359
B1854573833613N12211834WA0065500697011013033185359
B1854583833607N12211834WA0065500694011013038183359
B1854593833602N12211834WA0065400695010013033182359
B1855003833598N12211834WA0065100693011013029180359
B1855013833596N12211833WA0065000689010012022190359
B1855023833592N12211833WA0064800687009012026198359
B1855043833587N12211834WA0064700686009012028196359
B1855053833580N12211834WA0064500684009011028185359
B1855063833576N12211834WA0064300680009011028182359
B1855073833571N12211834WA0064100679009011025188359
B1855083833567N12211835WA0063900674008011030200359
B1855093833563N12211837WA0063800675008012030196359
B1855103833559N12211839WA0063600676007012034191359
B1855113833555N12211840WA0063400670008012034193359
B1855123833550N12211842WA0063200666009011028194359
B1855133833546N12211843WA0063000664008012028212359
B1855143833542N12211845WA0062800661008012028217359
B1855153833538N12211849WA0062600664008012032207359
B1855163833534N12211852WA0062600664008012032214359
B1855173833533N12211853WA0062500660007010014228359
B1855183833532N12211855WA0062300655007010020237359
B1855193833530N12211859WA0062200653007009020223359
B1855203833525N12211863WA0062000650007009035218359
B1855213833520N12211868WA0061800650008009040217359
B1855223833516N12211872WA0061700650008010029211359
B1855233833513N12211875WA0061500651008010029210359
B1855243833509N12211876WA0061300644008008029206359
B1855253833504N12211878WA0061100641008007031200359
B1855263833501N12211877WA0060900630008006031202359
B1855273833498N12211877WA0060700625008005028203359
B1855283833495N12211879WA0060500621007004031211359
B1855293833491N12211882WA0060300618006004031214359
B1855303833487N12211886WA0060100619006004032211000
B1855313833483N12211888WA0060000618008005032211000
B1855323833481N12211887WA0059800618200007013211000
B1855333833478N12211885WA0059800617200008020211001
B1855343833477N12211884WA0059500617015009013211006
B1855353833477N12211883WA0059100611015009009211011
B1855363833474N12211880WA0058800599200008009211013
B1855373833477N12211878WA0058600598015008011211007
B1855383833475N12211876WA0058400595200009011211008
B1855393833473N12211875WA0058300595200009009211010
B1855403833472N12211875WA0058300594063010004211015
B1855413833472N12211874WA0058200591016010004211018
B1855423833477N12211874WA0058100590051011010042017
B1855433833478N12211872WA0057900588025011010059013
B1855443833480N12211871WA0057700588031011010042007
B1855453833482N12211870WA0057400589037011014042023
B1855463833485N12211870WA0057300586200012014042019
B1855473833487N12211867WA0057200588031012015042022
B1855483833494N12211864WA0057000589031012021042020
B1855493833498N12211862WA0056800592048012021041020
B1855503833502N12211859WA0056800590200012025041026
B1855513833506N12211855WA0056600588060012025042023
B1855523833509N12211854WA0056500587048013026036022
B1855533833511N12211851WA0056300586048013026036023
B1855543833514N12211848WA0056100583048013026036021
B1855553833517N12211846WA0055900580048013026041018
B1855563833520N12211843WA0055800579048013020041012
B1855573833520N12211842WA0055600576048013017041009
B1855583833521N12211839WA0055400573048013017041008
B1855593833523N12211836WA0055200570048014017041009
B1856003833524N12211834WA0055000565048013017044007
B1856013833525N12211834WA0054900561048014016047005
B1856023833527N12211832WA0054800560068014014047003
B1856033833529N12211830WA0054600558048015019047002
B1856043833531N12211829WA0054400563048015019047002
B1856053833534N12211824WA0054200557200016020047002
B1856063833538N12211818WA0054000558200017022047001
B1856073833540N12211815WA0054000558200018027047001
B1856093833561N12211789WA0053600576200020032047346
B1856103833565N12211784WA0053500579200022034047346
B1856113833569N12211780WA0053400579200025035047346
B1856133833613N12211752WA0052400633200034024047353
B1856143833613N12211752WA0052300634200038013047353
B1856153833612N12211754WA0052100635200042013047354
B1856163833617N12211756WA0052000632200047016047355
B1856173833622N12211758WA0051900630200051016047355
B1856183833616N12211755WA0051800632163056016047357
B1856193833617N12211751WA0051600634162060017047357
B1856203833617N12211751WA0051400634200065021047358
B1856213833615N12211753WA0051200634200070023047357
B1856223833612N12211756WA0051000632200075023047001
B1856233833609N12211758WA0051000614048046021174000
B1856243833607N12211754WA0050900600200047020174000
B1856253833602N12211751WA0050700592200048020174000
B1856273833575N12211764WA0049900372200042025174000
B1856283833568N12211758WA0049700242048036025113000
B1856293833568N12211753WA0049600241200036030113000
B1856303833566N12211741WA0049400232048036035113000
B1856313833564N12211731WA0049300226048037027113000
B1856323833564N12211725WA0049300226048038027113000
B1856333833563N12211719WA0049200224048039026113000
B1856343833562N12211712WA0049100220048040026113000
B1856353833560N12211705WA0048800185048040037113000
B1856363833560N12211696WA0048600182048040029089000
B1856373833558N12211693WA0048400160048036029102000
B1856383833557N12211689WA0048300137048034026108000
B1856393833555N12211683WA0048100119048034026108000
B1856403833554N12211675WA0048100108048033036102000
B1856413833552N12211668WA0047900095048033027103000
B1856423833551N12211661WA0047700084048033027103000
B1856433833550N12211658WA0047500068048032027106000
B1856443833549N12211654WA0047300053048031031103000
B1856453833548N12211648WA0047100044200032032103359
B1856463833546N12211646WA0046900028200031033103359
B1856473833544N12211640WA0046800013048031033103359
B1856483833542N12211635WA0046600011200031028103359
B1856493833540N12211629WA0046300007178032028103359
B1856503833533N12211621WA00460-0012177029024103359
B1856513833524N12211628WA0045800007066028025103359
B1856523833521N12211634WA0045600008048029029103359
B1856533833521N12211641WA0045500011066030029103359
B1856543833523N12211649WA0045400011066032029255359
B1856553833523N12211655WA0045200009054033026250359
B1856563833523N12211660WA0045100009028032026242359
B1856573833521N12211667WA0045100005029034033249359
B1856583833520N12211675WA0044900000051036033265359
B1856593833520N12211683WA00446-0009035037033270359
B1857003833522N12211688WA00444-0007034034030268359
B1857013833523N12211701WA00443-0037030032025264359
B1857023833523N12211707WA00441-0045027032038264359
B1857033833523N12211716WA00440-0058024031038276359
B1857043833523N12211724WA00438-0067024029039279359
B1857053833524N12211732WA00436-0071022028039274359
B1857063833525N12211736WA00435-0073022025026276359
B1857073833525N12211742WA00433-0077021024029276359
B1857083833525N12211747WA00431-0085019021029268359
B1857103833524N12211753WA00429-0091018019029260359
B1857113833521N12211758WA00428-0103017017031212359
B1857123833515N12211760WA00427-0114018016032195359
B1857133833509N12211759WA00425-0122017014032171000
B1857143833503N12211757WA00423-0133016013032172000
B1857153833498N12211756WA00422-0139015012031172000
B1857163833492N12211755WA00422-0145013011033171000
B1857173833485N12211753WA00421-0158012008036170000
B1857183833479N12211752WA00419-0162011006036171000
B1857193833473N12211750WA00418-0166010006036171000
B1857203833469N12211750WA00417-0167009005032168000
B1857213833466N12211748WA00416-0165008004017163000
B1857223833463N12211747WA00415-0163007004025170000
B1857233833458N12211745WA00414-0160007004025174000
B1857243833451N12211744WA00413-0161007004041174000
B1857253833444N12211743WA00411-0162006004041175359
B1857263833440N12211743WA00409-0161006004016169359
B1857273833438N12211743WA00407-0158006004016169359
B1857283833436N12211742WA00406-0155006004016171359
B1857293833431N12211742WA00404-0154006004023176359
B1857303833425N12211742WA00403-0158007004038192359
B1857313833417N12211745WA00401-0159009004027196359
B1857323833415N12211746WA00399-0156008005027183359
B1857333833414N12211746WA00399-0153007005012181359
B1857343833413N12211747WA00397-0147007004012182359
B1857353833408N12211748WA00395-0145007004019194359
B1857363833404N12211751WA00394-0150008005040212359
B1857373833399N12211757WA00392-0151008005040213359
B1857383833396N12211760WA00390-0149007005029202359
B1857393833395N12211761WA00388-0147007005012206359
B1857403833392N12211763WA00386-0145007005012210359
B1857413833389N12211766WA00384-0141011006023226359
B1857423833388N12211770WA00383-0133012006023229359
B1857433833386N12211773WA00381-0132013006023208359
B1857443833383N12211775WA00378-0131015007019199359
B1857453833377N12211776WA00376-0131016007019194359
B1857463833373N12211777WA00374-0127016007038216359
B1857473833370N12211781WA00372-0132018008041233359
B1857483833366N12211788WA00370-0134021008038232359
B1857493833363N12211794WA00368-0137026008035221359
B1857503833361N12211797WA00368-0136031009022223359
B1857513833356N12211801WA00366-0135031009021225359
B1857523833354N12211805WA00364-0130032010027261359
B1857533833354N12211812WA00362-0124035010027269359
B1857543833355N12211817WA00360-0132037010027239359
B1857553833355N12211821WA00358-0130033011025224359
B1857563833354N12211825WA00356-0134031010023214359
B1857573833352N12211825WA00354-0121027009032187000
B1857583833348N12211826WA00352-0116024008032170000
B1857593833343N12211824WA00351-0112021007036151000
B1858003833339N12211821WA00350-0110018007036129000
B1858013833337N12211816WA00349-0105016006032115000
B1858023833336N12211809WA00347-0102014005032106000
B1858033833334N12211803WA00345-0097012004032109000
B1858043833332N12211797WA00344-0095011004032118000
B1858053833329N12211792WA00343-0092009003034121000
B1858063833327N12211786WA00342-0091008003034120000
B1858073833325N12211780WA00342-0090008003035119000
B1858083833322N12211775WA00341-0089007003035120000
B1858093833320N12211769WA00340-0088007003035124000
B1858103833318N12211765WA00338-0087006003032127000
B1858113833316N12211762WA00337-0086006003023128000
B1858123833313N12211758WA00337-0083006003031125000
B1858133833306N12211745WA00335-0085006003038129000
B1858143833303N12211739WA00333-0083007003038128000
B1858153833300N12211736WA00331-0083008003015143000
B1858163833298N12211735WA00329-0080010004023135000
B1858173833295N12211731WA00328-0078010004023139000
B1858183833291N12211727WA00326-0080013004033148000
B1858193833285N12211722WA00325-0078013004036147000
B1858203833281N12211719WA00323-0077012004021144000
B1858213833279N12211717WA00321-0074012005021133000
B1858223833277N12211714WA00320-0073013005021150000
B1858233833272N12211712WA00320-0075013005030165000
B1858243833266N12211710WA00318-0080014006043168000
B1858253833259N12211709WA00316-0076016006031159000
B1858263833255N12211709WA00314-0075018006031157000
B1858273833253N12211709WA00313-0073019006017155000
B1858283833250N12211708WA00311-0072019006017163000
B1858293833245N12211707WA00309-0073020006032173000
B1858303833236N12211707WA00307-0075019006040174000
B1858313833231N12211709WA00306-0074019006040160000
B1858323833230N12211709WA00304-0071019006018158000
B1858333833228N12211708WA00302-0069017006018161000
B1858343833224N12211708WA00300-0067017006023166359
B1858353833217N12211706WA00298-0067016006040176000
B1858363833211N12211707WA00296-0061014006040162000
B1858373833206N12211706WA00294-0061013006027151000
B1858383833204N12211706WA00292-0058012006020161000
B1858393833201N12211705WA00290-0057013006020178359
B1858403833195N12211705WA00290-0058014006053185359
B1858413833187N12211706WA00288-0061014006053182000
B1858423833181N12211707WA00286-0060014006042189000
B1858433833178N12211708WA00284-0058014007034182000
B1858443833176N12211708WA00282-0055013007034176359
B1858453833171N12211709WA00280-0052012007044189359
B1858463833163N12211711WA00278-0052012007044204359
B1858473833158N12211716WA00276-0052012007043209359
B1858483833155N12211719WA00273-0048012007029210359
B1858493833155N12211719WA00271-0042012006013206359
B1858503833153N12211720WA00269-0040011006026211359
B1858513833150N12211723WA00267-0039014006053227359
B1858523833144N12211732WA00266-0037013007040244359
B1858533833142N12211739WA00263-0036013007040238359
B1858543833143N12211741WA00261-0032013006025238359
B1858553833142N12211744WA00259-0030013006020231359
B1858563833139N12211748WA00257-0029012006041234359
B1858573833135N12211756WA00257-0031013007041222000
B1858583833130N12211761WA00255-0026012007044203000
B1858593833125N12211764WA00253-0020013007044185000
B1859003833122N12211761WA00251-0008013007029185000
B1859013833121N12211757WA00248-0003014007029135000
B1859023833125N12211751WA00244-0008013007012036000
B1859033833127N12211749WA00241-0005013007010036000
B1859043833129N12211746WA00240-0003013007010087000
B1859053833129N12211741WA0023800001013006026069000
B1859063833132N12211735WA0023700001013006033060000
B1859073833135N12211728WA0023500000013006033061000
B1859083833139N12211719WA0023400001013006033073000
B1859093833139N12211714WA0023300004012006026082000
B1859103833140N12211707WA0023100007011005024085000
B1859113833141N12211701WA0022900009010005029085000
B1859123833143N12211694WA0022800013009005029086000
B1859133833143N12211687WA0022800018009004032090000
B1859153833143N12211680WA0022800021008004034093000
B1859163833143N12211674WA0022700024008003034092000
B1859173833143N12211668WA0022500027007003032090000
B1859183833144N12211662WA0022300030007003031090000
B1859193833143N12211655WA0022200032007003032093000
B1859203833144N12211649WA0022100033006003033094000
B1859213833143N12211643WA0022000035006003033096000
B1859223833143N12211636WA0021900036006003033096000
B1859233833142N12211630WA0021800037006003032096000
B1859243833142N12211624WA0021700039006003032098000
B1859253833141N12211618WA0021600040006003032101000
B1859263833140N12211612WA0021500041006003032102000
B1859273833138N12211606WA0021400043005003033103000
B1859283833137N12211600WA0021200045006003033104000
B1859293833136N12211593WA0021100046006003033103000
B1859303833135N12211587WA0021000048005003033103000
B1859313833133N12211581WA0020900049005003033103000
B1859323833132N12211575WA0020900051006003033101000
B1859333833131N12211569WA0020800052006003033099000
B1859343833130N12211563WA0020600053005003033100000
B1859353833129N12211557WA0020500054005003033104000
B1859363833128N12211551WA0020400055005003032109000
B1859373833126N12211545WA0020300056005003032110000
B1859383833125N12211540WA0020200057005003030108000
B1859393833123N12211535WA0020000058005003027104000
B1859403833123N12211529WA0019900060005003028099000
B1859413833122N12211524WA0019800060005003028090000
B1859423833123N12211518WA0019700063005003029079000
B1859433833124N12211513WA0019600064005003030070000
B1859443833126N12211508WA0019500066005003030064000
B1859453833128N12211503WA0019300067005003030062000
B1859463833130N12211497WA0019200069006003030063000
B1859473833132N12211492WA0019000071006003031063000
B1859483833134N12211486WA0018900071006003032060000
B1859493833137N12211481WA0018900072006003032058000
B1859503833139N12211476WA0018800074006003032056000
B1859513833142N12211471WA0018600075005003031055000
B1859523833145N12211467WA0018500077006003031055000
B1859533833147N12211461WA0018400079006003032057000
B1859543833150N12211456WA0018300079006003032057000
B1859553833152N12211451WA0018100080006003032058000
B1859563833155N12211446WA0018000081006003031057000
B1859573833158N12211441WA0017900083006003031058000
B1859583833160N12211436WA0017800083005003031059000
B1859593833162N12211431WA0017600085005003033062000
B1900003833165N12211425WA0017500086005003033064000
B1900013833166N12211420WA0017400086005003032068000
B1900023833168N12211414WA0017300088006003031071000
B1900033833169N12211408WA0017200088006003030074000
B1900043833170N12211402WA0017000089006003031080000
B1900053833171N12211397WA0016900091005003031080000
B1900063833172N12211391WA0016800092006003031073000
B1900073833176N12211381WA0016700094006003029046000
B1900083833180N12211374WA0016600093006003032037001
B1900093833184N12211370WA0016500092005003032033001
B1900103833188N12211366WA0016300092005003031030001
B1900113833193N12211363WA0016200092005003029028003
B1900123833196N12211362WA0016100092006003029022004
B1900133833201N12211361WA0016000092005004030016005
B1900143833205N12211360WA0015900091005004031011003
B1900153833210N12211359WA0015700091005004030008359
B1900163833214N12211358WA0015600092005004028005358
B1900173833217N12211358WA0015500092005004025002353
B1900183833221N12211358WA0015400094005005026357355
B1900193833226N12211356WA0015300097006005028355356
B1900203833230N12211356WA0015200099006005028351353
B1900213833235N12211357WA0015100101006005031351002
B1900223833240N12211358WA0015000103006005033353357
B1900233833244N12211360WA0015000108006005032356005
B1900243833248N12211361WA0014900110006005032357002
B1900253833253N12211362WA0014700118006005030359355
B1900263833256N12211362WA0014600123006004027001007
B1900273833260N12211362WA0014500126005004024003002
B1900283833264N12211362WA0014500128005004029001007
B1900293833269N12211363WA0014400131005004033359004
B1900303833274N12211363WA0014300131004003033358002
B1900313833278N12211363WA0014200132004003033000001
B1900323833282N12211363WA0014100132004003030004003
B1900333833286N12211363WA0014000132004003022008002
B1900343833289N12211362WA0013900132004003022010009
B1900353833291N12211362WA0013800132004003020008001
B1900363833293N12211361WA0013800132004003016012359
B1900373833294N12211361WA0013700132004003009030001
B1900383833294N12211361WA0013700132004003001030003
B1900393833294N12211361WA0013700133004003001030000
B1900403833294N12211361WA0013700133004003001044000
B1900413833294N12211361WA0013600133004003001044000
B1900423833294N12211361WA0013600133004003000044000
B1900433833294N12211361WA0013600133004003000044000
B1900443833294N12211361WA0013600133004003000044000
B1900453833294N12211360WA0013600133004003000044000
B1900463833294N12211360WA0013600133004003000044000
B1900473833294N12211360WA0013600133004003000044000
B1900483833294N12211360WA0013600133004003000044000
B1900493833294N12211360WA0013600132004003000044000
B1900503833294N12211360WA0013600132004003000044000
B1900513833294N12211360WA0013600132004003000044000
B1900523833294N12211360WA0013600132004003000044000
B1900533833294N12211360WA0013600132004003000044000
B1900543833294N12211360WA0013600132004003001044357
B1900553833294N12211360WA0013600132004003000044358
B1900563833294N12211360WA0013600132004003001044008
B1900573833294N12211360WA0013600132004003000044012
B1900583833294N12211360WA0013600132004003000044005
B1900593833294N12211360WA0013600132004003000044011
B1901003833294N12211360WA0013600132004003001044012
B1901013833294N12211360WA0013600132004003000044000
B1901023833294N12211359WA0013600132004003001044000
B1901033833295N12211359WA0013600132004003001044000
B1901043833295N12211358WA0013600132004003002044004
B1901053833295N12211358WA0013600132004003001044000
B1901063833295N12211358WA0013700132004003002044000
B1901073833295N12211358WA0013700132004003001044000
B1901083833295N12211358WA0013700132004003001044000
B1901093833295N12211358WA0013700132004003000044000
B1901103833295N12211358WA0013700132004003001044003
GZfo/Fh5rcLd+pppaZ0muFrzqpS29SvSbgK/gwihJaI7zaFJVNzcfTBCytTVmiJld
GGK+p3r40/+rfWqDXb97PUqsZtf/rHiVZEkPM+hRr669JCQGRvWCO8D5p5ENWn1PW
GqkY13UtPo4V6iL6O9ffpak50L4fd+rAbAOWnSRK3nFI=
