AXFH000
HFDTE120826
HFPLTPILOT:KaranS
HFGTYGLIDERTYPE:Niviuk Hiko P
HFDTM100GPSDATUM:WGS84
HFRFWFIRMWAREVERSION:9.7
HFRHWHARDWAREVERSION:iPhone 17 Pro
HFFTYFRTYPE:Flyskyhy,9.7
HFGPS:Internal
HFPRSVARIO:XC Tracer
HFCCLCOMPETITIONCLASS:Paraglider
HFTZNTIMEZONE:-7
HFSITSITE:Ed Levin,US
I053638FXA3941VXA4244GSP4547CCO4850HDT
C120826203823120826000109TASK
C0000000N00000000ETAKEOFF
C3645907N11905878W00010009999999000000360000STARTAREA DNLNCH
C3646886N11907285W00000000000400000000360000TURNAREA 49917
C3644816N11904600W00000000001000000000360000TURNAREA SONTAG
C3646886N11907285W00000000000400000000360000TURNAREA 49917
C3644411N11907767W00000000001500000000360000TURNAREA TURKEY
C3645907N11905878W00000000000400000000360000TURNAREA DNLNCH
C3643790N11908069W00000000001500000000360000TURNAREA GRNY
C3644227N11904779W00000000001000000000360000TURNAREA LASTCH
C3646886N11907285W00000000000400000000360000TURNAREA 49917
C3644153N11906286W00000000002000000000360000TURNAREA DNLPLZ
C3644153N11906286W00000000000400000000360000FINISHAREA DNLPLZ
C0000000N00000000ELANDING
B2038513728461N12151580WA0070300704001003001212043
B2038523728461N12151580WA0070300704002003000212059
B2038533728461N12151580WA0070300704002003000212044
B2038543728461N12151580WA0070300704002003000212062
B2038553728461N12151580WA0070300704002003000212069
B2038563728461N12151580WA0070300704002003000212069
B2038573728462N12151580WA0070400704002003001339307
B2038583728462N12151580WA0070400704002003002304219
B2038593728462N12151581WA0070400704002003004288270
B2039003728462N12151582WA0070300704003003004287224
B2039013728462N12151583WA0070200704003003004251249
B2039023728461N12151584WA0070200704003003006220261
B2039033728460N12151585WA0070300705003003008223254
B2039043728460N12151586WA0070500708002003007250284
B2039053728459N12151587WA0070900708002003007261274
B2039063728459N12151588WA0070900707003003006222266
B2039073728459N12151589WA0070800706002003006233268
B2039083728458N12151590WA0070700706003003007234278
B2039093728458N12151592WA0070700707003003007275254
B2039103728458N12151596WA0070900707003003009276236
B2039113728459N12151598WA0071100708003003009312250
B2039123728460N12151599WA0071100708003003009304244
B2039133728460N12151601WA0071100708002003009258260
B2039143728459N12151603WA0071000708002003009218265
B2039153728457N12151604WA0071000709002003011200227
B2039163728455N12151604WA0071000709002003012180255
B2039173728453N12151604WA0070900709002003011166261
B2039183728452N12151603WA0070800709002003011169266
B2039193728450N12151603WA0070500709003003011188261
B2039203728449N12151605WA0070300707003003011208267
B2039213728447N12151607WA0070100705002003011234274
B2039223728447N12151611WA0070000703002003014253284
B2039233728446N12151614WA0069900702002003014261275
B2039243728446N12151618WA0069700700002003014260254
B2039253728445N12151620WA0069600698001003014249254
B2039263728444N12151623WA0069500696001003014236254
B2039273728442N12151627WA0069300694001003017233262
B2039283728440N12151630WA0069200693001003017239266
B2039293728439N12151634WA0069200692001003017246261
B2039303728438N12151638WA0069100691001003018253279
B2039313728437N12151642WA0069000691002003018254275
B2039323728436N12151646WA0068900689004003024252270
B2039333728435N12151651WA0068700687004003025253273
B2039343728434N12151655WA0068700687004003025256269
B2039353728433N12151659WA0068600687004003025258266
B2039363728432N12151663WA0068600686004003022260274
B2039373728432N12151666WA0068600686004003018261272
B2039383728432N12151670WA0068500685004003022264276
B2039393728431N12151674WA0068600686004003020271269
B2039403728432N12151677WA0068800688004003020277256
B2039413728432N12151678WA0068900689004003012257261
B2039423728431N12151681WA0068900688004003015245267
B2039433728430N12151685WA0068900688004003025251282
B2039443728429N12151690WA0068900688004003025260282
B2039453728429N12151694WA0069000689004003025273283
B2039463728429N12151697WA0069000689004003020286281
B2039473728430N12151699WA0069000689004003016288278
B2039483728431N12151703WA0068900688004003018282285
B2039493728431N12151706WA0068800687004003018275291
B2039503728432N12151710WA0068800686004003019274276
B2039513728432N12151713WA0068700686004003019275277
B2039523728432N12151717WA0068700686004003017273278
B2039533728432N12151720WA0068700686004003018265279
B2039543728432N12151723WA0068600685004003018257281
B2039553728430N12151727WA0068600685004003020247278
B2039563728429N12151730WA0068700686004003020231262
B2039573728427N12151732WA0068800687004003015209248
B2039583728425N12151732WA0068800687004003015187220
B2039593728422N12151733WA0068800687004003015180231
B2040003728419N12151732WA0068800686004003018173206
B2040013728415N12151732WA0068800686004003022172202
B2040023728412N12151732WA0068800687004003022181198
B2040033728409N12151732WA0068800688004003024193209
B2040043728405N12151734WA0068900689004003024194210
B2040053728401N12151735WA0069100691004003027189213
B2040063728397N12151735WA0069300694004003024185210
B2040073728394N12151736WA0069500696004003024185213
B2040083728391N12151736WA0069800698004003022180209
B2040093728388N12151735WA0070000700004003021168200
B2040103728384N12151734WA0070100701004003022158194
B2040113728381N12151732WA0070200702004003024151183
B2040123728378N12151729WA0070200702004003024149177
B2040133728375N12151727WA0070200702004003025149171
B2040143728371N12151724WA0070300703004003025151171
B2040153728368N12151722WA0070400704004003025153171
B2040163728365N12151720WA0070500706004003024153173
B2040173728362N12151719WA0070600706004003022159174
B2040183728359N12151718WA0070600706004003020180180
B2040193728356N12151719WA0070500704004003022195199
B2040203728353N12151721WA0070400703004003022216210
B2040213728351N12151725WA0070300702004003022239227
B2040223728351N12151728WA0070100701004003019270245
B2040233728352N12151732WA0070000699004003022297268
B2040243728354N12151736WA0069700696004003022310289
B2040253728357N12151740WA0069600697004003026322300
B2040263728361N12151743WA0069400695004003032328315
B2040273728366N12151745WA0069300695004003032332320
B2040283728370N12151749WA0069300695004003032328328
B2040293728374N12151753WA0069400695004003034319334
B2040303728377N12151757WA0069500695004003029314325
B2040313728380N12151760WA0069600696004003029318317
B2040323728384N12151763WA0069700697004003027329312
B2040333728387N12151766WA0069700697004003026328304
B2040343728390N12151769WA0069700696004003025311306
B2040353728392N12151774WA0069600695004003029296302
B2040363728394N12151779WA0069500693004003029297300
B2040373728396N12151784WA0069300692004003031301305
B2040383728399N12151788WA0069200692004003028303291
B2040393728401N12151792WA0069100691004003028304298
B2040403728403N12151796WA0069000690004003023302289
B2040413728404N12151799WA0068800687004003019297297
B2040423728405N12151802WA0068500684004003019291290
B2040433728406N12151805WA0068200681004003021287284
B2040443728407N12151809WA0068000679004003021281265
B2040453728406N12151814WA0067800677004003021263245
B2040463728405N12151817WA0067600676004003021240242
B2040473728403N12151820WA0067500674004003021223247
B2040483728400N12151822WA0067300672004003021213260
B2040493728397N12151824WA0067100669004003021210247
B2040503728395N12151826WA0066800667004003023213250
B2040513728392N12151829WA0066600665004003024217240
B2040523728389N12151832WA0066500664004003024217240
B2040533728386N12151835WA0066400663004003024218237
B2040543728384N12151837WA0066400663004003020227240
B2040553728382N12151840WA0066300662004003020250248
B2040563728383N12151844WA0066200660004003019277261
B2040573728384N12151848WA0066000658004003019292276
B2040583728385N12151852WA0065800658004003026299286
B2040593728387N12151856WA0065700657004003026301297
B2041003728389N12151860WA0065700657004003026300298
B2041013728391N12151864WA0065700656004003024307296
B2041023728393N12151866WA0065500654004003016321293
B2041033728395N12151867WA0065200652004003017320292
B2041043728397N12151870WA0064900651004003017307288
B2041053728398N12151874WA0064600647004003019289289
B2041063728399N12151879WA0064400647004003027284273
B2041073728400N12151885WA0064200646004003027281294
B2041083728401N12151889WA0064200645004003024279292
B2041093728401N12151893WA0064200644004003023280311
B2041103728402N12151897WA0064200644004003024289311
B2041113728404N12151901WA0064300645004003024297296
B2041123728406N12151905WA0064500646004003024301297
B2041133728407N12151909WA0064600647004003023296295
B2041143728408N12151913WA0064700648004003022292282
B2041153728410N12151917WA0064800649004003023292297
B2041163728411N12151921WA0064800648004003023288276
B2041173728412N12151925WA0064700647004003024279274
B2041183728412N12151930WA0064600645004003026270273
B2041193728411N12151935WA0064500644004003028264277
B2041203728411N12151940WA0064300643004003027262265
B2041213728410N12151945WA0064300642004003027252223
B2041223728408N12151947WA0064100641004003018224213
B2041233728406N12151950WA0063900640004003023190216
B2041243728402N12151949WA0063700637004003023171212
B2041253728396N12151947WA0063600637004003030162198
B2041263728393N12151945WA0063600638004003026157202
B2041273728390N12151943WA0063600637004003026151177
B2041283728388N12151941WA0063400635004003019144186
B2041293728386N12151939WA0063200632004003018139174
B2041303728383N12151936WA0062900628004003026144178
B2041313728379N12151934WA0062600624004003032152187
B2041323728375N12151931WA0062300624004003030161174
B2041333728371N12151929WA0062300624004003030163181
B2041343728368N12151928WA0062300624004003020160204
B2041353728365N12151927WA0062300623004003020158191
B2041363728363N12151926WA0062100622004003019168198
B2041373728360N12151926WA0062000620004003018177212
B2041383728357N12151926WA0061800617004003019177210
B2041393728354N12151926WA0061600615004003019182213
B2041403728351N12151927WA0061400613004003019198208
B2041413728348N12151929WA0061200611004003021207215
B2041423728346N12151931WA0061100610004003021207231
B2041433728343N12151933WA0061000608004003021200212
B2041443728340N12151933WA0060900607004003020197222
B2041453728338N12151935WA0060800605004003017210219
B2041463728336N12151937WA0060700604004003020220225
B2041473728333N12151940WA0060500603004003024223236
B2041483728331N12151943WA0060400602004003022220229
B2041493728328N12151946WA0060300601004003022219247
B2041503728326N12151948WA0060100599004003017227236
B2041513728325N12151951WA0059900596004003018235246
B2041523728323N12151954WA0059700594004003018239245
B2041533728321N12151958WA0059500591004003021239244
B2041543728320N12151962WA0059200589004003026243241
B2041553728318N12151966WA0059000587004003027246258
B2041563728317N12151971WA0058900585004003026247249
B2041573728315N12151975WA0058700583004003026240236
B2041583728313N12151979WA0058600582004003023228241
B2041593728310N12151981WA0058500581004003023219251
B2042003728308N12151984WA0058400580004003022218248
B2042013728306N12151986WA0058200577004003021223247
B2042023728303N12151989WA0057900574004003024226244
B2042033728300N12151993WA0057600571004003029227231
B2042043728298N12151998WA0057300568004003028231205
B2042053728295N12152002WA0057100568004003028232235
B2042063728293N12152005WA0056900565004003025226229
B2042073728290N12152008WA0056600562004003025218223
B2042083728287N12152011WA0056300562004003028209241
B2042093728283N12152013WA0056200562004003028205238
B2042103728279N12152015WA0056200561004003028201212
B2042113728276N12152016WA0056200561004003022194204
B2042123728273N12152016WA0056200560004003022184200
B2042133728269N12152017WA0056100559004003022184226
B2042143728266N12152017WA0056000557004003022188220
B2042153728262N12152018WA0055900556004003025193238
B2042163728258N12152019WA0055800556005003025202239
B2042173728256N12152021WA0055800555004003024213225
B2042183728254N12152024WA0055800555004003021231250
B2042193728252N12152027WA0055800555004003018244235
B2042203728252N12152030WA0055800555004003018248245
B2042213728250N12152033WA0055800554004003018237229
B2042223728248N12152036WA0055600552004003018219217
B2042233728245N12152038WA0055400549004003026202204
B2042243728241N12152039WA0055200547004003031188193
B2042253728235N12152039WA0055100545004003031176183
B2042263728230N12152038WA0054900544004003035168171
B2042273728224N12152036WA0055000545004003037162152
B2042283728219N12152033WA0055000546004003037157152
B2042293728215N12152031WA0055100546004003033149171
B2042303728212N12152027WA0055200546004003030141155
B2042313728209N12152024WA0055100546004003026141166
B2042323728206N12152022WA0055100545004003026146171
B2042333728203N12152019WA0055000544004003026154182
B2042343728198N12152017WA0054900543004003027160186
B2042353728194N12152016WA0054800542004003032163176
B2042363728189N12152014WA0054700542004003032159169
B2042373728185N12152011WA0054600541004003032150155
B2042383728181N12152007WA0054600540004003032141144
B2042393728178N12152003WA0054500539004003032137151
B2042403728174N12151999WA0054400538004003032136148
B2042413728171N12151995WA0054300537004003032136154
B2042423728167N12151991WA0054100535004003032134150
B2042433728164N12151986WA0054000535004003030131158
B2042443728162N12151982WA0053900533005003030127142
B2042453728159N12151978WA0053800532004003029125155
B2042463728157N12151973WA0053700531004003029127140
B2042473728154N12151969WA0053600530004003031128142
B2042483728151N12151964WA0053600530004003032130162
B2042493728148N12151960WA0053500530004003031129144
B2042503728145N12151955WA0053500529004003030126152
B2042513728142N12151951WA0053400529005003031127140
B2042523728139N12151946WA0053400528004003031127135
B2042533728137N12151941WA0053400528004003031123126
B2042543728135N12151937WA0053300528005003030119111
B2042553728133N12151932WA0053300527004003026117119
B2042563728131N12151928WA0053100526004003026112114
B2042573728130N12151924WA0052900523004003026106121
B2042583728129N12151918WA0052600521004003026107120
B2042593728127N12151913WA0052500519004003031110120
B2043003728125N12151907WA0052300517004003033113122
B2043013728123N12151901WA0052100515004003033115119
B2043023728121N12151896WA0052000513004003034117129
B2043033728118N12151890WA0051800512004003033117128
B2043043728116N12151885WA0051800511004003033116122
B2043053728114N12151879WA0051700511004003033112123
B2043063728113N12151873WA0051600510004003033107120
B2043073728111N12151867WA0051600509004003032106130
B2043083728110N12151861WA0051600509004003032108152
B2043093728109N12151857WA0051500508004003030110135
B2043103728107N12151852WA0051400506004003027113125
B2043113728105N12151847WA0051200504004003028115134
B2043123728103N12151842WA0050900501004003031117148
B2043133728101N12151837WA0050700499004003031123166
B2043143728098N12151832WA0050600499004003031135167
B2043153728095N12151829WA0050600499004003028141165
B2043163728091N12151826WA0050600499004003028149170
B2043173728088N12151824WA0050500498004003026153174
B2043183728084N12151822WA0050400497004003026157182
B2043193728080N12151821WA0050300495004003027162184
B2043203728076N12151819WA0050200495004003027172189
B2043213728072N12151819WA0050100494004003026180205
B2043223728069N12151820WA0049900492004003023187207
B2043233728066N12151821WA0049800489004003024193201
B2043243728062N12151822WA0049500487004003025195203
B2043253728059N12151824WA0049400486004003024196214
B2043263728055N12151825WA0049300485004003024198210
B2043273728053N12151826WA0049300484004003018202207
B2043283728051N12151828WA0049100483004003018203203
B2043293728048N12151829WA0049000481004003018204209
B2043303728045N12151831WA0048700478004003018207212
B2043313728042N12151833WA0048500476004003023210212
B2043323728039N12151835WA0048400474004003023209201
B2043333728036N12151837WA0048300474004003022205199
B2043343728034N12151838WA0048300473004003022202204
B2043353728031N12151840WA0048300473004003019201218
B2043363728028N12151841WA0048200473004003019203225
B2043373728026N12151843WA0048200473004003019207227
B2043383728023N12151845WA0048300473004003021204233
B2043393728020N12151846WA0048300474004003018198220
B2043403728018N12151847WA0048400475004003018194212
B2043413728016N12151847WA0048400475005003015191219
B2043423728014N12151848WA0048400474004003012198209
B2043433728013N12151849WA0048300473004003014205198
B2043443728010N12151850WA0048100471004003019207217
B2043453728007N12151852WA0048000470004003019205218
B2043463728003N12151854WA0048000470004003024201211
B2043473728000N12151856WA0048100471004003026204210
B2043483727996N12151858WA0048200473004003027211227
B2043493727993N12151861WA0048400476004003026216253
B2043503727991N12151863WA0048700479004003024214251
B2043513727989N12151865WA0049000481004003018218241
B2043523727987N12151868WA0049100482004003020229246
B2043533727985N12151871WA0049300483004003020247255
B2043543727984N12151875WA0049500483004003020250225
B2043553727983N12151877WA0049600486004003016228218
B2043563727980N12151879WA0049800487004003021194203
B2043573727976N12151878WA0049900488004003021173182
B2043583727972N12151877WA0050000489004003029151171
B2043593727968N12151872WA0050200491004003036134142
B2044003727964N12151867WA0050300491004003036106128
B2044013727964N12151860WA0050300490004003036085100
B2044023727966N12151852WA0050200489004003038072078
B2044033727970N12151845WA0050200490004003040050060
B2044043727975N12151842WA0050200491004003040021037
B2044053727980N12151842WA0050400493004003038353005
B2044063727984N12151845WA0050700496004003033320336
B2044073727986N12151848WA0050900497004003019301305
B2044083727988N12151851WA0051200497004003019291280
B2044093727988N12151853WA0051400499004003013307280
B2044103727989N12151855WA0051600500004003013321294
B2044113727992N12151856WA0051800503004003019327292
B2044123727994N12151859WA0051900505004003022321283
B2044133727996N12151861WA0052100507004003020321282
B2044143727998N12151863WA0052300508004003020321265
B2044153728000N12151865WA0052300509004003015313284
B2044163728001N12151867WA0052300509004003014306268
B2044173728002N12151869WA0052200508004003017295270
B2044183728003N12151873WA0052100508004003017290272
B2044193728004N12151877WA0052000507004003021289274
B2044203728005N12151881WA0052000508004003025292270
B2044213728007N12151886WA0052100509004003026290275
B2044223728008N12151890WA0052200509004003026286275
B2044233728009N12151895WA0052300511004003027283266
B2044243728010N12151900WA0052400512004003023284264
B2044253728010N12151903WA0052600514004003023284275
B2044263728011N12151906WA0052600514004003017281255
B2044273728011N12151908WA0052500514004003012281265
B2044283728011N12151910WA0052200512004003013274270
B2044293728011N12151913WA0051800509004003021271255
B2044303728011N12151918WA0051500509004003021269249
B2044313728011N12151924WA0051400509004003027264219
B2044323728011N12151929WA0051600510004003017251218
B2044333728010N12151931WA0051600509004003017245238
B2044343728009N12151932WA0051600509004003012259261
B2044353728009N12151934WA0051400507004003011280272
B2044363728010N12151937WA0051200503004003016292273
B2044373728011N12151940WA0050900501004003021300267
B2044383728013N12151944WA0050700499004003021294243
B2044393728013N12151947WA0050600497004003021270248
B2044403728012N12151951WA0050500495004003021231237
B2044413728008N12151953WA0050500496004003026212226
B2044423728005N12151956WA0050600496004003026211239
B2044433728002N12151958WA0050800499004003026210229
B2044443728000N12151960WA0051000501004003018207231
B2044453727998N12151961WA0051200502004003018208229
B2044463727996N12151963WA0051200502004003015219241
B2044473727995N12151964WA0051100500004003013237249
B2044483727994N12151966WA0050900498004003013252236
B2044493727994N12151969WA0050700496004003016255235
B2044503727993N12151972WA0050500496004003016243233
B2044513727991N12151976WA0050400496004003020221222
B2044523727988N12151977WA0050500497004003020196202
B2044533727985N12151977WA0050500498004003020174206
B2044543727983N12151976WA0050600498004003016167216
B2044553727981N12151976WA0050500497004003014171216
B2044563727979N12151976WA0050500496004003012183207
B2044573727977N12151976WA0050300494004003012194214
B2044583727976N12151977WA0050100492004003011202218
B2044593727974N12151978WA0049900489004003011206225
B2045003727972N12151979WA0049600486004003013213231
B2045013727971N12151981WA0049400484004003015224237
B2045023727969N12151983WA0049200482004003015227232
B2045033727968N12151985WA0049000480004003015228231
B2045043727966N12151987WA0048700478004003015227224
B2045053727965N12151989WA0048500478004003015228221
B2045063727963N12151991WA0048300475004003015230217
B2045073727962N12151993WA0048000472004003015225216
B2045083727960N12151995WA0047800469004003018213211
B2045093727957N12151997WA0047600466004003021208208
B2045103727954N12151999WA0047300466004003021205204
B2045113727951N12152001WA0047100464004003021202195
B2045123727948N12152002WA0047000463005003021190165
B2045133727944N12152002WA0046800462004003023169162
B2045143727941N12152000WA0046600459004003023148148
B2045153727938N12151996WA0046500457004003026134152
B2045163727935N12151992WA0046300455004003029131160
B2045173727932N12151988WA0046100454004003029134168
B2045183727929N12151984WA0046000452004003027134161
B2045193727927N12151980WA0045800450004003027132163
B2045203727924N12151977WA0045600448004003026130161
B2045213727921N12151973WA0045300445004003028133162
B2045223727918N12151969WA0045100442004003028139171
B2045233727915N12151966WA0044800439004003029144164
B2045243727911N12151963WA0044600438004003028146169
B2045253727908N12151960WA0044500437004003028144171
B2045263727905N12151957WA0044400435004003025142170
B2045273727902N12151955WA0044100432004003023143170
B2045283727899N12151952WA0043900429004003024146171
B2045293727897N12151950WA0043600425004003024146187
B2045303727894N12151947WA0043300422004003024146195
B2045313727890N12151945WA0043000420004003024153197
B2045323727887N12151943WA0042800417004003025161183
B2045333727883N12151942WA0042600415004003026161181
B2045343727879N12151940WA0042400413004003026158184
B2045353727875N12151938WA0042200411004003026158189
B2045363727872N12151937WA0042100409004003024160188
B2045373727869N12151935WA0041900409004003024160182
B2045383727865N12151934WA0041700406004003024159165
B2045393727861N12151932WA0041400403004003026159164
B2045403727857N12151930WA0041200400004003030157166
B2045413727852N12151928WA0040900398004003033157159
B2045423727848N12151925WA0040700396004003033156165
B2045433727843N12151922WA0040600395004003033154162
B2045443727839N12151920WA0040500394004003034153172
B2045453727834N12151916WA0040600394004003037153150
B2045463727829N12151913WA0040700394004003036158194
B2045473727824N12151912WA0040800396004003036164213
B2045483727820N12151911WA0041000398004003024171218
B2045493727817N12151910WA0041100397004003024176214
B2045503727814N12151911WA0041100397004003020186198
B2045513727811N12151912WA0041100396004003020198210
B2045523727808N12151914WA0041000395004003024213214
B2045533727805N12151917WA0040900394004003027221209
B2045543727803N12151921WA0040900394004003026224204
B2045553727800N12151924WA0040900394004003026216231
B2045563727798N12151925WA0040900395004003017207218
B2045573727796N12151926WA0041000395004003018206236
B2045583727793N12151928WA0041000395004003018207221
B2045593727789N12151930WA0040900394004003021208232
B2046003727786N12151932WA0040900394004003028209204
B2046013727782N12151935WA0041000395004003029214215
B2046023727779N12151939WA0041000396004003028224236
B2046033727778N12151943WA0041100396004003026240251
B2046043727777N12151947WA0041100396004003024253238
B2046053727776N12151951WA0041100396004003025263263
B2046063727776N12151956WA0041100397004003024270247
B2046073727776N12151960WA0041200398004003024274267
B2046083727776N12151963WA0041300398004003012281260
B2046093727777N12151964WA0041300397004003012300268
B2046103727779N12151967WA0041100396004003012309260
B2046113727780N12151970WA0040900394004003016302270
B2046123727781N12151973WA0040800392004003019290238
B2046133727782N12151976WA0040600391004003019278246
B2046143727782N12151979WA0040500391004003018262233
B2046153727781N12151983WA0040400389004003018248231
B2046163727779N12151986WA0040200388004003018232216
B2046173727777N12151988WA0040100386004003019222216
B2046183727775N12151991WA0040000386004003019220215
B2046193727772N12151994WA0039900385004003024219205
B2046203727768N12151997WA0040000386004003027211231
B2046213727764N12152000WA0040200386004003027198233
B2046223727760N12152000WA0040400388004003027187218
B2046233727757N12152000WA0040500390004003024185220
B2046243727753N12152001WA0040500390004003024188209
B2046253727749N12152002WA0040500390004003030196233
B2046263727745N12152004WA0040600391004003030206247
B2046273727742N12152007WA0040600392004003030221229
B2046283727739N12152011WA0040700392004003027240239
B2046293727738N12152015WA0040800393004003022242216
B2046303727736N12152018WA0040900394004003024218204
B2046313727733N12152021WA0040800393004003024192184
B2046323727727N12152020WA0040700392004003030169172
B2046333727721N12152018WA0040600392004003042141152
B2046343727716N12152012WA0040600392005003042117128
B2046353727715N12152003WA0040600393005003042100107
B2046363727716N12151996WA0040700393004003040077092
B2046373727718N12151990WA0040700393004003032049066
B2046383727722N12151988WA0040700393005003032012028
B2046393727727N12151990WA0040700392004003030334343
B2046403727731N12151993WA0040800393004003028310308
B2046413727733N12151998WA0040900393004003023288292
B2046423727733N12152002WA0041000394004003023280274
B2046433727733N12152005WA0041100394004003019283282
B2046443727734N12152007WA0041000394004003016302278
B2046453727736N12152010WA0040900393004003018313283
B2046463727738N12152013WA0040800392004003022312278
B2046473727740N12152017WA0040600391004003022302272
B2046483727742N12152021WA0040400391004003025288261
B2046493727742N12152025WA0040300389004003024267263
B2046503727740N12152029WA0040200388004003024244257
B2046513727738N12152033WA0040100387004003023235244
B2046523727736N12152037WA0040000386004003023233236
B2046533727734N12152040WA0039900385004003023231243
B2046543727731N12152043WA0039800384004003023227236
B2046553727729N12152046WA0039800383004003023227245
B2046563727727N12152050WA0039700383004003023229245
B2046573727725N12152053WA0039700383004003020229222
B2046583727723N12152055WA0039600383004003020225214
B2046593727721N12152056WA0039600381004003016204200
B2047003727718N12152056WA0039400379004003016175200
B2047013727714N12152055WA0039100376004003027162189
B2047023727710N12152052WA0038900373004003031151168
B2047033727706N12152048WA0038600371004003031137146
B2047043727703N12152043WA0038400368004003035127135
B2047053727699N12152036WA0038200366005003042123124
B2047063727696N12152029WA0038000365004003043122134
B2047073727692N12152022WA0037800363004003043124126
B2047083727688N12152015WA0037700362004003045123123
B2047093727684N12152008WA0037700361004003045122127
B2047103727681N12152001WA0037600361004003045122131
B2047113727678N12151995WA0037600360004003042123119
B2047123727674N12151988WA0037400359004003042121118
B2047133727671N12151980WA0037400358004003046118136
B2047143727667N12151972WA0037400358004003047118126
B2047153727664N12151965WA0037400358004003046122150
B2047163727660N12151958WA0037400358004003045127151
B2047173727656N12151952WA0037400358004003042130163
B2047183727652N12151947WA0037400358004003042134159
B2047193727647N12151942WA0037400358004003039143169
B2047203727642N12151939WA0037300357004003038150176
B2047213727637N12151936WA0037300357004003040155186
B2047223727632N12151933WA0037300358004003040158189
B2047233727626N12151931WA0037400359004003039161193
B2047243727621N12151929WA0037600361004003036168194
B2047253727616N12151929WA0037800363004003032179198
B2047263727612N12151929WA0038100366004003032189210
B2047273727608N12151931WA0038300369004003029200219
B2047283727605N12151933WA0038600369004003023219230
B2047293727605N12151935WA0038700370004003013261244
B2047303727606N12151937WA0038900372004003015303274
B2047313727609N12151939WA0039000373004003015335299
B2047323727613N12151939WA0039100373004003020009319
B2047333727617N12151936WA0039100374004003038039349
B2047343727621N12151928WA0039200375004003047065030
B2047353727623N12151920WA0039400376004003046088062
B2047363727621N12151912WA0039700380004003046110089
B2047373727619N12151905WA0040000380004003036136116
B2047383727615N12151901WA0040200380005003036153150
B2047393727610N12151898WA0040500383004003036153172
B2047403727604N12151895WA0040700387004003036154174
B2047423727599N12151893WA0040900387004003028163175
B2047433727595N12151892WA0041000387004003028182189
B2047443727591N12151894WA0041000386004003027211206
B2047453727588N12151898WA0041000387004003026239231
B2047463727587N12151903WA0041100389005003023257252
B2047473727588N12151907WA0041200391004003023283265
B2047483727589N12151910WA0041200392004003019314282
B2047493727592N12151912WA0041200392004003019339301
B2047503727596N12151912WA0041300393004003025006317
B2047513727600N12151910WA0041300394004003029028342
B2047523727603N12151906WA0041400395004003029044005
B2047533727606N12151901WA0041500396004003033051024
B2047543727609N12151896WA0041600398004003034052038
B2047553727613N12151891WA0041800400004003034054021
B2047563727615N12151886WA0041900402004003034056039
B2047573727618N12151881WA0042000403004003034051036
B2047583727622N12151876WA0042100403004003032044050
B2047593727625N12151872WA0042100404004003032048025
B2048003727628N12151867WA0042200405004003032059016
B2048013727630N12151862WA0042100405004003032059010
B2048023727632N12151857WA0042000405004003027039359
B2048033727636N12151855WA0041700403004003027356339
B2048043727639N12151859WA0041500399004003027317310
B2048053727642N12151864WA0041300399005003028283290
B2048063727642N12151870WA0041300399004003026257270
B2048073727640N12151874WA0041400401004003026240267
B2048083727638N12151878WA0041400401004003023231256
B2048093727636N12151881WA0041500401004003021232251
B2048103727634N12151884WA0041400401004003020234260
B2048113727633N12151887WA0041400400004003020237257
B2048123727631N12151891WA0041300400004003020245268
B2048133727630N12151895WA0041300400004003022255273
B2048143727630N12151899WA0041400401004003021265272
B2048153727630N12151903WA0041400401004003021271273
B2048163727630N12151906WA0041500401004003019276262
B2048173727630N12151910WA0041500401004003019281270
B2048183727631N12151913WA0041500401004003020281264
B2048193727631N12151917WA0041500402004003021272239
B2048203727630N12151921WA0041600403004003020248232
B2048213727629N12151924WA0041800403004003020222234
B2048223727626N12151926WA0041900404004003022209230
B2048233727623N12151928WA0042000405004003022213255
B2048243727618N12151933WA0042100406004003020231252
B2048253727617N12151936WA0042100405004003019246255
B2048263727616N12151939WA0042000405004003019257243
B2048273727615N12151943WA0041900404004003021252240
B2048283727614N12151946WA0041900404004003020227230
B2048293727610N12151947WA0041800403004003021190215
B2048303727606N12151946WA0041700401004003033161192
B2048313727601N12151942WA0041500399004003040140162
B2048323727597N12151935WA0041300397004003040118136
B2048333727596N12151926WA0041100396004003046097109
B2048343727597N12151918WA0041000395004003044074083
B2048353727601N12151912WA0041000394004003044048056
B2048363727605N12151908WA0040900394004003039026027
B2048373727610N12151907WA0040900394004003033007003
B2048383727613N12151908WA0040800393004003025349344
B2048393727617N12151910WA0040700393004003025333326
B2048403727619N12151913WA0040600392004003024314314
B2048413727621N12151915WA0040600392004003020288301
B2048423727621N12151918WA0040500391004003016273284
B2048433727620N12151921WA0040500390004003016263274
B2048443727620N12151923WA0040500390004003014256269
B2048453727619N12151926WA0040400389004003014254271
B2048463727619N12151929WA0040300388004003016259261
B2048473727618N12151932WA0040300388004003017266266
B2048483727618N12151935WA0040300389004003016268251
B2048493727618N12151938WA0040400389004003015266266
B2048503727618N12151940WA0040500389004003013262267
B2048513727618N12151943WA0040500389004003013264275
B2048523727618N12151945WA0040600390004003013280276
B2048533727618N12151947WA0040500390004003013304264
B2048543727620N12151949WA0040500389004003014315278
B2048553727622N12151951WA0040400389004003014320273
B2048563727623N12151953WA0040300388004003014314261
B2048573727624N12151955WA0040100386004003014291264
B2048583727625N12151957WA0040000386004003013263263
B2048593727624N12151960WA0039900385004003013253259
B2049003727623N12151962WA0039900385004003013248263
B2049013727622N12151966WA0039900385004003017242271
B2049023727620N12151969WA0040000385004003015242258
B2049033727620N12151971WA0039900384004003015270235
B2049043727620N12151972WA0039900384004003009274258
B2049053727620N12151974WA0039800383004003009246256
B2049063727619N12151976WA0039500382004003020237244
B2049073727617N12151980WA0039400382004003025239249
B2049083727615N12151985WA0039400381004003025240235
B2049093727613N12151988WA0039300380004003025240205
B2049103727612N12151990WA0039300380004003013223235
B2049113727610N12151992WA0039100378004003019217237
B2049123727607N12151994WA0039000377004003019226254
B2049133727604N12151999WA0039000378004003027233251
B2049143727602N12152003WA0039200379004003022230274
B2049153727600N12152005WA0039300380004003022214261
B2049163727598N12152006WA0039400380004003015205240
B2049173727596N12152008WA0039400379004003015213245
B2049183727593N12152011WA0039300377004003025222243
B2049193727590N12152015WA0039200376004003028227237
B2049203727587N12152019WA0039200377004003026232263
B2049213727585N12152022WA0039200378004003026236266
B2049223727584N12152025WA0039300379004003016242280
B2049233727583N12152028WA0039400380004003016256278
B2049243727584N12152030WA0039400380004003013274284
B2049253727584N12152033WA0039400379004003013291289
B2049263727586N12152035WA0039400379004003017303302
B2049273727587N12152038WA0039300379004003018318286
B2049283727590N12152040WA0039300379004003018326278
B2049293727592N12152042WA0039200378004003019306270
B2049313727593N12152046WA0039200378004003020276260
B2049323727593N12152050WA0039200378004003020243243
B2049333727590N12152051WA0039200379004003020201228
B2049343727586N12152051WA0039200379004003021173210
B2049353727581N12152049WA0039200378004003032156193
B2049363727577N12152046WA0039100378004003034147172
B2049373727573N12152042WA0039200378004003034138159
B2049383727569N12152037WA0039200377004003034128146
B2049393727566N12152031WA0039100377004003036119135
B2049403727564N12152025WA0039000376004003040109122
B2049413727562N12152017WA0038900375004003040101110
B2049423727561N12152008WA0038800374004003044095100
B2049433727561N12152000WA0038800375004003044089089
B2049443727562N12151992WA0038900376004003044085082
B2049453727562N12151985WA0039000376004003041084080
B2049463727563N12151977WA0039100377004003039086075
B2049473727563N12151969WA0039100377004003041088081
B2049483727563N12151962WA0039100377004003041091081
B2049493727563N12151954WA0039100377004003041094089
B2049503727562N12151946WA0039100376004003041096079
B2049513727561N12151938WA0039000376004003042098078
B2049523727560N12151931WA0039000376004003042099083
B2049533727559N12151923WA0039000376004003042097080
B2049543727559N12151914WA0039000375004003042095090
B2049553727558N12151906WA0038900375004003043090074
B2049563727559N12151899WA0039000375004003043086083
B2049573727559N12151891WA0039000375004003041084076
B2049583727560N12151883WA0038900375004003041083082
B2049593727561N12151875WA0038900374004003043087087
B2050003727560N12151867WA0038800374004003044091085
B2050013727560N12151859WA0038800373004003044095099
B2050023727559N12151850WA0038800373004003045098098
B2050033727558N12151841WA0038700373004003048100091
B2050043727556N12151833WA0038700373004003048103071
B2050053727555N12151825WA0038700373004003045100065
B2050063727555N12151818WA0038700372004003042086052
B2050073727556N12151811WA0038500371004003037063043
B2050083727560N12151807WA0038300367004003037035017
B2050093727565N12151803WA0037900367004003036010351
B2050103727570N12151803WA0037800367004003032342327
B2050113727572N12151806WA0037800367004003018309315
B2050123727572N12151810WA0037800365004003018268297
B2050133727572N12151813WA0037700365004003014267278
B2050143727572N12151815WA0037500363004003012282276
B2050153727573N12151818WA0037400361004003014283272
B2050163727573N12151821WA0037300360004003016275273
B2050173727573N12151824WA0037300359004003016253273
B2050183727572N12151827WA0037200359004003016245262
B2050193727571N12151829WA0037200358004003015248271
B2050203727570N12151832WA0037200358004003016246258
B2050213727569N12151835WA0037300359004003016240251
B2050223727567N12151837WA0037300360004003016242250
B2050233727567N12151840WA0037400360004003013257287
B2050243727567N12151842WA0037400359004003013273289
B2050253727567N12151844WA0037400359004003013280288
B2050263727567N12151846WA0037300359004003011263287
B2050273727567N12151848WA0037200357004003013241260
B2050283727565N12151850WA0037100356004003015231254
B2050293727564N12151853WA0037000356004003015236267
B2050303727563N12151857WA0036900355004003012264275
B2050313727563N12151859WA0036900354004003011266279
B2050323727563N12151861WA0036800353004003013266278
B2050333727563N12151864WA0036700352004003013266282
B2050343727562N12151867WA0036600351004003015267293
B2050353727562N12151871WA0036600351004003017269290
B2050363727563N12151874WA0036600351004003017276280
B2050373727563N12151877WA0036600351004003016278276
B2050383727563N12151880WA0036700352004003016277252
B2050393727564N12151883WA0036700352004003016277255
B2050403727564N12151885WA0036700352004003016271231
B2050413727563N12151888WA0036700352004003016252240
B2050423727562N12151891WA0036600350004003016232234
B2050433727559N12151894WA0036500349004003022221234
B2050443727557N12151896WA0036500349004003022213247
B2050453727554N12151898WA0036400348004003022204244
B2050463727551N12151900WA0036300348004003022202233
B2050473727547N12151901WA0036300347004003025201227
B2050483727544N12151903WA0036200347004003027196222
B2050493727539N12151904WA0036200347004003027190226
B2050503727535N12151905WA0036200346004003029188226
B2050513727530N12151906WA0036200346004003031192240
B2050523727526N12151907WA0036300347004003031195225
B2050533727522N12151909WA0036300347004003030197222
B2050543727518N12151911WA0036300347004003029199225
B2050553727514N12151912WA0036300347004003027195245
B2050563727510N12151913WA0036300347004003027186240
B2050573727508N12151914WA0036200345004003021190216
B2050583727505N12151915WA0036000342004003017205235
B2050593727503N12151917WA0035600339004003021223252
B2051003727501N12151920WA0035400337004003023235263
B2051013727500N12151924WA0035200335004003021245274
B2051023727499N12151927WA0035100334004003021262273
B2051033727500N12151930WA0034900332004003015287285
B2051043727501N12151933WA0034700332004003019318294
B2051053727504N12151935WA0034500329004003019336313
B2051063727508N12151936WA0034400328004003025354327
B2051073727513N12151935WA0034300327004003032015343
B2051083727517N12151931WA0034200326004003033035003
B2051093727521N12151927WA0034000324004003033048021
B2051103727524N12151922WA0033900324004003033054033
B2051113727527N12151916WA0033700322004003039059041
B2051123727529N12151908WA0033600320004003041070052
B2051133727531N12151900WA0033500320004003041089067
B2051143727530N12151891WA0033400319004003047097089
B2051153727529N12151881WA0033400319004003050098104
B2051163727528N12151872WA0033500320004003050095100
B2051173727527N12151864WA0033500320004003046092096
B2051183727527N12151856WA0033500320004003042089061
B2051193727528N12151849WA0033500319004003040079055
B2051203727531N12151842WA0033400317004003040061040
B2051213727534N12151836WA0033300317004003040030014
B2051233727538N12151834WA0033200317004003037359350
B2051243727541N12151836WA0033100315004003020329321
B2051253727542N12151839WA0032900314004003020284298
B2051263727542N12151843WA0032900312004003017259271
B2051273727541N12151846WA0032800311004003017243258
B2051283727540N12151849WA0032600309004003019235247
B2051293727538N12151852WA0032500308004003021239248
B2051303727537N12151856WA0032500307004003021245260
B2051313727535N12151860WA0032500308004003023248252
B2051323727534N12151864WA0032600309004003020248289
B2051333727533N12151866WA0032700310004003020247278
B2051343727533N12151869WA0032700309004003013250274
B2051353727533N12151870WA0032600309004003010267272
B2051363727533N12151873WA0032400306004003013280283
B2051373727534N12151876WA0032200304004003017287282
B2051383727535N12151879WA0032100303004003017294290
B2051393727536N12151882WA0032000302004003018297289
B2051403727537N12151884WA0031900302004003014293316
B2051413727538N12151886WA0031900301004003014291324
B2051423727538N12151888WA0031800300004003012292315
B2051433727539N12151891WA0031700299004003012302311
B2051443727541N12151893WA0031600298004003016313307
B2051453727543N12151895WA0031500297004003020319311
B2051463727546N12151898WA0031500297004003020320318
B2051473727548N12151899WA0031600298004003020326318
B2051483727549N12151901WA0031700299004003011330313
B2051493727551N12151902WA0031700299004003011326304
B2051503727552N12151903WA0031700298004003011319301
B2051513727554N12151906WA0031600297004003014314296
B2051523727556N12151908WA0031500297004003022314296
B2051533727559N12151911WA0031600298004003024315300
B2051543727561N12151915WA0031800299004003022312302
B2051553727563N12151918WA0032100299004003022304298
B2051563727565N12151920WA0032200300004003017306292
B2051573727566N12151923WA0032400302004003018308291
B2051583727568N12151925WA0032500304004003018313293
B2051593727570N12151927WA0032600306004003018326295
B2052003727571N12151928WA0032700305004003011335304
B2052013727573N12151929WA0032700306004003012316302
B2052023727573N12151932WA0032600305004003012275290
B2052033727572N12151935WA0032500304004003016239267
B2052043727570N12151939WA0032500304004003028213257
B2052053727565N12151941WA0032500304004003031194260
B2052063727560N12151942WA0032500305004003031177236
B2052073727555N12151941WA0032500305004003031177212
B2052083727550N12151941WA0032500305004003033175207
B2052093727545N12151940WA0032600306004003035160188
B2052103727541N12151936WA0032600306004003035145172
B2052113727537N12151930WA0032500305004003037123146
B2052123727534N12151923WA0032500305004003043108119
B2052133727534N12151915WA0032400305004003043091094
B2052143727535N12151908WA0032400305004003040068065
B2052153727538N12151903WA0032400304004003034039034
B2052163727542N12151901WA0032200303004003032012004
B2052173727547N12151901WA0032100303004003032340347
B2052183727552N12151904WA0032200304004003032317333
B2052193727554N12151907WA0032400305004003025312349
B2052203727555N12151910WA0032600305004003013319346
B2052213727556N12151911WA0032700306004003013330331
B2052223727557N12151911WA0032700306004003008334312
B2052233727558N12151912WA0032600305004003006307307
B2052243727558N12151914WA0032400303004003014286299
B2052253727559N12151917WA0032300303004003021281293
B2052263727559N12151922WA0032300304004003019279291
B2052273727559N12151925WA0032300305004003019278284
B2052283727560N12151928WA0032400306004003014279282
B2052293727560N12151930WA0032400306004003014277280
B2052303727560N12151933WA0032400305004003014279278
B2052313727561N12151936WA0032300305004003015281279
B2052323727561N12151939WA0032300304004003017282278
B2052333727562N12151942WA0032200304004003018275277
B2052343727561N12151946WA0032200304004003018251272
B2052353727559N12151949WA0032100302004003019222255
B2052363727550N12151952WA0031900300004003035184224
B2052373727544N12151952WA0031800300004003037173204
B2052383727539N12151950WA0031800299004003036161191
B2052393727534N12151946WA0031800299004003036143164
B2052403727531N12151941WA0031700299004003037128172
B2052413727528N12151935WA0031700298004003037115138
B2052423727526N12151929WA0031700299004003036105131
B2052433727525N12151923WA0031600298004003036089076
B2052443727526N12151916WA0031500297004003035069055
B2052453727531N12151912WA0031300295004003035035026
B2052463727535N12151909WA0031200295004003035005004
B2052473727540N12151909WA0031100295004003032349332
B2052483727544N12151911WA0031100294004003020340344
B2052493727547N12151913WA0031000293004003020334357
B2052503727549N12151915WA0030900291004003020328351
B2052513727552N12151918WA0030900290004003021320339
B2052523727555N12151921WA0030800290004003025316324
B2052533727558N12151924WA0030900291004003025317319
B2052543727560N12151927WA0031000292004003024318319
B2052553727562N12151930WA0031100292004003021318312
B2052563727564N12151932WA0031100293004003017317312
B2052573727566N12151934WA0031100293004003017315307
B2052583727568N12151936WA0031100293004003017320302
B2052593727571N12151938WA0031100292004003019328305
B2053003727573N12151939WA0031100293004003016337310
B2053013727575N12151940WA0031100293004003016338312
B2053023727577N12151941WA0031000292004003015345312
B2053033727579N12151942WA0030900290004003015347313
B2053043727582N12151942WA0030800288004003017349314
B2053053727584N12151943WA0030600288004003017352318
B2053063727587N12151943WA0030500288004003017350319
B2053073727589N12151944WA0030300286004003017340318
B2053083727592N12151946WA0030200284004003019323314
B2053093727594N12151948WA0030200285004003020306306
B2053103727595N12151952WA0030300286004003019292298
B2053113727596N12151955WA0030400286004003018286289
B2053123727596N12151958WA0030400287004003017288284
B2053133727597N12151961WA0030500287004003018289285
B2053143727598N12151965WA0030500288004003018295285
B2053153727600N12151967WA0030500288004003018304286
B2053163727601N12151970WA0030600288004003013288290
B2053173727601N12151972WA0030600287004003015234271
B2053183727599N12151974WA0030500286004003015195237
B2053193727593N12151973WA0030300283004003025170207
B2053203727587N12151969WA0030100281004003046145175
B2053213727583N12151962WA0030000280004003048118142
B2053233727581N12151953WA0029900279004003048099147
B2053243727581N12151945WA0029800279004003048092154
B2053253727581N12151937WA0029600278004003034096126
B2053263727580N12151931WA0029400277004003034099127
B2053273727579N12151925WA0029200273004003034099124
B2053283727578N12151917WA0028800270004003038099123
B2053293727576N12151909WA0028600267004003045110125
B2053303727572N12151902WA0028500266004003045129138
B2053313727567N12151899WA0028400265004003040152158
B2053323727564N12151898WA0028400265004003032175185
B2053333727561N12151899WA0028300264004003020201209
B2053343727559N12151902WA0028200263004003020232235
B2053353727558N12151905WA0028100262004003020259253
B2053363727558N12151910WA0028000261004003022279269
B2053373727560N12151913WA0027900260004003020298280
B2053383727562N12151916WA0027900260004003020314291
B2053393727564N12151919WA0027800259004003020319300
B2053403727566N12151921WA0027700258004003021319302
B2053413727569N12151924WA0027600256004003023322303
B2053423727572N12151927WA0027400254004003025328306
B2053433727575N12151928WA0027300253004003023336312
B2053443727578N12151930WA0027100252004003022331313
B2053453727579N12151932WA0027000249004003012293298
B2053463727579N12151934WA0026600249004003018226266
B2053473727575N12151936WA0026200244004003018192228
B2053483727571N12151937WA0025800244004003028155207
B2053493727564N12151932WA0025600244004003044132169
B2053503727559N12151925WA0025500245004003044123166
B2053513727556N12151919WA0025600245004003039121168
B2053523727553N12151914WA0025600245004003032120160
B2053533727551N12151909WA0025600244004003030119153
B2053543727549N12151903WA0025400242004003035115148
B2053553727547N12151896WA0025300241005003035112142
B2053563727545N12151889WA0025300239004003040113137
B2053573727542N12151883WA0025200238004003036125137
B2053583727538N12151879WA0025000236004003036143150
B2053593727534N12151876WA0024900234004003034156168
B2054003727529N12151873WA0024800233004003034155181
B2054013727525N12151871WA0024700231004003029149180
B2054023727522N12151868WA0024600230004003029155179
B2054033727518N12151867WA0024500229004003026174184
B2054043727514N12151867WA0024400228004003025184204
B2054053727510N12151868WA0024400228004003027190212
B2054063727506N12151870WA0024300227004003027202216
B2054073727503N12151872WA0024200226004003027223225
B2054083727501N12151876WA0024100225004003026245240
B2054093727501N12151880WA0024100223004003020269256
B2054103727502N12151884WA0023900221004003020298272
B2054113727505N12151886WA0023600218004003019327290
B2054123727507N12151887WA0023300215004003019348307
B2054133727510N12151887WA0023100213004003017348320
B2054143727512N12151888WA0022800212004003018328318
B2054153727514N12151892WA0022500209004003018290304
B2054163727515N12151897WA0022300209004003023269306
B2054173727514N12151903WA0022300209004003026256291
B2054183727513N12151908WA0022300208004003026247286
B2054193727511N12151910WA0022300208004003021241272
B2054203727510N12151912WA0022200206004003015249269
B2054213727510N12151915WA0022000203003003016261270
B2054223727509N12151919WA0021700199004003025262273
B2054233727509N12151925WA0021400196004003025258271
B2054243727508N12151931WA0021400197004003030260268
B2054253727507N12151935WA0021500197004003023262268
B2054263727507N12151939WA0021500197004003023260269
B2054273727506N12151942WA0021500197004003019255267
B2054283727505N12151945WA0021500196004003019246264
B2054293727504N12151949WA0021400195004003024242259
B2054303727502N12151954WA0021300194004003026240255
B2054313727500N12151958WA0021200193004003025238252
B2054323727498N12151961WA0021200193004003025239251
B2054333727497N12151965WA0021300193004003020246251
B2054343727496N12151968WA0021300192004003020250258
B2054353727495N12151971WA0021200192005003019262260
B2054363727495N12151975WA0021200192004003019274268
B2054373727495N12151979WA0021100192004003018279275
B2054383727496N12151982WA0021200192004003018288278
B2054393727497N12151983WA0021200191004003012297284
B2054403727497N12151985WA0021100189004003011284290
B2054413727497N12151988WA0020900187004003015255288
B2054423727494N12151995WA0020600184004003021237266
B2054433727492N12151998WA0020600185004003021232260
B2054443727490N12152000WA0020500185004003020224255
B2054453727488N12152002WA0020500184004003017221249
B2054463727486N12152005WA0020300182004003018224249
B2054473727485N12152007WA0020200180004003018230249
B2054483727483N12152010WA0019900178004003018229251
B2054493727482N12152012WA0019800179004003007231249
B2054503727482N12152012WA0019900178004003007231246
B2054513727482N12152012WA0019900178004003000231242
B2054523727482N12152012WA0019900178004003000231247
B2054533727482N12152011WA0019900178004003002231249
B2054543727482N12152011WA0019900178004003002231249
B2054553727482N12152010WA0019900178004003001231250
B2054563727482N12152010WA0019900177004003000231252
B2054573727482N12152010WA0019900178004003000231253
B2054583727482N12152010WA0019900178004003000231255
B2054593727482N12152010WA0019900177004003000231255
B2055003727482N12152010WA0019900177004003000231264
B2055013727482N12152010WA0019900177004003000231257
B2055023727482N12152010WA0019900177004003000231258
B2055033727482N12152010WA0019900177004003000231258
B2055043727482N12152010WA0019900177004003001231258
B2055053727482N12152010WA0019900178004003000231259
B2055063727482N12152010WA0019900178004003000231259
B2055073727482N12152010WA0019900178004003001231259
B2055083727482N12152010WA0019900178004003001231259
B2055093727482N12152010WA0019900178004003000231259
B2055103727482N12152010WA0019900178005003000231259
B2055113727482N12152010WA0019900178004003000231259
B2055123727482N12152010WA0019900178005003000231259
B2055133727482N12152010WA0019900178005003000231260
B2055143727482N12152010WA0019900178005003000231260
B2055153727482N12152010WA0019900178004003000231260
B2055163727482N12152010WA0019900178004003000231260
B2055173727482N12152010WA0019900178004003000231260
B2055183727482N12152010WA0019900178004003000231260
B2055193727482N12152010WA0019900178004003000231260
GCqjVPSWP4NV2TvwP8OkXRvVs2NE+KNVEIHFlYZzwXhLlhaHUYzDCp+uFNw53t/F9
GBbrEV1eLj5i5MUrVPNG+QhrPkART+8LUT6zfroy34jYbELzE/l7J9FBtdN3Y8BKB
G5RNBMCwMXpIrMDIsdOQdF01eXSJxA3UlSIcMEdkKwbY=
